X,Y,OBJECTID,LATITUDE,LONGITUDE,NAME,STATION_TYPE,STATION_ID,STATION_STATUS,LAST_REPORTED,NUM_DOCKS_AVAILABLE,NUM_DOCKS_DISABLED,NUM_BIKES_AVAILABLE,NUM_EBIKES_AVAILABLE,NUM_BIKES_DISABLED,IS_INSTALLED,IS_RETURNING,IS_RENTING,HAS_KIOSK,IOS,ANDROID,ELECTRIC_BIKE_SURCHARGE_WAIVER,EIGHTD_HAS_KEY_DISPENSER,CAPACITY,RENTAL_METHODS,REGION_ID,GIS_LAST_MOD_DTTM,GIS_ID,REGION_NAME
-77.07832374,38.8989879,30370905,38.898984,-77.078317,21st St & N Pierce St,classic,355,active,2021/11/07 21:27:17+00,2,0,13,1,0,Yes,Yes,Yes,Yes,https://dc.lft.to/lastmile_qr_scan,https://dc.lft.to/lastmile_qr_scan,No,No,15,"KEY,CREDITCARD",41,2021/11/07 23:02:59+00,,"Arlington, VA"
-77.05323194,38.85897772,30370906,38.858971,-77.05323,Eads St & 15th St S,classic,1,active,2021/11/07 22:27:58+00,9,0,6,2,0,Yes,Yes,Yes,Yes,https://dc.lft.to/lastmile_qr_scan,https://dc.lft.to/lastmile_qr_scan,No,No,15,"KEY,CREDITCARD",41,2021/11/07 23:02:59+00,,"Arlington, VA"
-77.04923219,38.8564301,30370907,38.856425,-77.049232,Crystal Dr & 20th St S,classic,3,active,2021/11/07 21:59:40+00,6,0,11,0,0,Yes,Yes,Yes,Yes,https://dc.lft.to/lastmile_qr_scan,https://dc.lft.to/lastmile_qr_scan,No,No,17,"KEY,CREDITCARD",41,2021/11/07 23:02:59+00,,"Arlington, VA"
-77.04941974,38.86106035,30370908,38.861056,-77.049417,Crystal Dr & 15th St S,classic,4,active,2021/11/07 19:39:22+00,11,0,5,0,0,Yes,Yes,Yes,Yes,https://dc.lft.to/lastmile_qr_scan,https://dc.lft.to/lastmile_qr_scan,No,No,16,"KEY,CREDITCARD",41,2021/11/07 23:02:59+00,,"Arlington, VA"
-77.05948723,38.85787568,30370909,38.857866,-77.05949,Aurora Hills Cmty Ctr / 18th St & S Hayes St,classic,5,active,2021/11/07 18:37:04+00,6,0,6,0,0,Yes,Yes,Yes,Yes,https://dc.lft.to/lastmile_qr_scan,https://dc.lft.to/lastmile_qr_scan,No,No,12,"KEY,CREDITCARD",41,2021/11/07 23:02:59+00,,"Arlington, VA"
-77.05994029,38.86230759,30370910,38.862303,-77.059936,Pentagon City Metro / 12th St & S Hayes St,classic,6,active,2021/11/07 21:53:06+00,9,0,9,0,0,Yes,Yes,Yes,Yes,https://dc.lft.to/lastmile_qr_scan,https://dc.lft.to/lastmile_qr_scan,No,No,18,"KEY,CREDITCARD",41,2021/11/07 23:02:59+00,,"Arlington, VA"
-77.06342087,38.8633237,30370911,38.863314,-77.063416,Army Navy Dr & S Joyce St,classic,7,active,2021/11/07 20:28:10+00,7,0,9,0,0,Yes,Yes,Yes,Yes,https://dc.lft.to/lastmile_qr_scan,https://dc.lft.to/lastmile_qr_scan,No,No,16,"KEY,CREDITCARD",41,2021/11/07 23:02:59+00,,"Arlington, VA"
-77.05169871,38.8577893,30370912,38.857785,-77.051698,Crystal City Metro / 18th St & S Bell St,classic,8,active,2021/11/07 22:27:38+00,14,0,5,0,0,Yes,Yes,Yes,Yes,https://dc.lft.to/lastmile_qr_scan,https://dc.lft.to/lastmile_qr_scan,No,No,19,"KEY,CREDITCARD",41,2021/11/07 23:02:59+00,,"Arlington, VA"
-77.05151916,38.84847466,30370913,38.848466,-77.051514,Crystal Dr & 27th St S,classic,10,active,2021/11/07 22:32:23+00,5,0,6,0,0,Yes,Yes,Yes,Yes,https://dc.lft.to/lastmile_qr_scan,https://dc.lft.to/lastmile_qr_scan,No,No,11,"KEY,CREDITCARD",41,2021/11/07 23:02:59+00,,"Arlington, VA"
-77.05020177,38.84261074,30370914,38.8426,-77.0502,S Glebe Rd & Potomac Ave,classic,11,active,2021/11/07 19:42:59+00,3,0,8,0,0,Yes,Yes,Yes,Yes,https://dc.lft.to/lastmile_qr_scan,https://dc.lft.to/lastmile_qr_scan,No,No,11,"KEY,CREDITCARD",41,2021/11/07 23:02:59+00,,"Arlington, VA"
-77.04972517,38.85293461,30370915,38.852929,-77.049723,Crystal Dr & 23rd St S,classic,12,active,2021/11/07 21:25:55+00,5,0,12,0,0,Yes,Yes,Yes,Yes,https://dc.lft.to/lastmile_qr_scan,https://dc.lft.to/lastmile_qr_scan,No,No,17,"KEY,CREDITCARD",41,2021/11/07 23:02:59+00,,"Arlington, VA"
-77.05152077,38.85069974,30370916,38.850688,-77.05152,Clark St & 26th St S,classic,13,active,2021/11/07 21:02:57+00,7,0,4,0,0,Yes,Yes,Yes,Yes,https://dc.lft.to/lastmile_qr_scan,https://dc.lft.to/lastmile_qr_scan,No,No,11,"KEY,CREDITCARD",41,2021/11/07 23:02:59+00,,"Arlington, VA"
-77.04289888,38.90030348,30370917,38.9003,-77.0429,19th St & Pennsylvania Ave NW,classic,14,active,2021/11/07 20:10:28+00,5,0,10,0,0,Yes,Yes,Yes,Yes,https://dc.lft.to/lastmile_qr_scan,https://dc.lft.to/lastmile_qr_scan,No,No,15,"KEY,CREDITCARD",42,2021/11/07 23:02:59+00,,"Washington, DC"
-77.03209325,38.91777413,30370918,38.917765,-77.032096,14th & V St NW,classic,15,active,2021/11/07 22:44:59+00,16,0,15,0,0,Yes,Yes,Yes,Yes,https://dc.lft.to/lastmile_qr_scan,https://dc.lft.to/lastmile_qr_scan,No,No,31,"KEY,CREDITCARD",42,2021/11/07 23:02:59+00,,"Washington, DC"
-77.02781978,38.92946803,30370919,38.929464,-77.027822,11th & Kenyon St NW,classic,16,active,2021/11/07 22:58:01+00,19,15,3,1,2,Yes,Yes,Yes,Yes,https://dc.lft.to/lastmile_qr_scan,https://dc.lft.to/lastmile_qr_scan,No,No,39,"KEY,CREDITCARD",42,2021/11/07 23:02:59+00,,"Washington, DC"
-77.03541835,38.9261329,30370920,38.926124,-77.035421,15th & Harvard St NW,classic,17,active,2021/11/07 22:08:35+00,21,0,1,1,1,Yes,Yes,Yes,Yes,https://dc.lft.to/lastmile_qr_scan,https://dc.lft.to/lastmile_qr_scan,No,No,23,"KEY,CREDITCARD",42,2021/11/07 23:02:59+00,,"Washington, DC"
-77.04257807,38.92293255,30370921,38.922925,-77.042581,Adams Mill & Columbia Rd NW,classic,18,active,2021/11/07 21:12:22+00,15,0,0,0,0,Yes,Yes,Yes,Yes,https://dc.lft.to/lastmile_qr_scan,https://dc.lft.to/lastmile_qr_scan,No,No,15,"KEY,CREDITCARD",42,2021/11/07 23:02:59+00,,"Washington, DC"
-77.03220111,38.92680945,30370922,38.9268,-77.0322,14th & Harvard St NW,classic,19,active,2021/11/07 21:58:34+00,19,0,0,0,0,Yes,Yes,Yes,Yes,https://dc.lft.to/lastmile_qr_scan,https://dc.lft.to/lastmile_qr_scan,No,No,19,"KEY,CREDITCARD",42,2021/11/07 23:02:59+00,,"Washington, DC"
-77.04764076,38.92320986,30370923,38.923203,-77.047637,Calvert & Biltmore St NW,classic,20,active,2021/11/07 18:42:52+00,19,0,4,0,0,Yes,Yes,Yes,Yes,https://dc.lft.to/lastmile_qr_scan,https://dc.lft.to/lastmile_qr_scan,No,No,23,"KEY,CREDITCARD",42,2021/11/07 23:02:59+00,,"Washington, DC"
-77.03880049,38.93190615,30370924,38.9319,-77.0388,Lamont & Mt Pleasant NW,classic,21,active,2021/11/07 22:55:04+00,2,0,17,4,0,Yes,Yes,Yes,Yes,https://dc.lft.to/lastmile_qr_scan,https://dc.lft.to/lastmile_qr_scan,No,No,19,"KEY,CREDITCARD",42,2021/11/07 23:02:59+00,,"Washington, DC"
-77.01789973,38.87670803,30370925,38.876697,-77.017898,4th & M St SW,classic,22,active,2021/11/07 22:18:24+00,4,0,16,0,3,Yes,Yes,Yes,Yes,https://dc.lft.to/lastmile_qr_scan,https://dc.lft.to/lastmile_qr_scan,No,No,23,"KEY,CREDITCARD",42,2021/11/07 23:02:59+00,,"Washington, DC"
-77.03443021,38.90981009,30370926,38.909801,-77.034427,15th & P St NW,classic,23,active,2021/11/07 22:31:38+00,10,0,9,0,0,Yes,Yes,Yes,Yes,https://dc.lft.to/lastmile_qr_scan,https://dc.lft.to/lastmile_qr_scan,No,No,19,"KEY,CREDITCARD",42,2021/11/07 23:02:59+00,,"Washington, DC"
-77.03201041,38.91305379,30370927,38.913046,-77.032008,14th & R St NW,classic,24,active,2021/11/07 22:08:36+00,15,0,4,0,0,Yes,Yes,Yes,Yes,https://dc.lft.to/lastmile_qr_scan,https://dc.lft.to/lastmile_qr_scan,No,No,19,"KEY,CREDITCARD",42,2021/11/07 23:02:59+00,,"Washington, DC"
-77.03229665,38.90860359,30370928,38.9086,-77.0323,14th & Rhode Island Ave NW,classic,25,active,2021/11/07 23:00:35+00,9,0,12,1,2,Yes,Yes,Yes,Yes,https://dc.lft.to/lastmile_qr_scan,https://dc.lft.to/lastmile_qr_scan,No,No,23,"KEY,CREDITCARD",42,2021/11/07 23:02:59+00,,"Washington, DC"
-77.04500603,38.89631198,30370929,38.8963,-77.045,20th & E St NW,classic,26,active,2021/11/07 22:38:48+00,6,0,9,1,0,Yes,Yes,Yes,Yes,https://dc.lft.to/lastmile_qr_scan,https://dc.lft.to/lastmile_qr_scan,No,No,15,"KEY,CREDITCARD",42,2021/11/07 23:02:59+00,,"Washington, DC"
-77.04644985,38.90071651,30370930,38.900711,-77.046449,21st & I St NW,classic,27,active,2021/11/07 22:40:39+00,23,0,11,1,1,Yes,Yes,Yes,Yes,https://dc.lft.to/lastmile_qr_scan,https://dc.lft.to/lastmile_qr_scan,No,No,35,"KEY,CREDITCARD",42,2021/11/07 23:02:59+00,,"Washington, DC"
-77.02417782,38.9366935,30370931,38.936684,-77.024181,Georgia & New Hampshire Ave NW,classic,28,active,2021/11/07 20:39:13+00,16,0,3,0,0,Yes,Yes,Yes,Yes,https://dc.lft.to/lastmile_qr_scan,https://dc.lft.to/lastmile_qr_scan,No,No,19,"KEY,CREDITCARD",42,2021/11/07 23:02:59+00,,"Washington, DC"
-77.03280572,38.93751115,30370932,38.9375,-77.0328,14th St & Spring Rd NW,classic,29,active,2021/11/07 22:57:36+00,16,0,3,3,0,Yes,Yes,Yes,Yes,https://dc.lft.to/lastmile_qr_scan,https://dc.lft.to/lastmile_qr_scan,No,No,19,"KEY,CREDITCARD",42,2021/11/07 23:02:59+00,,"Washington, DC"
-76.99550411,38.93460599,30370933,38.9346,-76.9955,John McCormack Dr & Michigan Ave NE,classic,30,active,2021/11/07 15:50:12+00,9,0,2,0,0,Yes,Yes,Yes,Yes,https://dc.lft.to/lastmile_qr_scan,https://dc.lft.to/lastmile_qr_scan,No,No,11,"KEY,CREDITCARD",42,2021/11/07 23:02:59+00,,"Washington, DC"
-77.01902462,38.90304835,30370934,38.90304,-77.019027,5th & K St NW,classic,31,active,2021/11/07 22:25:25+00,3,0,15,3,1,Yes,Yes,Yes,Yes,https://dc.lft.to/lastmile_qr_scan,https://dc.lft.to/lastmile_qr_scan,No,No,19,"KEY,CREDITCARD",42,2021/11/07 23:02:59+00,,"Washington, DC"
-76.97690314,38.88960713,30370935,38.8896,-76.9769,19th & East Capitol St SE,classic,32,active,2021/11/07 19:30:33+00,13,0,2,1,0,Yes,Yes,Yes,Yes,https://dc.lft.to/lastmile_qr_scan,https://dc.lft.to/lastmile_qr_scan,No,No,15,"KEY,CREDITCARD",42,2021/11/07 23:02:59+00,,"Washington, DC"
-77.03149939,38.93080933,30370936,38.9308,-77.0315,Park Rd & Holmead Pl NW,classic,33,active,2021/11/07 22:41:42+00,33,0,2,0,0,Yes,Yes,Yes,Yes,https://dc.lft.to/lastmile_qr_scan,https://dc.lft.to/lastmile_qr_scan,No,No,35,"KEY,CREDITCARD",42,2021/11/07 23:02:59+00,,"Washington, DC"
-76.96918092,38.8616703,30370937,38.861663,-76.969184,Good Hope & Naylor Rd SE,classic,34,active,2021/11/07 17:22:07+00,14,0,5,0,0,Yes,Yes,Yes,Yes,https://dc.lft.to/lastmile_qr_scan,https://dc.lft.to/lastmile_qr_scan,No,No,19,"KEY,CREDITCARD",42,2021/11/07 23:02:59+00,,"Washington, DC"
-77.05798239,38.9342764,30370938,38.934267,-77.057979,Connecticut Ave & Newark St NW / Cleveland Park,classic,35,active,2021/11/07 21:39:28+00,8,0,3,2,0,Yes,Yes,Yes,Yes,https://dc.lft.to/lastmile_qr_scan,https://dc.lft.to/lastmile_qr_scan,No,No,11,"KEY,CREDITCARD",42,2021/11/07 23:02:59+00,,"Washington, DC"
-76.96070325,38.87800901,30370939,38.878,-76.9607,Randle Circle & Minnesota Ave SE,classic,36,active,2021/11/07 18:44:59+00,3,0,8,0,0,Yes,Yes,Yes,Yes,https://dc.lft.to/lastmile_qr_scan,https://dc.lft.to/lastmile_qr_scan,No,No,11,"KEY,CREDITCARD",42,2021/11/07 23:02:59+00,,"Washington, DC"
-76.94744739,38.89707454,30370940,38.897063,-76.947446,Minnesota Ave Metro/DOES,classic,37,active,2021/11/07 04:04:11+00,11,0,4,0,0,Yes,Yes,Yes,Yes,https://dc.lft.to/lastmile_qr_scan,https://dc.lft.to/lastmile_qr_scan,No,No,15,"KEY,CREDITCARD",42,2021/11/07 23:02:59+00,,"Washington, DC"
-76.94187598,38.90139592,30370941,38.901385,-76.941877,Nannie Helen Burroughs & Minnesota Ave NE,classic,38,active,2021/11/07 04:04:13+00,2,0,9,0,0,Yes,Yes,Yes,Yes,https://dc.lft.to/lastmile_qr_scan,https://dc.lft.to/lastmile_qr_scan,No,No,11,"KEY,CREDITCARD",42,2021/11/07 23:02:59+00,,"Washington, DC"
-76.99464447,38.86267418,30370942,38.862669,-76.994637,Anacostia Metro,classic,39,active,2021/11/07 04:59:34+00,19,0,0,0,0,Yes,Yes,Yes,Yes,https://dc.lft.to/lastmile_qr_scan,https://dc.lft.to/lastmile_qr_scan,No,No,19,"KEY,CREDITCARD",42,2021/11/07 23:02:59+00,,"Washington, DC"
-76.98804148,38.86738509,30370943,38.867373,-76.988039,Good Hope Rd & MLK Ave SE,classic,40,active,2021/11/07 14:12:40+00,5,0,6,0,0,Yes,Yes,Yes,Yes,https://dc.lft.to/lastmile_qr_scan,https://dc.lft.to/lastmile_qr_scan,No,No,11,"KEY,CREDITCARD",42,2021/11/07 23:02:59+00,,"Washington, DC"
-77.04359899,38.89520449,30370944,38.8952,-77.0436,19th & E Street NW,classic,41,active,2021/11/07 04:04:15+00,11,0,0,0,0,Yes,Yes,Yes,Yes,https://dc.lft.to/lastmile_qr_scan,https://dc.lft.to/lastmile_qr_scan,No,No,11,"KEY,CREDITCARD",42,2021/11/07 23:02:59+00,,"Washington, DC"
-77.00064804,38.91908474,30370945,38.919077,-77.000648,4th & W St NE,classic,42,active,2021/11/07 22:33:47+00,4,0,10,2,0,Yes,Yes,Yes,Yes,https://dc.lft.to/lastmile_qr_scan,https://dc.lft.to/lastmile_qr_scan,No,No,15,"KEY,CREDITCARD",42,2021/11/07 23:02:59+00,,"Washington, DC"
-77.02590086,38.91720814,30370946,38.9172,-77.0259,10th & U St NW,classic,43,active,2021/11/07 22:23:39+00,5,0,10,0,0,Yes,Yes,Yes,Yes,https://dc.lft.to/lastmile_qr_scan,https://dc.lft.to/lastmile_qr_scan,No,No,15,"KEY,CREDITCARD",42,2021/11/07 23:02:59+00,,"Washington, DC"
-77.02220181,38.92491102,30370947,38.9249,-77.0222,Georgia Ave and Fairmont St NW,classic,44,active,2021/11/07 21:31:52+00,10,0,1,0,0,Yes,Yes,Yes,Yes,https://dc.lft.to/lastmile_qr_scan,https://dc.lft.to/lastmile_qr_scan,No,No,11,"KEY,CREDITCARD",42,2021/11/07 23:02:59+00,,"Washington, DC"
-77.00570668,38.87430402,30370948,38.8743,-77.0057,1st & N St SE,classic,45,active,2021/11/07 22:43:01+00,1,0,38,0,0,Yes,Yes,Yes,Yes,https://dc.lft.to/lastmile_qr_scan,https://dc.lft.to/lastmile_qr_scan,No,No,39,"KEY,CREDITCARD",42,2021/11/07 23:02:59+00,,"Washington, DC"
-77.04460298,38.91540984,30370949,38.9154,-77.0446,20th St & Florida Ave NW,classic,46,active,2021/11/07 21:58:01+00,8,0,6,0,1,Yes,Yes,Yes,Yes,https://dc.lft.to/lastmile_qr_scan,https://dc.lft.to/lastmile_qr_scan,No,No,15,"KEY,CREDITCARD",42,2021/11/07 23:02:59+00,,"Washington, DC"
-77.02219889,38.91550633,30370950,38.9155,-77.0222,7th & T St NW,classic,47,active,2021/11/07 21:34:44+00,12,0,3,0,0,Yes,Yes,Yes,Yes,https://dc.lft.to/lastmile_qr_scan,https://dc.lft.to/lastmile_qr_scan,No,No,15,"KEY,CREDITCARD",42,2021/11/07 23:02:59+00,,"Washington, DC"
-77.05341285,38.85439235,30370951,38.854381,-77.053412,Eads St & 22nd St S,classic,48,active,2021/11/07 22:21:13+00,9,0,6,1,0,Yes,Yes,Yes,Yes,https://dc.lft.to/lastmile_qr_scan,https://dc.lft.to/lastmile_qr_scan,No,No,15,"KEY,CREDITCARD",41,2021/11/07 23:02:59+00,,"Arlington, VA"
-77.0037016,38.87630397,30370952,38.8763,-77.0037,M St & New Jersey Ave SE,classic,49,active,2021/11/07 21:49:51+00,5,0,11,0,1,Yes,Yes,Yes,Yes,https://dc.lft.to/lastmile_qr_scan,https://dc.lft.to/lastmile_qr_scan,No,No,17,"KEY,CREDITCARD",42,2021/11/07 23:02:59+00,,"Washington, DC"
-77.04440365,38.91010401,30370953,38.9101,-77.0444,Massachusetts Ave & Dupont Circle NW,classic,51,active,2021/11/07 21:50:42+00,17,0,24,0,3,Yes,Yes,Yes,Yes,https://dc.lft.to/lastmile_qr_scan,https://dc.lft.to/lastmile_qr_scan,No,No,45,"KEY,CREDITCARD",42,2021/11/07 23:02:59+00,,"Washington, DC"
-77.00549014,38.90570723,30370954,38.905697,-77.005483,1st & M St NE,classic,52,active,2021/11/07 22:35:06+00,0,0,14,0,1,Yes,Yes,Yes,Yes,https://dc.lft.to/lastmile_qr_scan,https://dc.lft.to/lastmile_qr_scan,No,No,15,"KEY,CREDITCARD",42,2021/11/07 23:02:59+00,,"Washington, DC"
-77.04731779,38.9057158,30370955,38.905711,-77.047318,New Hampshire Ave & Ward Pl NW,classic,53,active,2021/11/07 22:53:33+00,6,0,12,0,0,Yes,Yes,Yes,Yes,https://dc.lft.to/lastmile_qr_scan,https://dc.lft.to/lastmile_qr_scan,No,No,19,"KEY,CREDITCARD",42,2021/11/07 23:02:59+00,,"Washington, DC"
-77.03863476,38.90276425,30370956,38.90276,-77.03863,17th & K St NW,classic,54,active,2021/11/07 22:51:19+00,7,0,15,1,1,Yes,Yes,Yes,Yes,https://dc.lft.to/lastmile_qr_scan,https://dc.lft.to/lastmile_qr_scan,No,No,23,"KEY,CREDITCARD",42,2021/11/07 23:02:59+00,,"Washington, DC"
-77.01528855,38.89941853,30370957,38.899408,-77.015289,3rd & H St NW,classic,55,active,2021/11/07 22:35:26+00,4,0,10,1,1,Yes,Yes,Yes,Yes,https://dc.lft.to/lastmile_qr_scan,https://dc.lft.to/lastmile_qr_scan,No,No,15,"KEY,CREDITCARD",42,2021/11/07 23:02:59+00,,"Washington, DC"
-77.00230744,38.8851052,30370958,38.8851,-77.0023,3rd & D St SE,classic,56,active,2021/11/07 21:25:18+00,9,0,2,0,0,Yes,Yes,Yes,Yes,https://dc.lft.to/lastmile_qr_scan,https://dc.lft.to/lastmile_qr_scan,No,No,11,"KEY,CREDITCARD",42,2021/11/07 23:02:59+00,,"Washington, DC"
-76.98620684,38.88031195,30370959,38.8803,-76.9862,Potomac & Pennsylvania Ave SE,classic,57,active,2021/11/07 19:38:50+00,0,0,15,3,0,Yes,Yes,Yes,Yes,https://dc.lft.to/lastmile_qr_scan,https://dc.lft.to/lastmile_qr_scan,No,No,15,"KEY,CREDITCARD",42,2021/11/07 23:02:59+00,,"Washington, DC"
-76.9879121,38.88292457,30370960,38.882915,-76.987907,13th & E St SE,classic,58,active,2021/11/07 20:36:13+00,4,0,11,0,0,Yes,Yes,Yes,Yes,https://dc.lft.to/lastmile_qr_scan,https://dc.lft.to/lastmile_qr_scan,No,No,15,"KEY,CREDITCARD",42,2021/11/07 23:02:59+00,,"Washington, DC"
-77.03869748,38.91210589,30370961,38.9121,-77.0387,17th & Corcoran St NW,classic,59,active,2021/11/07 21:31:28+00,3,0,15,0,1,Yes,Yes,Yes,Yes,https://dc.lft.to/lastmile_qr_scan,https://dc.lft.to/lastmile_qr_scan,No,No,19,"KEY,CREDITCARD",42,2021/11/07 23:02:59+00,,"Washington, DC"
-77.06389688,38.94456079,30370962,38.944551,-77.063896,Van Ness Metro / UDC,classic,60,active,2021/11/07 22:48:20+00,12,0,3,0,0,Yes,Yes,Yes,Yes,https://dc.lft.to/lastmile_qr_scan,https://dc.lft.to/lastmile_qr_scan,No,No,15,"KEY,CREDITCARD",42,2021/11/07 23:02:59+00,,"Washington, DC"
-77.01350419,38.91260697,30370963,38.9126,-77.0135,Florida Ave & R St NW,classic,61,active,2021/11/07 22:36:37+00,8,0,7,0,0,Yes,Yes,Yes,Yes,https://dc.lft.to/lastmile_qr_scan,https://dc.lft.to/lastmile_qr_scan,No,No,15,"KEY,CREDITCARD",42,2021/11/07 23:02:59+00,,"Washington, DC"
-76.99530015,38.87920464,30370964,38.8792,-76.9953,8th & Eye St SE / Barracks Row,classic,62,active,2021/11/07 21:55:14+00,5,0,6,0,0,Yes,Yes,Yes,Yes,https://dc.lft.to/lastmile_qr_scan,https://dc.lft.to/lastmile_qr_scan,No,No,11,"KEY,CREDITCARD",42,2021/11/07 23:02:59+00,,"Washington, DC"
-77.08716821,38.93874441,30370965,38.938736,-77.087171,Ward Circle / American University,classic,63,active,2021/11/07 18:06:33+00,14,0,0,0,1,Yes,Yes,Yes,Yes,https://dc.lft.to/lastmile_qr_scan,https://dc.lft.to/lastmile_qr_scan,No,No,15,"KEY,CREDITCARD",42,2021/11/07 23:02:59+00,,"Washington, DC"
-77.07275773,38.93488971,30370966,38.934881,-77.072755,Wisconsin Ave & Newark St NW,classic,64,active,2021/11/07 21:26:08+00,14,0,5,0,0,Yes,Yes,Yes,Yes,https://dc.lft.to/lastmile_qr_scan,https://dc.lft.to/lastmile_qr_scan,No,No,19,"KEY,CREDITCARD",42,2021/11/07 23:02:59+00,,"Washington, DC"
-77.03282199,38.9477806,30370967,38.947774,-77.032818,14th St Heights / 14th & Crittenden St NW,classic,65,active,2021/11/07 18:14:07+00,4,0,7,0,0,Yes,Yes,Yes,Yes,https://dc.lft.to/lastmile_qr_scan,https://dc.lft.to/lastmile_qr_scan,No,No,11,"KEY,CREDITCARD",42,2021/11/07 23:02:59+00,,"Washington, DC"
-76.97839728,38.86578922,30370968,38.865784,-76.9784,Anacostia Library,classic,66,active,2021/11/07 10:20:09+00,11,0,0,0,0,Yes,Yes,Yes,Yes,https://dc.lft.to/lastmile_qr_scan,https://dc.lft.to/lastmile_qr_scan,No,No,11,"KEY,CREDITCARD",42,2021/11/07 23:02:59+00,,"Washington, DC"
-76.97101981,38.87306642,30370969,38.873057,-76.971015,Pennsylvania & Minnesota Ave SE,classic,67,active,2021/11/07 19:45:36+00,2,0,9,0,0,Yes,Yes,Yes,Yes,https://dc.lft.to/lastmile_qr_scan,https://dc.lft.to/lastmile_qr_scan,No,No,11,"KEY,CREDITCARD",42,2021/11/07 23:02:59+00,,"Washington, DC"
-76.99680956,38.88696091,30370970,38.886952,-76.996806,Eastern Market / 7th & North Carolina Ave SE,classic,68,active,2021/11/07 22:07:30+00,3,0,12,0,0,Yes,Yes,Yes,Yes,https://dc.lft.to/lastmile_qr_scan,https://dc.lft.to/lastmile_qr_scan,No,No,15,"KEY,CREDITCARD",42,2021/11/07 23:02:59+00,,"Washington, DC"
-77.03169313,38.89964044,30370971,38.899632,-77.031686,14th St & New York Ave NW,classic,69,active,2021/11/07 19:59:27+00,7,0,16,0,0,Yes,Yes,Yes,Yes,https://dc.lft.to/lastmile_qr_scan,https://dc.lft.to/lastmile_qr_scan,No,No,23,"KEY,CREDITCARD",42,2021/11/07 23:02:59+00,,"Washington, DC"
-76.9479799,38.89401194,30370972,38.894,-76.947974,Benning Branch Library,classic,70,active,2021/11/07 04:09:13+00,7,0,4,0,0,Yes,Yes,Yes,Yes,https://dc.lft.to/lastmile_qr_scan,https://dc.lft.to/lastmile_qr_scan,No,No,11,"KEY,CREDITCARD",42,2021/11/07 23:02:59+00,,"Washington, DC"
-77.02824093,38.88628191,30370973,38.886277,-77.028242,USDA / 12th & C St SW,classic,71,active,2021/11/07 16:18:50+00,19,0,20,0,0,Yes,Yes,Yes,Yes,https://dc.lft.to/lastmile_qr_scan,https://dc.lft.to/lastmile_qr_scan,No,No,39,"KEY,CREDITCARD",42,2021/11/07 23:02:59+00,,"Washington, DC"
-77.05914386,38.90232327,30370974,38.902314,-77.059142,Georgetown Harbor / 30th St NW,classic,72,active,2021/11/07 21:20:17+00,3,0,15,0,1,Yes,Yes,Yes,Yes,https://dc.lft.to/lastmile_qr_scan,https://dc.lft.to/lastmile_qr_scan,No,No,19,"KEY,CREDITCARD",42,2021/11/07 23:02:59+00,,"Washington, DC"
-76.99101758,38.93367787,30370975,38.933668,-76.991016,12th & Newton St NE,classic,73,active,2021/11/07 16:32:55+00,8,0,3,0,0,Yes,Yes,Yes,Yes,https://dc.lft.to/lastmile_qr_scan,https://dc.lft.to/lastmile_qr_scan,No,No,11,"KEY,CREDITCARD",42,2021/11/07 23:02:59+00,,"Washington, DC"
-77.04658441,38.89492407,30370976,38.894919,-77.046587,US Dept of State / Virginia Ave & 21st St NW,classic,74,active,2021/11/07 16:26:24+00,15,0,0,0,0,Yes,Yes,Yes,Yes,https://dc.lft.to/lastmile_qr_scan,https://dc.lft.to/lastmile_qr_scan,No,No,15,"KEY,CREDITCARD",42,2021/11/07 23:02:59+00,,"Washington, DC"
-77.02224742,38.8862742,30370977,38.886266,-77.022241,L'Enfant Plaza / 7th & C St SW,classic,75,active,2021/11/07 18:48:01+00,4,0,11,0,0,Yes,Yes,Yes,Yes,https://dc.lft.to/lastmile_qr_scan,https://dc.lft.to/lastmile_qr_scan,No,No,15,"KEY,CREDITCARD",42,2021/11/07 23:02:59+00,,"Washington, DC"
-77.02601888,38.89303871,30370978,38.893028,-77.026013,10th St & Constitution Ave NW,classic,76,active,2021/11/07 21:30:47+00,15,0,16,0,0,Yes,Yes,Yes,Yes,https://dc.lft.to/lastmile_qr_scan,https://dc.lft.to/lastmile_qr_scan,No,No,31,"KEY,CREDITCARD",42,2021/11/07 23:02:59+00,,"Washington, DC"
-77.05557761,38.89729835,30370979,38.897293,-77.05557,Kennedy Center,classic,77,active,2021/11/07 22:07:30+00,11,0,7,0,1,Yes,Yes,Yes,Yes,https://dc.lft.to/lastmile_qr_scan,https://dc.lft.to/lastmile_qr_scan,No,No,19,"KEY,CREDITCARD",42,2021/11/07 23:02:59+00,,"Washington, DC"
-76.99523067,38.8841052,30370980,38.884095,-76.995234,Eastern Market Metro / Pennsylvania Ave & 8th St SE,classic,78,active,2021/11/07 22:20:07+00,6,0,12,0,0,Yes,Yes,Yes,Yes,https://dc.lft.to/lastmile_qr_scan,https://dc.lft.to/lastmile_qr_scan,No,No,19,"KEY,CREDITCARD",42,2021/11/07 23:02:59+00,,"Washington, DC"
-77.04178344,38.90507831,30370981,38.905067,-77.041779,18th & M St NW,classic,79,active,2021/11/07 19:48:20+00,18,0,7,0,2,Yes,Yes,Yes,Yes,https://dc.lft.to/lastmile_qr_scan,https://dc.lft.to/lastmile_qr_scan,No,No,27,"KEY,CREDITCARD",42,2021/11/07 23:02:59+00,,"Washington, DC"
-77.07938079,38.94761412,30370982,38.947607,-77.079382,Tenleytown / Wisconsin Ave & Albemarle St NW,classic,80,active,2021/11/07 16:24:04+00,15,0,0,0,0,Yes,Yes,Yes,Yes,https://dc.lft.to/lastmile_qr_scan,https://dc.lft.to/lastmile_qr_scan,No,No,15,"KEY,CREDITCARD",42,2021/11/07 23:02:59+00,,"Washington, DC"
-76.98825498,38.90043688,30370983,38.900427,-76.98825,13th & H St NE,classic,81,active,2021/11/07 20:50:20+00,2,0,24,1,1,Yes,Yes,Yes,Yes,https://dc.lft.to/lastmile_qr_scan,https://dc.lft.to/lastmile_qr_scan,No,No,27,"KEY,CREDITCARD",42,2021/11/07 23:02:59+00,,"Washington, DC"
-77.01934584,38.89722889,30370984,38.897222,-77.019347,5th & F St NW,classic,82,active,2021/11/07 22:06:45+00,9,0,20,0,2,Yes,Yes,Yes,Yes,https://dc.lft.to/lastmile_qr_scan,https://dc.lft.to/lastmile_qr_scan,No,No,31,"KEY,CREDITCARD",42,2021/11/07 23:02:59+00,,"Washington, DC"
-77.0333529,38.89903642,30370985,38.899032,-77.033354,New York Ave & 15th St NW,classic,83,active,2021/11/07 21:46:25+00,17,1,0,0,1,Yes,Yes,Yes,Yes,https://dc.lft.to/lastmile_qr_scan,https://dc.lft.to/lastmile_qr_scan,No,No,19,"KEY,CREDITCARD",42,2021/11/07 23:02:59+00,,"Washington, DC"
-77.02227655,38.90574127,30370986,38.905737,-77.02227,Convention Center / 7th & M St NW,classic,84,active,2021/11/07 23:01:07+00,21,0,2,1,0,Yes,Yes,Yes,Yes,https://dc.lft.to/lastmile_qr_scan,https://dc.lft.to/lastmile_qr_scan,No,No,23,"KEY,CREDITCARD",42,2021/11/07 23:02:59+00,,"Washington, DC"
-77.04336525,38.92787783,30370987,38.927872,-77.043358,Harvard St & Adams Mill Rd NW,classic,85,active,2021/11/07 17:10:48+00,4,0,11,0,0,Yes,Yes,Yes,Yes,https://dc.lft.to/lastmile_qr_scan,https://dc.lft.to/lastmile_qr_scan,No,No,15,"KEY,CREDITCARD",42,2021/11/07 23:02:59+00,,"Washington, DC"
-77.04245133,38.90374484,30370988,38.903741,-77.042452,18th & L St NW,classic,86,active,2021/11/07 19:11:12+00,17,0,2,0,0,Yes,Yes,Yes,Yes,https://dc.lft.to/lastmile_qr_scan,https://dc.lft.to/lastmile_qr_scan,No,No,19,"KEY,CREDITCARD",42,2021/11/07 23:02:59+00,,"Washington, DC"
-77.06269591,38.90375374,30370989,38.90375,-77.06269,C & O Canal & Wisconsin Ave NW,classic,87,active,2021/11/07 21:14:55+00,1,0,22,0,0,Yes,Yes,Yes,Yes,https://dc.lft.to/lastmile_qr_scan,https://dc.lft.to/lastmile_qr_scan,No,No,23,"KEY,CREDITCARD",42,2021/11/07 23:02:59+00,,"Washington, DC"
-77.02305179,38.87869798,30370990,38.878694,-77.023054,Maine Ave & 7th St SW,classic,88,active,2021/11/07 22:47:37+00,1,0,16,0,2,Yes,Yes,Yes,Yes,https://dc.lft.to/lastmile_qr_scan,https://dc.lft.to/lastmile_qr_scan,No,No,19,"KEY,CREDITCARD",42,2021/11/07 23:02:59+00,,"Washington, DC"
-76.9959216,38.89485222,30370991,38.894841,-76.995916,D St & Maryland Ave NE,classic,89,active,2021/11/07 21:54:40+00,18,0,5,0,0,Yes,Yes,Yes,Yes,https://dc.lft.to/lastmile_qr_scan,https://dc.lft.to/lastmile_qr_scan,No,No,23,"KEY,CREDITCARD",42,2021/11/07 23:02:59+00,,"Washington, DC"
-77.0682073,38.91645242,30370992,38.916442,-77.0682,34th St & Wisconsin Ave NW,classic,90,active,2021/11/07 22:10:52+00,7,0,4,0,0,Yes,Yes,Yes,Yes,https://dc.lft.to/lastmile_qr_scan,https://dc.lft.to/lastmile_qr_scan,No,No,11,"KEY,CREDITCARD",42,2021/11/07 23:02:59+00,,"Washington, DC"
-77.02982585,38.90028953,30370993,38.900283,-77.029822,13th St & New York Ave NW,classic,91,active,2021/11/07 21:20:25+00,9,0,14,0,0,Yes,Yes,Yes,Yes,https://dc.lft.to/lastmile_qr_scan,https://dc.lft.to/lastmile_qr_scan,No,No,23,"KEY,CREDITCARD",42,2021/11/07 23:02:59+00,,"Washington, DC"
-77.02309316,38.89970551,30370994,38.8997,-77.023086,8th & H St NW,classic,92,active,2021/11/07 22:30:04+00,11,0,21,0,1,Yes,Yes,Yes,Yes,https://dc.lft.to/lastmile_qr_scan,https://dc.lft.to/lastmile_qr_scan,No,No,33,"KEY,CREDITCARD",42,2021/11/07 23:02:59+00,,"Washington, DC"
-76.99288614,38.93252494,30370995,38.932514,-76.992889,10th & Monroe St NE,classic,93,active,2021/11/07 18:57:36+00,14,0,1,0,0,Yes,Yes,Yes,Yes,https://dc.lft.to/lastmile_qr_scan,https://dc.lft.to/lastmile_qr_scan,No,No,15,"KEY,CREDITCARD",42,2021/11/07 23:02:59+00,,"Washington, DC"
-77.00494864,38.91097714,30370996,38.910972,-77.00495,Eckington Pl & Q St NE,classic,94,active,2021/11/07 21:56:54+00,4,0,17,1,0,Yes,Yes,Yes,Yes,https://dc.lft.to/lastmile_qr_scan,https://dc.lft.to/lastmile_qr_scan,No,No,23,"KEY,CREDITCARD",42,2021/11/07 23:02:59+00,,"Washington, DC"
-76.99835375,38.89997804,30370997,38.899972,-76.998347,6th & H St NE,classic,95,active,2021/11/07 22:41:59+00,9,0,13,0,1,Yes,Yes,Yes,Yes,https://dc.lft.to/lastmile_qr_scan,https://dc.lft.to/lastmile_qr_scan,No,No,23,"KEY,CREDITCARD",42,2021/11/07 23:02:59+00,,"Washington, DC"
-77.00195056,38.90041944,30370998,38.900412,-77.001949,3rd & H St NE,classic,96,active,2021/11/07 22:55:18+00,1,0,16,0,2,Yes,Yes,Yes,Yes,https://dc.lft.to/lastmile_qr_scan,https://dc.lft.to/lastmile_qr_scan,No,No,19,"KEY,CREDITCARD",42,2021/11/07 23:02:59+00,,"Washington, DC"
-76.98287129,38.9004182,30370999,38.900413,-76.982872,Bladensburg Rd & Benning Rd NE,classic,97,active,2021/11/07 20:46:43+00,9,0,6,1,0,Yes,Yes,Yes,Yes,https://dc.lft.to/lastmile_qr_scan,https://dc.lft.to/lastmile_qr_scan,No,No,15,"KEY,CREDITCARD",42,2021/11/07 23:02:59+00,,"Washington, DC"
-77.00034808,38.88996074,30371000,38.889955,-77.000349,4th & East Capitol St NE,classic,98,active,2021/11/07 22:23:37+00,6,0,5,2,0,Yes,Yes,Yes,Yes,https://dc.lft.to/lastmile_qr_scan,https://dc.lft.to/lastmile_qr_scan,No,No,11,"KEY,CREDITCARD",42,2021/11/07 23:02:59+00,,"Washington, DC"
-76.98836036,38.89046463,30371001,38.890461,-76.988355,Lincoln Park / 13th & East Capitol St NE ,classic,99,active,2021/11/07 22:24:55+00,15,0,10,1,0,Yes,Yes,Yes,Yes,https://dc.lft.to/lastmile_qr_scan,https://dc.lft.to/lastmile_qr_scan,No,No,25,"KEY,CREDITCARD",42,2021/11/07 23:02:59+00,,"Washington, DC"
-76.95990147,38.86920753,30371002,38.8692,-76.9599,Branch & Pennsylvania Ave SE,classic,100,active,2021/11/07 08:31:56+00,1,0,10,0,0,Yes,Yes,Yes,Yes,https://dc.lft.to/lastmile_qr_scan,https://dc.lft.to/lastmile_qr_scan,No,No,11,"KEY,CREDITCARD",42,2021/11/07 23:02:59+00,,"Washington, DC"
-76.98763342,38.89484263,30371003,38.894832,-76.987633,13th & D St NE,classic,101,active,2021/11/07 22:18:57+00,3,0,24,2,4,Yes,Yes,Yes,Yes,https://dc.lft.to/lastmile_qr_scan,https://dc.lft.to/lastmile_qr_scan,No,No,31,"KEY,CREDITCARD",42,2021/11/07 23:02:59+00,,"Washington, DC"
-77.03824965,38.91555623,30371004,38.915544,-77.038252,New Hampshire Ave & T St NW,classic,102,active,2021/11/07 23:02:00+00,12,0,7,1,3,Yes,Yes,Yes,Yes,https://dc.lft.to/lastmile_qr_scan,https://dc.lft.to/lastmile_qr_scan,No,No,23,"KEY,CREDITCARD",42,2021/11/07 23:02:59+00,,"Washington, DC"
-77.02787682,38.89837123,30371005,38.898364,-77.027869,Metro Center / 12th & G St NW,classic,103,active,2021/11/07 23:01:57+00,24,0,13,0,2,Yes,Yes,Yes,Yes,https://dc.lft.to/lastmile_qr_scan,https://dc.lft.to/lastmile_qr_scan,No,No,39,"KEY,CREDITCARD",42,2021/11/07 23:02:59+00,,"Washington, DC"
-77.0316217,38.89452371,30371006,38.894514,-77.031617,14th & D St NW / Ronald Reagan Building,classic,104,active,2021/11/07 21:06:11+00,3,0,21,0,1,Yes,Yes,Yes,Yes,https://dc.lft.to/lastmile_qr_scan,https://dc.lft.to/lastmile_qr_scan,No,No,25,"KEY,CREDITCARD",42,2021/11/07 23:02:59+00,,"Washington, DC"
-77.02219322,38.89729145,30371007,38.897283,-77.022191,7th & F St NW / National Portrait Gallery,classic,105,active,2021/11/07 22:51:56+00,12,0,12,0,3,Yes,Yes,Yes,Yes,https://dc.lft.to/lastmile_qr_scan,https://dc.lft.to/lastmile_qr_scan,No,No,27,"KEY,CREDITCARD",42,2021/11/07 23:02:59+00,,"Washington, DC"
-77.03832312,38.90207071,30371008,38.902061,-77.038322,17th & K St NW / Farragut Square,classic,106,active,2021/11/07 22:54:47+00,24,0,10,0,1,Yes,Yes,Yes,Yes,https://dc.lft.to/lastmile_qr_scan,https://dc.lft.to/lastmile_qr_scan,No,No,35,"KEY,CREDITCARD",42,2021/11/07 23:02:59+00,,"Washington, DC"
-77.04478339,38.90891476,30371009,38.908905,-77.04478,20th & O St NW / Dupont South,classic,107,active,2021/11/07 22:33:00+00,2,0,17,0,0,Yes,Yes,Yes,Yes,https://dc.lft.to/lastmile_qr_scan,https://dc.lft.to/lastmile_qr_scan,No,No,19,"KEY,CREDITCARD",42,2021/11/07 23:02:59+00,,"Washington, DC"
-77.01610612,38.89535565,30371010,38.895344,-77.016106,4th & D St NW / Judiciary Square,classic,108,active,2021/11/07 21:03:48+00,1,0,14,0,0,Yes,Yes,Yes,Yes,https://dc.lft.to/lastmile_qr_scan,https://dc.lft.to/lastmile_qr_scan,No,No,15,"KEY,CREDITCARD",42,2021/11/07 23:02:59+00,,"Washington, DC"
-77.04359722,38.89230379,30371011,38.8923,-77.0436,19th St & Constitution Ave NW,classic,109,active,2021/11/07 20:39:28+00,26,0,8,0,1,Yes,Yes,Yes,Yes,https://dc.lft.to/lastmile_qr_scan,https://dc.lft.to/lastmile_qr_scan,No,No,35,"KEY,CREDITCARD",42,2021/11/07 23:02:59+00,,"Washington, DC"
-77.07165781,38.9077483,30371012,38.90774,-77.071652,37th & O St NW / Georgetown University,classic,110,active,2021/11/07 22:03:36+00,8,0,15,0,0,Yes,Yes,Yes,Yes,https://dc.lft.to/lastmile_qr_scan,https://dc.lft.to/lastmile_qr_scan,No,No,23,"KEY,CREDITCARD",42,2021/11/07 23:02:59+00,,"Washington, DC"
-76.99139072,38.89998674,30371013,38.899983,-76.991383,11th & H St NE,classic,111,active,2021/11/07 21:56:30+00,4,0,15,1,0,Yes,Yes,Yes,Yes,https://dc.lft.to/lastmile_qr_scan,https://dc.lft.to/lastmile_qr_scan,No,No,19,"KEY,CREDITCARD",42,2021/11/07 23:02:59+00,,"Washington, DC"
-77.05348446,38.90383039,30371014,38.903827,-77.053485,25th St & Pennsylvania Ave NW,classic,112,active,2021/11/07 20:49:37+00,14,0,0,0,1,Yes,Yes,Yes,Yes,https://dc.lft.to/lastmile_qr_scan,https://dc.lft.to/lastmile_qr_scan,No,No,15,"KEY,CREDITCARD",42,2021/11/07 23:02:59+00,,"Washington, DC"
-77.00493614,38.89696915,30371015,38.89696,-77.00493,Columbus Circle / Union Station,classic,113,active,2021/11/07 22:28:35+00,38,0,17,0,0,Yes,Yes,Yes,Yes,https://dc.lft.to/lastmile_qr_scan,https://dc.lft.to/lastmile_qr_scan,No,No,55,"KEY,CREDITCARD",42,2021/11/07 23:02:59+00,,"Washington, DC"
-77.00989312,38.89745529,30371016,38.897446,-77.009888,North Capitol St & F St NW,classic,114,active,2021/11/07 22:53:20+00,23,0,0,0,0,Yes,Yes,Yes,Yes,https://dc.lft.to/lastmile_qr_scan,https://dc.lft.to/lastmile_qr_scan,No,No,23,"KEY,CREDITCARD",42,2021/11/07 23:02:59+00,,"Washington, DC"
-77.02731472,38.90558706,30371017,38.905579,-77.027313,11th & M St NW,classic,115,active,2021/11/07 22:48:44+00,10,0,8,1,1,Yes,Yes,Yes,Yes,https://dc.lft.to/lastmile_qr_scan,https://dc.lft.to/lastmile_qr_scan,No,No,19,"KEY,CREDITCARD",42,2021/11/07 23:02:59+00,,"Washington, DC"
-77.07033502,38.92258583,30371018,38.922581,-77.070334,36th & Calvert St NW / Glover Park,classic,116,active,2021/11/07 22:12:59+00,13,0,2,2,0,Yes,Yes,Yes,Yes,https://dc.lft.to/lastmile_qr_scan,https://dc.lft.to/lastmile_qr_scan,No,No,15,"KEY,CREDITCARD",42,2021/11/07 23:02:59+00,,"Washington, DC"
-77.03228051,38.89841514,30371019,38.898409,-77.032278,14th & G St NW,classic,117,active,2021/11/07 22:28:07+00,10,0,13,0,0,Yes,Yes,Yes,Yes,https://dc.lft.to/lastmile_qr_scan,https://dc.lft.to/lastmile_qr_scan,No,No,23,"KEY,CREDITCARD",42,2021/11/07 23:02:59+00,,"Washington, DC"
-77.05053682,38.84402492,30371020,38.844015,-77.050537,Potomac Ave & 35th St S,classic,118,active,2021/11/07 21:28:29+00,3,0,12,0,0,Yes,Yes,Yes,Yes,https://dc.lft.to/lastmile_qr_scan,https://dc.lft.to/lastmile_qr_scan,No,No,15,"KEY,CREDITCARD",41,2021/11/07 23:02:59+00,,"Arlington, VA"
-77.04657736,38.88413204,30371021,38.88412,-77.04657,Ohio Dr & West Basin Dr SW / MLK & FDR Memorials,classic,124,active,2021/11/07 18:03:58+00,20,0,10,0,1,Yes,Yes,Yes,Yes,https://dc.lft.to/lastmile_qr_scan,https://dc.lft.to/lastmile_qr_scan,No,No,31,"KEY,CREDITCARD",42,2021/11/07 23:02:59+00,,"Washington, DC"
-77.02697745,38.89786698,30371022,38.897857,-77.026975,11th & F St NW,classic,125,active,2021/11/07 23:00:23+00,5,0,10,0,0,Yes,Yes,Yes,Yes,https://dc.lft.to/lastmile_qr_scan,https://dc.lft.to/lastmile_qr_scan,No,No,15,"KEY,CREDITCARD",42,2021/11/07 23:02:59+00,,"Washington, DC"
-77.04988207,38.89611182,30371023,38.896104,-77.049882,23rd & E St NW ,classic,126,active,2021/11/07 22:32:09+00,11,0,8,0,0,Yes,Yes,Yes,Yes,https://dc.lft.to/lastmile_qr_scan,https://dc.lft.to/lastmile_qr_scan,No,No,19,"KEY,CREDITCARD",42,2021/11/07 23:02:59+00,,"Washington, DC"
-77.07099026,38.89732603,30371024,38.897315,-77.070993,Lynn St & 19th St North,classic,127,active,2021/11/07 21:32:00+00,22,0,5,0,0,Yes,Yes,Yes,Yes,https://dc.lft.to/lastmile_qr_scan,https://dc.lft.to/lastmile_qr_scan,No,No,27,"KEY,CREDITCARD",41,2021/11/07 23:02:59+00,,"Arlington, VA"
-77.07230166,38.8946047,30371025,38.8946,-77.072305,Wilson Blvd & Ft Myer Dr,classic,128,active,2021/11/07 16:08:25+00,11,0,8,0,0,Yes,Yes,Yes,Yes,https://dc.lft.to/lastmile_qr_scan,https://dc.lft.to/lastmile_qr_scan,No,No,19,"KEY,CREDITCARD",41,2021/11/07 23:02:59+00,,"Arlington, VA"
-77.07639263,38.89344903,30371026,38.893438,-77.076389,Clarendon Blvd & Pierce St,classic,129,active,2021/11/07 21:18:41+00,7,0,7,0,1,Yes,Yes,Yes,Yes,https://dc.lft.to/lastmile_qr_scan,https://dc.lft.to/lastmile_qr_scan,No,No,15,"KEY,CREDITCARD",41,2021/11/07 23:02:59+00,,"Arlington, VA"
-77.08459788,38.89170476,30371027,38.891696,-77.0846,Wilson Blvd & N Uhle St,classic,130,active,2021/11/07 19:57:46+00,11,0,4,0,0,Yes,Yes,Yes,Yes,https://dc.lft.to/lastmile_qr_scan,https://dc.lft.to/lastmile_qr_scan,No,No,15,"KEY,CREDITCARD",41,2021/11/07 23:02:59+00,,"Arlington, VA"
-77.07937673,38.89216785,30371028,38.892164,-77.079375,Rhodes St & 16th St N,classic,131,active,2021/11/07 19:39:46+00,1,0,11,0,0,Yes,Yes,Yes,Yes,https://dc.lft.to/lastmile_qr_scan,https://dc.lft.to/lastmile_qr_scan,No,No,12,"KEY,CREDITCARD",41,2021/11/07 23:02:59+00,,"Arlington, VA"
-76.95210267,38.86560123,30371029,38.86559,-76.952103,Fairfax Village,classic,132,active,2021/11/07 17:13:17+00,14,0,1,0,0,Yes,Yes,Yes,Yes,https://dc.lft.to/lastmile_qr_scan,https://dc.lft.to/lastmile_qr_scan,No,No,15,"KEY,CREDITCARD",42,2021/11/07 23:02:59+00,,"Washington, DC"
-77.04657127,38.89246479,30371030,38.892459,-77.046567,21st St & Constitution Ave NW,classic,133,active,2021/11/07 19:57:31+00,1,0,13,1,1,Yes,Yes,Yes,Yes,https://dc.lft.to/lastmile_qr_scan,https://dc.lft.to/lastmile_qr_scan,No,No,15,"KEY,CREDITCARD",42,2021/11/07 23:02:59+00,,"Washington, DC"
-77.09186837,38.88940213,30371031,38.889396,-77.091862,Wilson Blvd & N Edgewood St,classic,134,active,2021/11/07 20:24:07+00,8,0,7,0,0,Yes,Yes,Yes,Yes,https://dc.lft.to/lastmile_qr_scan,https://dc.lft.to/lastmile_qr_scan,No,No,15,"KEY,CREDITCARD",41,2021/11/07 23:02:59+00,,"Arlington, VA"
-77.04368375,38.92068006,30371032,38.920669,-77.04368,Columbia Rd & Belmont St NW,classic,135,active,2021/11/07 22:18:27+00,15,0,4,3,0,Yes,Yes,Yes,Yes,https://dc.lft.to/lastmile_qr_scan,https://dc.lft.to/lastmile_qr_scan,No,No,19,"KEY,CREDITCARD",42,2021/11/07 23:02:59+00,,"Washington, DC"
-77.03980097,38.90600687,30371033,38.905996,-77.039802,Rhode Island & Connecticut Ave NW,classic,136,active,2021/11/07 22:44:17+00,10,0,13,0,0,Yes,Yes,Yes,Yes,https://dc.lft.to/lastmile_qr_scan,https://dc.lft.to/lastmile_qr_scan,No,No,23,"KEY,CREDITCARD",42,2021/11/07 23:02:59+00,,"Washington, DC"
-77.03250296,38.90591003,30371034,38.9059,-77.0325,Thomas Circle,classic,137,active,2021/11/07 23:00:25+00,17,0,16,0,0,Yes,Yes,Yes,Yes,https://dc.lft.to/lastmile_qr_scan,https://dc.lft.to/lastmile_qr_scan,No,No,33,"KEY,CREDITCARD",42,2021/11/07 23:02:59+00,,"Washington, DC"
-77.08890731,38.89040435,30371035,38.8904,-77.0889,Wilson Blvd & N Franklin Rd,classic,138,active,2021/11/07 20:29:00+00,11,0,1,0,0,Yes,Yes,Yes,Yes,https://dc.lft.to/lastmile_qr_scan,https://dc.lft.to/lastmile_qr_scan,No,No,12,"KEY,CREDITCARD",41,2021/11/07 23:02:59+00,,"Arlington, VA"
-77.09307695,38.88810396,30371036,38.8881,-77.09308,Clarendon Blvd & N Fillmore St,classic,139,active,2021/11/07 21:52:37+00,3,0,12,0,0,Yes,Yes,Yes,Yes,https://dc.lft.to/lastmile_qr_scan,https://dc.lft.to/lastmile_qr_scan,No,No,15,"KEY,CREDITCARD",41,2021/11/07 23:02:59+00,,"Arlington, VA"
-77.09525397,38.8870212,30371037,38.88701,-77.095257,Clarendon Metro / Wilson Blvd & N Highland St,classic,140,active,2021/11/07 21:47:53+00,11,0,9,1,1,Yes,Yes,Yes,Yes,https://dc.lft.to/lastmile_qr_scan,https://dc.lft.to/lastmile_qr_scan,No,No,21,"KEY,CREDITCARD",41,2021/11/07 23:02:59+00,,"Arlington, VA"
-76.9776855,38.85737522,30371038,38.857369,-76.977688,Fort Stanton Rec Center,classic,607,active,2021/11/07 04:49:32+00,18,0,1,0,0,Yes,Yes,Yes,Yes,https://dc.lft.to/lastmile_qr_scan,https://dc.lft.to/lastmile_qr_scan,No,No,19,"KEY,CREDITCARD",42,2021/11/07 23:02:59+00,,"Washington, DC"
-77.07432619,38.91262015,30371039,38.912614,-77.074323,Reservoir Rd & 38th St NW,classic,608,active,2021/11/07 22:28:59+00,14,0,5,2,0,Yes,Yes,Yes,Yes,https://dc.lft.to/lastmile_qr_scan,https://dc.lft.to/lastmile_qr_scan,No,No,19,"KEY,CREDITCARD",42,2021/11/07 23:02:59+00,,"Washington, DC"
-77.04885805,38.89893187,30371040,38.898925,-77.048852,22nd & H St NW,classic,609,active,2021/11/07 22:38:50+00,13,0,4,0,0,Yes,Yes,Yes,Yes,https://dc.lft.to/lastmile_qr_scan,https://dc.lft.to/lastmile_qr_scan,No,No,17,"KEY,CREDITCARD",42,2021/11/07 23:02:59+00,,"Washington, DC"
-76.9948953,38.89995091,30371041,38.899942,-76.994897,8th & H St NE,classic,610,active,2021/11/07 22:27:41+00,12,0,7,3,0,Yes,Yes,Yes,Yes,https://dc.lft.to/lastmile_qr_scan,https://dc.lft.to/lastmile_qr_scan,No,No,19,"KEY,CREDITCARD",42,2021/11/07 23:02:59+00,,"Washington, DC"
-77.08564539,38.90971171,30371042,38.909701,-77.085646,Hardy Rec Center,classic,611,active,2021/11/07 22:19:40+00,9,0,8,2,0,Yes,Yes,Yes,Yes,https://dc.lft.to/lastmile_qr_scan,https://dc.lft.to/lastmile_qr_scan,No,No,17,"KEY,CREDITCARD",42,2021/11/07 23:02:59+00,,"Washington, DC"
-77.00412545,39.03131821,30371043,39.031314,-77.004122,The Shoppes @ Burnt Mills,classic,612,active,2021/11/07 16:00:46+00,7,0,12,1,0,Yes,Yes,Yes,Yes,https://dc.lft.to/lastmile_qr_scan,https://dc.lft.to/lastmile_qr_scan,No,No,19,"KEY,CREDITCARD",44,2021/11/07 23:02:59+00,,"Montgomery County, MD (South)"
-76.94549653,39.08164272,30371044,39.081638,-76.945495,Briggs Chaney & Castle Dr,classic,613,active,2021/11/07 04:49:34+00,17,0,2,1,0,Yes,Yes,Yes,Yes,https://dc.lft.to/lastmile_qr_scan,https://dc.lft.to/lastmile_qr_scan,No,No,19,"KEY,CREDITCARD",44,2021/11/07 23:02:59+00,,"Montgomery County, MD (South)"
-76.97572028,39.04615212,30371045,39.046144,-76.975723,White Oak Rec Center,classic,614,active,2021/11/07 04:49:33+00,9,0,6,0,0,Yes,Yes,Yes,Yes,https://dc.lft.to/lastmile_qr_scan,https://dc.lft.to/lastmile_qr_scan,No,No,15,"KEY,CREDITCARD",44,2021/11/07 23:02:59+00,,"Montgomery County, MD (South)"
-76.94187051,39.07788463,30371046,39.077875,-76.941867,Briggs Chaney Park & Ride,classic,615,active,2021/11/07 21:38:16+00,20,0,3,0,0,Yes,Yes,Yes,Yes,https://dc.lft.to/lastmile_qr_scan,https://dc.lft.to/lastmile_qr_scan,No,No,23,"KEY,CREDITCARD",44,2021/11/07 23:02:59+00,,"Montgomery County, MD (South)"
-76.98116152,39.04495505,30371047,39.044944,-76.981155,Stewart & April,classic,616,active,2021/11/07 04:49:33+00,14,0,5,1,0,Yes,Yes,Yes,Yes,https://dc.lft.to/lastmile_qr_scan,https://dc.lft.to/lastmile_qr_scan,No,No,19,"KEY,CREDITCARD",44,2021/11/07 23:02:59+00,,"Montgomery County, MD (South)"
-76.98543549,39.04565829,30371048,39.045652,-76.985438,Stewart Ln & Old Columbia Pike,classic,617,active,2021/11/07 04:49:34+00,13,0,6,1,0,Yes,Yes,Yes,Yes,https://dc.lft.to/lastmile_qr_scan,https://dc.lft.to/lastmile_qr_scan,No,No,19,"KEY,CREDITCARD",44,2021/11/07 23:02:59+00,,"Montgomery County, MD (South)"
-76.99182438,39.03911002,30371049,39.039102,-76.991824,New Hampshire & Lockwood,classic,618,active,2021/11/07 04:49:34+00,17,0,2,0,0,Yes,Yes,Yes,Yes,https://dc.lft.to/lastmile_qr_scan,https://dc.lft.to/lastmile_qr_scan,No,No,19,"KEY,CREDITCARD",44,2021/11/07 23:02:59+00,,"Montgomery County, MD (South)"
-76.94054679,39.08532459,30371050,39.085314,-76.940547,Castle Blvd & Castle Ln,classic,619,active,2021/11/07 04:49:33+00,17,0,2,0,0,Yes,Yes,Yes,Yes,https://dc.lft.to/lastmile_qr_scan,https://dc.lft.to/lastmile_qr_scan,No,No,19,"KEY,CREDITCARD",44,2021/11/07 23:02:59+00,,"Montgomery County, MD (South)"
-76.99453889,39.03799317,30371051,39.037981,-76.994539,Oak Leaf & Lockwood,classic,620,active,2021/11/07 04:49:35+00,16,0,3,0,0,Yes,Yes,Yes,Yes,https://dc.lft.to/lastmile_qr_scan,https://dc.lft.to/lastmile_qr_scan,No,No,19,"KEY,CREDITCARD",44,2021/11/07 23:02:59+00,,"Montgomery County, MD (South)"
-76.98712289,39.04104634,30371052,39.04104,-76.987125,White Oak Transit Center,classic,621,active,2021/11/07 20:42:56+00,14,0,4,1,1,Yes,Yes,Yes,Yes,https://dc.lft.to/lastmile_qr_scan,https://dc.lft.to/lastmile_qr_scan,No,No,19,"KEY,CREDITCARD",44,2021/11/07 23:02:59+00,,"Montgomery County, MD (South)"
-77.11455962,38.87948185,30371053,38.879477,-77.114563,Wilson Blvd. & N. Vermont St.,classic,622,active,2021/11/07 20:21:39+00,10,0,2,0,0,Yes,Yes,Yes,Yes,https://dc.lft.to/lastmile_qr_scan,https://dc.lft.to/lastmile_qr_scan,No,No,12,"KEY,CREDITCARD",41,2021/11/07 23:02:59+00,,"Arlington, VA"
-76.96951127,38.89750578,30371054,38.8975,-76.969509,Oklahoma Ave & Benning Rd NE,classic,623,active,2021/11/07 19:36:08+00,12,0,7,0,0,Yes,Yes,Yes,Yes,https://dc.lft.to/lastmile_qr_scan,https://dc.lft.to/lastmile_qr_scan,No,No,19,"KEY,CREDITCARD",42,2021/11/07 23:02:59+00,,"Washington, DC"
-76.97852296,38.86934756,30371055,38.869337,-76.978519,Minnesota Ave & R St SE,classic,624,active,2021/11/07 19:42:26+00,15,0,4,0,0,Yes,Yes,Yes,Yes,https://dc.lft.to/lastmile_qr_scan,https://dc.lft.to/lastmile_qr_scan,No,No,19,"KEY,CREDITCARD",42,2021/11/07 23:02:59+00,,"Washington, DC"
-77.00565129,38.90239215,30371056,38.902386,-77.005649,1st & K St NE,classic,626,active,2021/11/07 23:00:08+00,8,0,9,0,0,Yes,Yes,Yes,Yes,https://dc.lft.to/lastmile_qr_scan,https://dc.lft.to/lastmile_qr_scan,No,No,17,"KEY,CREDITCARD",42,2021/11/07 23:02:59+00,,"Washington, DC"
-77.10080188,38.80816562,30371057,38.808161,-77.100796,Wheeler Ave & S. Floyd St.,classic,628,active,2021/11/07 04:49:35+00,8,0,4,0,0,Yes,Yes,Yes,Yes,https://dc.lft.to/lastmile_qr_scan,https://dc.lft.to/lastmile_qr_scan,No,No,12,"KEY,CREDITCARD",40,2021/11/07 23:02:59+00,,"Alexandria, VA"
-77.10894557,38.84080503,30371058,38.840797,-77.108938,N. Beauregard St. & Berkley St.,classic,629,active,2021/11/07 19:26:22+00,16,0,3,2,0,Yes,Yes,Yes,Yes,https://dc.lft.to/lastmile_qr_scan,https://dc.lft.to/lastmile_qr_scan,No,No,19,"KEY,CREDITCARD",40,2021/11/07 23:02:59+00,,"Alexandria, VA"
-77.04944177,38.7930734,30371059,38.793065,-77.049436,Mt Vernon Trail & S. Washington St.,classic,630,active,2021/11/07 16:10:34+00,0,0,14,0,0,Yes,Yes,Yes,Yes,https://dc.lft.to/lastmile_qr_scan,https://dc.lft.to/lastmile_qr_scan,No,No,15,"KEY,CREDITCARD",40,2021/11/07 23:02:59+00,,"Alexandria, VA"
-77.08246633,38.80274789,30371060,38.802738,-77.082463,Eisenhower Ave & Ike Dr,classic,632,active,2021/11/07 15:22:33+00,11,0,4,0,0,Yes,Yes,Yes,Yes,https://dc.lft.to/lastmile_qr_scan,https://dc.lft.to/lastmile_qr_scan,No,No,15,"KEY,CREDITCARD",40,2021/11/07 23:02:59+00,,"Alexandria, VA"
-76.98585501,38.91100341,30371061,38.910993,-76.985854,Capitol Ave & Kendall St NE,classic,633,active,2021/11/07 20:41:57+00,13,0,5,0,1,Yes,Yes,Yes,Yes,https://dc.lft.to/lastmile_qr_scan,https://dc.lft.to/lastmile_qr_scan,No,No,19,"KEY,CREDITCARD",42,2021/11/07 23:02:59+00,,"Washington, DC"
-76.98639052,38.88406847,30371062,38.884058,-76.986385,14th & D St SE,classic,634,active,2021/11/07 22:29:56+00,17,0,1,0,1,Yes,Yes,Yes,Yes,https://dc.lft.to/lastmile_qr_scan,https://dc.lft.to/lastmile_qr_scan,No,No,19,"KEY,CREDITCARD",42,2021/11/07 23:02:59+00,,"Washington, DC"
-77.01055712,38.8662862,30371063,38.866277,-77.010551,Half & Water St SW,classic,636,active,2021/11/07 22:54:39+00,10,0,5,0,0,Yes,Yes,Yes,Yes,https://dc.lft.to/lastmile_qr_scan,https://dc.lft.to/lastmile_qr_scan,No,No,15,"KEY,CREDITCARD",42,2021/11/07 23:02:59+00,,"Washington, DC"
-77.03188252,38.91068463,30371064,38.910674,-77.03188,14th & Q St NW,classic,637,active,2021/11/07 21:08:43+00,10,0,9,0,0,Yes,Yes,Yes,Yes,https://dc.lft.to/lastmile_qr_scan,https://dc.lft.to/lastmile_qr_scan,No,No,19,"KEY,CREDITCARD",42,2021/11/07 23:02:59+00,,"Washington, DC"
-77.02963679,38.91694601,30371065,38.916936,-77.029631,13th & U St NW,classic,638,active,2021/11/07 22:54:05+00,8,0,10,1,1,Yes,Yes,Yes,Yes,https://dc.lft.to/lastmile_qr_scan,https://dc.lft.to/lastmile_qr_scan,No,No,19,"KEY,CREDITCARD",42,2021/11/07 23:02:59+00,,"Washington, DC"
-76.97719262,38.88549036,30371066,38.885483,-76.977187,Stadium Armory Metro,classic,639,active,2021/11/07 13:47:36+00,15,0,4,0,0,Yes,Yes,Yes,Yes,https://dc.lft.to/lastmile_qr_scan,https://dc.lft.to/lastmile_qr_scan,No,No,19,"KEY,CREDITCARD",42,2021/11/07 23:02:59+00,,"Washington, DC"
-77.06862375,38.9657816,30371067,38.965775,-77.068626,Broad Branch Rd & Northampton St NW,classic,640,active,2021/11/07 08:53:50+00,19,0,0,0,0,Yes,Yes,Yes,Yes,https://dc.lft.to/lastmile_qr_scan,https://dc.lft.to/lastmile_qr_scan,No,No,19,"KEY,CREDITCARD",42,2021/11/07 23:02:59+00,,"Washington, DC"
-77.04282404,38.81403881,30371068,38.814031,-77.042817,N Pitt St & Montgomery St,classic,641,active,2021/11/07 07:58:16+00,13,0,2,0,0,Yes,Yes,Yes,Yes,https://dc.lft.to/lastmile_qr_scan,https://dc.lft.to/lastmile_qr_scan,No,No,15,"KEY,CREDITCARD",40,2021/11/07 23:02:59+00,,"Alexandria, VA"
-77.04692093,38.89831108,30371069,38.898302,-77.046913,21st St & G st NW,classic,645,active,2021/11/07 22:35:05+00,14,0,5,0,0,Yes,Yes,Yes,Yes,https://dc.lft.to/lastmile_qr_scan,https://dc.lft.to/lastmile_qr_scan,No,No,19,"KEY,CREDITCARD",42,2021/11/07 23:02:59+00,,"Washington, DC"
-77.01765881,38.88113119,30371070,38.881123,-77.017658,4th St & G St SW,classic,646,active,2021/11/07 21:09:13+00,3,0,14,1,2,Yes,Yes,Yes,Yes,https://dc.lft.to/lastmile_qr_scan,https://dc.lft.to/lastmile_qr_scan,No,No,19,"KEY,CREDITCARD",42,2021/11/07 23:02:59+00,,"Washington, DC"
-77.01382432,38.95810787,30371071,38.958098,-77.013821,Kansas Ave & Longfellow St NW,classic,647,active,2021/11/07 19:13:42+00,15,0,4,0,0,Yes,Yes,Yes,Yes,https://dc.lft.to/lastmile_qr_scan,https://dc.lft.to/lastmile_qr_scan,No,No,19,"KEY,CREDITCARD",42,2021/11/07 23:02:59+00,,"Washington, DC"
-77.04592335,38.85290915,30371072,38.852903,-77.045916,National Airport,classic,648,active,2021/11/07 22:17:15+00,3,0,15,1,0,Yes,Yes,Yes,Yes,https://dc.lft.to/lastmile_qr_scan,https://dc.lft.to/lastmile_qr_scan,No,No,19,"KEY,CREDITCARD",41,2021/11/07 23:02:59+00,,"Arlington, VA"
-77.35530422,38.9490199,30371073,38.949008,-77.355299,Vy Reston Heights,classic,625,active,2021/11/07 16:45:58+00,6,0,5,0,0,Yes,Yes,Yes,Yes,https://dc.lft.to/lastmile_qr_scan,https://dc.lft.to/lastmile_qr_scan,No,No,11,"KEY,CREDITCARD",104,2021/11/07 23:02:59+00,,"Fairfax, VA"
-77.05687743,38.8648495,30371074,38.864838,-77.056873,Fern St & Army Navy Dr,classic,649,active,2021/11/07 17:47:55+00,8,0,7,0,0,Yes,Yes,Yes,Yes,https://dc.lft.to/lastmile_qr_scan,https://dc.lft.to/lastmile_qr_scan,No,No,15,"KEY,CREDITCARD",41,2021/11/07 23:02:59+00,,"Arlington, VA"
-77.07489139,38.8908736,30371075,38.890863,-77.074893,Arlington Blvd & Ft Myer Dr,classic,650,active,2021/11/07 16:42:20+00,12,0,3,0,0,Yes,Yes,Yes,Yes,https://dc.lft.to/lastmile_qr_scan,https://dc.lft.to/lastmile_qr_scan,No,No,15,"KEY,CREDITCARD",41,2021/11/07 23:02:59+00,,"Arlington, VA"
-77.0594947,38.85301112,30371076,38.853002,-77.059496,23rd St S & Hayes St,classic,651,active,2021/11/07 17:37:31+00,13,0,2,1,0,Yes,Yes,Yes,Yes,https://dc.lft.to/lastmile_qr_scan,https://dc.lft.to/lastmile_qr_scan,No,No,15,"KEY,CREDITCARD",41,2021/11/07 23:02:59+00,,"Arlington, VA"
-77.07385834,38.89507216,30371077,38.895068,-77.07386,Wilson Blvd & N Oak St,classic,652,active,2021/11/07 18:00:35+00,9,0,8,0,0,Yes,Yes,Yes,Yes,https://dc.lft.to/lastmile_qr_scan,https://dc.lft.to/lastmile_qr_scan,No,No,17,"KEY,CREDITCARD",41,2021/11/07 23:02:59+00,,"Arlington, VA"
-77.0842687,38.88626393,30371078,38.886256,-77.084262,Arlington Blvd & Fairfax Dr,classic,653,active,2021/11/07 15:40:27+00,12,0,4,2,0,Yes,Yes,Yes,Yes,https://dc.lft.to/lastmile_qr_scan,https://dc.lft.to/lastmile_qr_scan,No,No,16,"KEY,CREDITCARD",41,2021/11/07 23:02:59+00,,"Arlington, VA"
-77.01381757,38.8637545,30371079,38.863743,-77.013814,2nd & V St SW / James Creek Marina,classic,654,active,2021/11/07 22:11:19+00,13,0,5,1,1,Yes,Yes,Yes,Yes,https://dc.lft.to/lastmile_qr_scan,https://dc.lft.to/lastmile_qr_scan,No,No,19,"KEY,CREDITCARD",42,2021/11/07 23:02:59+00,,"Washington, DC"
-77.00591391,38.87184472,30371080,38.871841,-77.00591,1st St & Potomac Ave SE,classic,655,active,2021/11/07 22:07:30+00,10,0,9,0,0,Yes,Yes,Yes,Yes,https://dc.lft.to/lastmile_qr_scan,https://dc.lft.to/lastmile_qr_scan,No,No,19,"KEY,CREDITCARD",42,2021/11/07 23:02:59+00,,"Washington, DC"
-77.04549252,38.91803993,30371081,38.918036,-77.045487,20th & Columbia Rd NW,classic,656,active,2021/11/07 21:44:19+00,7,0,12,1,0,Yes,Yes,Yes,Yes,https://dc.lft.to/lastmile_qr_scan,https://dc.lft.to/lastmile_qr_scan,No,No,19,"KEY,CREDITCARD",42,2021/11/07 23:02:59+00,,"Washington, DC"
-77.00216888,38.87682649,30371082,38.876823,-77.002161,3rd & M st SE,classic,657,active,2021/11/07 21:03:26+00,23,0,0,0,0,Yes,Yes,Yes,Yes,https://dc.lft.to/lastmile_qr_scan,https://dc.lft.to/lastmile_qr_scan,No,No,23,"KEY,CREDITCARD",42,2021/11/07 23:02:59+00,,"Washington, DC"
-76.92531703,38.88332471,30371083,38.883318,-76.925315,53rd & D St SE/C.W. Harris Elementary,classic,659,active,2021/11/06 09:44:24+00,18,0,1,0,0,Yes,Yes,Yes,Yes,https://dc.lft.to/lastmile_qr_scan,https://dc.lft.to/lastmile_qr_scan,No,No,19,"KEY,CREDITCARD",42,2021/11/07 23:02:59+00,,"Washington, DC"
-77.10611831,38.83731235,30371084,38.837306,-77.106111,N Hampton Dr & Ford Ave,classic,662,active,2021/11/07 14:33:23+00,10,0,1,0,0,Yes,Yes,Yes,Yes,https://dc.lft.to/lastmile_qr_scan,https://dc.lft.to/lastmile_qr_scan,No,No,11,"KEY,CREDITCARD",40,2021/11/07 23:02:59+00,,"Alexandria, VA"
-77.135794,38.80971564,30371085,38.809709,-77.135788,Whiting & Lane Dr,classic,663,active,2021/11/07 17:53:12+00,5,0,10,7,0,Yes,Yes,Yes,Yes,https://dc.lft.to/lastmile_qr_scan,https://dc.lft.to/lastmile_qr_scan,No,No,15,"KEY,CREDITCARD",40,2021/11/07 23:02:59+00,,"Alexandria, VA"
-77.11001291,38.81585055,30371086,38.815842,-77.110014,N Howard St & Taney Ave,classic,664,active,2021/11/07 04:04:09+00,4,0,11,2,0,Yes,Yes,Yes,Yes,https://dc.lft.to/lastmile_qr_scan,https://dc.lft.to/lastmile_qr_scan,No,No,15,"KEY,CREDITCARD",40,2021/11/07 23:02:59+00,,"Alexandria, VA"
-76.97093682,38.87877772,30371087,38.878771,-76.97093,Anacostia Roller Skating Pavillion,classic,665,active,2021/11/07 14:57:21+00,9,0,10,0,0,Yes,Yes,Yes,Yes,https://dc.lft.to/lastmile_qr_scan,https://dc.lft.to/lastmile_qr_scan,No,No,19,"KEY,CREDITCARD",42,2021/11/07 23:02:59+00,,"Washington, DC"
-77.05195441,38.84503324,30371088,38.845028,-77.051956,S Clark St & 33rd St,classic,667,active,2021/11/07 19:26:01+00,6,0,5,1,0,Yes,Yes,Yes,Yes,https://dc.lft.to/lastmile_qr_scan,https://dc.lft.to/lastmile_qr_scan,No,No,11,"KEY,CREDITCARD",41,2021/11/07 23:02:59+00,,"Arlington, VA"
-77.11811326,38.85402953,30371089,38.854019,-77.118106,Columbia Pike & S Greenbrier St,classic,668,active,2021/11/07 14:10:10+00,11,0,4,3,0,Yes,Yes,Yes,Yes,https://dc.lft.to/lastmile_qr_scan,https://dc.lft.to/lastmile_qr_scan,No,No,15,"KEY,CREDITCARD",41,2021/11/07 23:02:59+00,,"Arlington, VA"
-77.11058581,38.8288943,30371090,38.828887,-77.110588,Kenmore Ave & Seminary Rd,classic,669,active,2021/11/07 04:04:10+00,8,0,3,0,0,Yes,Yes,Yes,Yes,https://dc.lft.to/lastmile_qr_scan,https://dc.lft.to/lastmile_qr_scan,No,No,11,"KEY,CREDITCARD",40,2021/11/07 23:02:59+00,,"Alexandria, VA"
-77.07145013,38.89609161,30371091,38.896087,-77.071452,Rosslyn Metro / Wilson Blvd & N Moore St,classic,670,active,2021/11/07 22:26:23+00,18,0,3,0,0,Yes,Yes,Yes,Yes,https://dc.lft.to/lastmile_qr_scan,https://dc.lft.to/lastmile_qr_scan,No,No,21,"KEY,CREDITCARD",41,2021/11/07 23:02:59+00,,"Arlington, VA"
-77.16211724,38.88715473,30371092,38.88715,-77.16212,W&OD Trail & Langston Blvd,classic,671,active,2021/11/07 18:18:07+00,13,0,2,0,0,Yes,Yes,Yes,Yes,https://dc.lft.to/lastmile_qr_scan,https://dc.lft.to/lastmile_qr_scan,No,No,15,"KEY,CREDITCARD",41,2021/11/07 23:02:59+00,,"Arlington, VA"
-76.87801225,39.00032068,30371093,39.00031,-76.878005,Roosevelt Center & Crescent Rd,classic,672,active,2021/11/07 13:48:34+00,13,0,2,0,0,Yes,Yes,Yes,Yes,https://dc.lft.to/lastmile_qr_scan,https://dc.lft.to/lastmile_qr_scan,No,No,15,"KEY,CREDITCARD",133,2021/11/07 23:02:59+00,,Prince George's County
-76.89124475,39.00619806,30371094,39.006191,-76.891247,Crescent Rd & Ridge Rd,classic,673,active,2021/11/07 14:08:15+00,11,0,3,0,1,Yes,Yes,Yes,Yes,https://dc.lft.to/lastmile_qr_scan,https://dc.lft.to/lastmile_qr_scan,No,No,15,"KEY,CREDITCARD",133,2021/11/07 23:02:59+00,,Prince George's County
-76.9162449,39.00247122,30371095,39.002459,-76.916243,Greenbelt Station Parkway,classic,674,active,2021/11/07 18:37:53+00,4,0,7,0,0,Yes,Yes,Yes,Yes,https://dc.lft.to/lastmile_qr_scan,https://dc.lft.to/lastmile_qr_scan,No,No,11,"KEY,CREDITCARD",133,2021/11/07 23:02:59+00,,Prince George's County
-77.3593485,38.96634858,30371096,38.966344,-77.359341,Baron Cameron Ave & North Hampton Ave,classic,675,active,2021/11/07 15:13:37+00,7,0,5,1,0,Yes,Yes,Yes,Yes,https://dc.lft.to/lastmile_qr_scan,https://dc.lft.to/lastmile_qr_scan,No,No,12,"KEY,CREDITCARD",104,2021/11/07 23:02:59+00,,"Fairfax, VA"
-77.33777706,38.93607281,30371097,38.936061,-77.337775,Ridge Heights Rd & Seahawks Dr,classic,676,active,2021/11/07 16:32:02+00,11,0,0,0,0,Yes,Yes,Yes,Yes,https://dc.lft.to/lastmile_qr_scan,https://dc.lft.to/lastmile_qr_scan,No,No,12,"KEY,CREDITCARD",104,2021/11/07 23:02:59+00,,"Fairfax, VA"
-77.32928016,38.9668515,30371098,38.966848,-77.329282,Becontree Ln & Goldenrain Ct,classic,677,active,2021/11/07 04:54:42+00,5,0,7,0,0,Yes,Yes,Yes,Yes,https://dc.lft.to/lastmile_qr_scan,https://dc.lft.to/lastmile_qr_scan,No,No,12,"KEY,CREDITCARD",104,2021/11/07 23:02:59+00,,"Fairfax, VA"
-77.32675973,38.97081321,30371099,38.970807,-77.326761,Ring Rd & North Shore Dr,classic,678,active,2021/11/07 04:54:37+00,2,0,10,0,0,Yes,Yes,Yes,Yes,https://dc.lft.to/lastmile_qr_scan,https://dc.lft.to/lastmile_qr_scan,No,No,12,"KEY,CREDITCARD",104,2021/11/07 23:02:59+00,,"Fairfax, VA"
-77.35183794,38.97363212,30371100,38.973625,-77.351837,Reston Pkwy & Bennington Woods Rd,classic,679,active,2021/11/07 04:54:35+00,11,0,1,0,0,Yes,Yes,Yes,Yes,https://dc.lft.to/lastmile_qr_scan,https://dc.lft.to/lastmile_qr_scan,No,No,12,"KEY,CREDITCARD",104,2021/11/07 23:02:59+00,,"Fairfax, VA"
-77.33436486,38.96599029,30371101,38.965979,-77.334359,Inlet Ct & Wiehle Dr,classic,680,active,2021/11/07 04:54:36+00,9,0,3,0,0,Yes,Yes,Yes,Yes,https://dc.lft.to/lastmile_qr_scan,https://dc.lft.to/lastmile_qr_scan,No,No,12,"KEY,CREDITCARD",104,2021/11/07 23:02:59+00,,"Fairfax, VA"
-77.34254467,38.96331817,30371102,38.963314,-77.342546,Fairway Dr & Hook Rd,classic,681,active,2021/11/07 16:55:29+00,9,0,3,0,0,Yes,Yes,Yes,Yes,https://dc.lft.to/lastmile_qr_scan,https://dc.lft.to/lastmile_qr_scan,No,No,12,"KEY,CREDITCARD",104,2021/11/07 23:02:59+00,,"Fairfax, VA"
-77.34849203,38.96670574,30371103,38.9667,-77.348487,Vantage Hill Rd & Wainwright Dr,classic,682,active,2021/11/07 04:54:36+00,10,0,2,0,0,Yes,Yes,Yes,Yes,https://dc.lft.to/lastmile_qr_scan,https://dc.lft.to/lastmile_qr_scan,No,No,12,"KEY,CREDITCARD",104,2021/11/07 23:02:59+00,,"Fairfax, VA"
-77.33929347,38.95903068,30371104,38.959025,-77.339295,Links Dr & Wedge Dr,classic,684,active,2021/11/07 17:01:31+00,2,0,9,0,1,Yes,Yes,Yes,Yes,https://dc.lft.to/lastmile_qr_scan,https://dc.lft.to/lastmile_qr_scan,No,No,12,"KEY,CREDITCARD",104,2021/11/07 23:02:59+00,,"Fairfax, VA"
-77.35354898,38.94401658,30371105,38.944013,-77.353552,Golf Course Sq and Golf Course Dr,classic,685,active,2021/11/07 17:42:23+00,11,0,1,0,0,Yes,Yes,Yes,Yes,https://dc.lft.to/lastmile_qr_scan,https://dc.lft.to/lastmile_qr_scan,No,No,12,"KEY,CREDITCARD",104,2021/11/07 23:02:59+00,,"Fairfax, VA"
-77.36230101,38.9433592,30371106,38.94335,-77.362304,South Lakes Dr and Reston Pkwy,classic,686,active,2021/11/07 20:18:40+00,5,0,4,0,3,Yes,Yes,Yes,Yes,https://dc.lft.to/lastmile_qr_scan,https://dc.lft.to/lastmile_qr_scan,No,No,12,"KEY,CREDITCARD",104,2021/11/07 23:02:59+00,,"Fairfax, VA"
-77.35406527,38.93880819,30371107,38.938797,-77.354067,Olde Crafts Dr and Cartwright Pl,classic,687,active,2021/11/07 04:54:36+00,10,0,2,0,0,Yes,Yes,Yes,Yes,https://dc.lft.to/lastmile_qr_scan,https://dc.lft.to/lastmile_qr_scan,No,No,12,"KEY,CREDITCARD",104,2021/11/07 23:02:59+00,,"Fairfax, VA"
-77.36787514,38.93715304,30371108,38.937146,-77.367868,Green Range Dr and Glade Dr,classic,688,active,2021/11/06 13:48:53+00,9,0,3,0,0,Yes,Yes,Yes,Yes,https://dc.lft.to/lastmile_qr_scan,https://dc.lft.to/lastmile_qr_scan,No,No,12,"KEY,CREDITCARD",104,2021/11/07 23:02:59+00,,"Fairfax, VA"
-77.04410249,38.87056635,30371109,38.870561,-77.044095,Long Bridge Aquatic Center,classic,695,active,2021/11/07 16:18:48+00,7,0,5,0,0,Yes,Yes,Yes,Yes,https://dc.lft.to/lastmile_qr_scan,https://dc.lft.to/lastmile_qr_scan,No,No,12,"KEY,CREDITCARD",41,2021/11/07 23:02:59+00,,"Arlington, VA"
-77.11634399,38.85705814,30371110,38.857049,-77.116339,8th Rd & S Frederick St,classic,696,active,2021/11/06 14:59:35+00,12,0,0,0,0,Yes,Yes,Yes,Yes,https://dc.lft.to/lastmile_qr_scan,https://dc.lft.to/lastmile_qr_scan,No,No,12,"KEY,CREDITCARD",41,2021/11/07 23:02:59+00,,"Arlington, VA"
-76.99602381,38.92240875,30371111,38.922404,-76.996023,MBT & Bryant St NE,classic,697,active,2021/11/07 22:55:14+00,12,0,7,0,0,Yes,Yes,Yes,Yes,https://dc.lft.to/lastmile_qr_scan,https://dc.lft.to/lastmile_qr_scan,No,No,19,"KEY,CREDITCARD",42,2021/11/07 23:02:59+00,,"Washington, DC"
-77.1055607,38.81852118,30371112,38.818509,-77.105564,N Howard St & N Imboden St,classic,698,active,2021/11/07 04:04:09+00,14,0,1,0,0,Yes,Yes,Yes,Yes,https://dc.lft.to/lastmile_qr_scan,https://dc.lft.to/lastmile_qr_scan,No,No,15,"KEY,CREDITCARD",40,2021/11/07 23:02:59+00,,"Alexandria, VA"
-77.22281027,38.87860483,30371113,38.878601,-77.222808,Hartland Rd & Harte Pl,classic,701,active,2021/11/07 04:54:35+00,9,0,2,0,0,Yes,Yes,Yes,Yes,https://dc.lft.to/lastmile_qr_scan,https://dc.lft.to/lastmile_qr_scan,No,No,11,"KEY,CREDITCARD",104,2021/11/07 23:02:59+00,,"Fairfax, VA"
-77.34182084,38.98321061,30371114,38.983199,-77.341823,North Village and Park Garden,classic,702,active,2021/11/07 04:54:38+00,9,0,3,0,0,Yes,Yes,Yes,Yes,https://dc.lft.to/lastmile_qr_scan,https://dc.lft.to/lastmile_qr_scan,No,No,12,"KEY,CREDITCARD",104,2021/11/07 23:02:59+00,,"Fairfax, VA"
-77.02268388,38.91772229,30371115,38.917716,-77.022684,8th & V St NW,classic,704,active,2021/11/07 22:51:39+00,17,0,2,0,0,Yes,Yes,Yes,Yes,https://dc.lft.to/lastmile_qr_scan,https://dc.lft.to/lastmile_qr_scan,No,No,19,"KEY,CREDITCARD",42,2021/11/07 23:02:59+00,,"Washington, DC"
-77.03856943,38.90986285,30371116,38.909858,-77.038566,17th & P St NW,classic,705,active,2021/11/07 21:22:53+00,7,0,10,1,1,Yes,Yes,Yes,Yes,https://dc.lft.to/lastmile_qr_scan,https://dc.lft.to/lastmile_qr_scan,No,No,19,"KEY,CREDITCARD",42,2021/11/07 23:02:59+00,,"Washington, DC"
-77.10366893,38.9272994,30371117,38.927294,-77.103662,Arizona Ave & MacArthur Blvd NW,classic,706,active,2021/11/07 15:04:10+00,11,0,8,1,0,Yes,Yes,Yes,Yes,https://dc.lft.to/lastmile_qr_scan,https://dc.lft.to/lastmile_qr_scan,No,No,19,"KEY,CREDITCARD",42,2021/11/07 23:02:59+00,,"Washington, DC"
-77.02716965,38.91820778,30371118,38.918199,-77.027171,11th & V st NW,classic,707,active,2021/11/07 22:48:54+00,10,0,8,1,1,Yes,Yes,Yes,Yes,https://dc.lft.to/lastmile_qr_scan,https://dc.lft.to/lastmile_qr_scan,No,No,19,"KEY,CREDITCARD",42,2021/11/07 23:02:59+00,,"Washington, DC"
-77.06309029,38.84129826,30371119,38.841291,-77.063093,Mount Vernon Ave & Bruce St,classic,414,active,2021/11/07 19:05:53+00,4,0,11,0,0,Yes,Yes,Yes,Yes,https://dc.lft.to/lastmile_qr_scan,https://dc.lft.to/lastmile_qr_scan,No,No,15,"KEY,CREDITCARD",40,2021/11/07 23:02:59+00,,"Alexandria, VA"
-77.05377327,38.79756674,30371120,38.797557,-77.053766,Lee Center,classic,415,active,2021/11/07 16:32:38+00,9,0,6,1,0,Yes,Yes,Yes,Yes,https://dc.lft.to/lastmile_qr_scan,https://dc.lft.to/lastmile_qr_scan,No,No,15,"KEY,CREDITCARD",40,2021/11/07 23:02:59+00,,"Alexandria, VA"
-77.04778987,38.81875733,30371121,38.818748,-77.047783,Powhatan St & Bashford Ln,classic,416,active,2021/11/07 18:50:58+00,11,0,3,0,1,Yes,Yes,Yes,Yes,https://dc.lft.to/lastmile_qr_scan,https://dc.lft.to/lastmile_qr_scan,No,No,15,"KEY,CREDITCARD",40,2021/11/07 23:02:59+00,,"Alexandria, VA"
-77.04784316,38.82954946,30371122,38.829545,-77.047844,Potomac Ave & Swann Ave,classic,417,active,2021/11/07 20:10:53+00,4,0,15,2,0,Yes,Yes,Yes,Yes,https://dc.lft.to/lastmile_qr_scan,https://dc.lft.to/lastmile_qr_scan,No,No,19,"KEY,CREDITCARD",40,2021/11/07 23:02:59+00,,"Alexandria, VA"
-77.03222496,38.92855706,30371123,38.928552,-77.032224,14th & Irving St NW,classic,418,active,2021/11/07 23:00:15+00,29,0,1,0,0,Yes,Yes,Yes,Yes,https://dc.lft.to/lastmile_qr_scan,https://dc.lft.to/lastmile_qr_scan,No,No,31,"KEY,CREDITCARD",42,2021/11/07 23:02:59+00,,"Washington, DC"
-77.03444908,38.90114405,30371124,38.901136,-77.034451,Vermont Ave & I St NW,classic,419,active,2021/11/07 22:35:01+00,21,0,4,0,0,Yes,Yes,Yes,Yes,https://dc.lft.to/lastmile_qr_scan,https://dc.lft.to/lastmile_qr_scan,No,No,25,"KEY,CREDITCARD",42,2021/11/07 23:02:59+00,,"Washington, DC"
-77.08021386,38.94982058,30371125,38.949813,-77.080217,Wisconsin Ave & Brandywine St NW,classic,420,active,2021/11/07 08:37:48+00,25,0,0,0,0,Yes,Yes,Yes,Yes,https://dc.lft.to/lastmile_qr_scan,https://dc.lft.to/lastmile_qr_scan,No,No,25,"KEY,CREDITCARD",42,2021/11/07 23:02:59+00,,"Washington, DC"
-76.97192615,38.91264042,30371126,38.91263,-76.971923,24th & R St NE / National Arboretum,classic,421,active,2021/11/07 23:01:52+00,10,0,7,1,2,Yes,Yes,Yes,Yes,https://dc.lft.to/lastmile_qr_scan,https://dc.lft.to/lastmile_qr_scan,No,No,19,"KEY,CREDITCARD",42,2021/11/07 23:02:59+00,,"Washington, DC"
-76.92591325,38.8974142,30371127,38.897407,-76.925907,Division Ave & Foote St NE,classic,422,active,2021/11/07 10:29:58+00,7,0,8,0,0,Yes,Yes,Yes,Yes,https://dc.lft.to/lastmile_qr_scan,https://dc.lft.to/lastmile_qr_scan,No,No,15,"KEY,CREDITCARD",42,2021/11/07 23:02:59+00,,"Washington, DC"
-76.98235986,38.87069947,30371128,38.870695,-76.982359,16th & Q St SE / Anacostia HS,classic,423,active,2021/11/07 18:34:03+00,10,0,13,2,0,Yes,Yes,Yes,Yes,https://dc.lft.to/lastmile_qr_scan,https://dc.lft.to/lastmile_qr_scan,No,No,23,"KEY,CREDITCARD",42,2021/11/07 23:02:59+00,,"Washington, DC"
-77.24066015,38.9292686,30371129,38.929261,-77.240654,Spring Hill Metro,classic,424,active,2021/11/06 11:49:38+00,14,0,1,0,0,Yes,Yes,Yes,Yes,https://dc.lft.to/lastmile_qr_scan,https://dc.lft.to/lastmile_qr_scan,No,No,15,"KEY,CREDITCARD",104,2021/11/07 23:02:59+00,,"Fairfax, VA"
-77.23596045,38.92403532,30371130,38.92403,-77.235955,Westpark Dr & Leesburg Pike,classic,425,active,2021/11/07 12:03:06+00,10,0,1,0,0,Yes,Yes,Yes,Yes,https://dc.lft.to/lastmile_qr_scan,https://dc.lft.to/lastmile_qr_scan,No,No,11,"KEY,CREDITCARD",104,2021/11/07 23:02:59+00,,"Fairfax, VA"
-77.22118521,38.91947897,30371131,38.919475,-77.221179,Tysons One Pl & Chain Bridge Rd,classic,427,active,2021/11/07 12:31:34+00,3,0,8,1,0,Yes,Yes,Yes,Yes,https://dc.lft.to/lastmile_qr_scan,https://dc.lft.to/lastmile_qr_scan,No,No,11,"KEY,CREDITCARD",104,2021/11/07 23:02:59+00,,"Fairfax, VA"
-77.22211229,38.92094557,30371132,38.920939,-77.222115,Tysons Corner Station,classic,428,active,2021/11/07 22:01:23+00,7,0,4,0,0,Yes,Yes,Yes,Yes,https://dc.lft.to/lastmile_qr_scan,https://dc.lft.to/lastmile_qr_scan,No,No,11,"KEY,CREDITCARD",104,2021/11/07 23:02:59+00,,"Fairfax, VA"
-77.21767178,38.92444917,30371133,38.924437,-77.217664,Westpark & Jones Branch Dr,classic,429,active,2021/11/07 04:34:24+00,2,0,9,0,0,Yes,Yes,Yes,Yes,https://dc.lft.to/lastmile_qr_scan,https://dc.lft.to/lastmile_qr_scan,No,No,11,"KEY,CREDITCARD",104,2021/11/07 23:02:59+00,,"Fairfax, VA"
-77.21926314,38.93192312,30371134,38.931911,-77.219261,Jones Branch & Westbranch Dr,classic,430,active,2021/11/07 04:34:25+00,5,0,8,0,0,Yes,Yes,Yes,Yes,https://dc.lft.to/lastmile_qr_scan,https://dc.lft.to/lastmile_qr_scan,No,No,13,"KEY,CREDITCARD",104,2021/11/07 23:02:59+00,,"Fairfax, VA"
-77.22540097,38.92892968,30371135,38.928919,-77.225394,Westpark & Park Run Dr,classic,431,active,2021/11/07 04:35:28+00,10,0,1,1,0,Yes,Yes,Yes,Yes,https://dc.lft.to/lastmile_qr_scan,https://dc.lft.to/lastmile_qr_scan,No,No,11,"KEY,CREDITCARD",104,2021/11/07 23:02:59+00,,"Fairfax, VA"
-77.23182535,38.93264657,30371136,38.932636,-77.231825,Tysons West Transit Center,classic,432,active,2021/11/07 04:34:26+00,11,0,0,0,0,Yes,Yes,Yes,Yes,https://dc.lft.to/lastmile_qr_scan,https://dc.lft.to/lastmile_qr_scan,No,No,11,"KEY,CREDITCARD",104,2021/11/07 23:02:59+00,,"Fairfax, VA"
-77.33868818,38.9700496,30371137,38.970046,-77.338686,North Shore & Cameron Crescent Dr/Crescent Apartments,classic,433,active,2021/11/07 04:34:26+00,8,0,3,0,0,Yes,Yes,Yes,Yes,https://dc.lft.to/lastmile_qr_scan,https://dc.lft.to/lastmile_qr_scan,No,No,11,"KEY,CREDITCARD",104,2021/11/07 23:02:59+00,,"Fairfax, VA"
-77.36190231,38.96253018,30371138,38.962524,-77.361902,Town Center Pkwy & Bowman Towne Dr,classic,434,active,2021/11/07 04:34:27+00,5,0,10,0,0,Yes,Yes,Yes,Yes,https://dc.lft.to/lastmile_qr_scan,https://dc.lft.to/lastmile_qr_scan,No,No,15,"KEY,CREDITCARD",104,2021/11/07 23:02:59+00,,"Fairfax, VA"
-77.35881938,38.96209828,30371139,38.962095,-77.358815,Reston Regional Library,classic,435,active,2021/11/07 04:34:25+00,8,0,7,0,0,Yes,Yes,Yes,Yes,https://dc.lft.to/lastmile_qr_scan,https://dc.lft.to/lastmile_qr_scan,No,No,15,"KEY,CREDITCARD",104,2021/11/07 23:02:59+00,,"Fairfax, VA"
-77.35633107,38.96058348,30371140,38.960574,-77.356324,New Dominion Pkwy & Fountain Dr,classic,436,active,2021/11/07 10:53:30+00,12,0,2,0,1,Yes,Yes,Yes,Yes,https://dc.lft.to/lastmile_qr_scan,https://dc.lft.to/lastmile_qr_scan,No,No,15,"KEY,CREDITCARD",104,2021/11/07 23:02:59+00,,"Fairfax, VA"
-77.35165409,38.95508454,30371141,38.955079,-77.351649,Sunset Hills & Old Reston Ave,classic,437,active,2021/11/07 19:34:37+00,6,0,9,0,0,Yes,Yes,Yes,Yes,https://dc.lft.to/lastmile_qr_scan,https://dc.lft.to/lastmile_qr_scan,No,No,15,"KEY,CREDITCARD",104,2021/11/07 23:02:59+00,,"Fairfax, VA"
-77.35971693,38.95704185,30371142,38.957037,-77.359718,Reston Town Center Transit Station,classic,438,active,2021/11/07 17:55:48+00,6,0,11,0,0,Yes,Yes,Yes,Yes,https://dc.lft.to/lastmile_qr_scan,https://dc.lft.to/lastmile_qr_scan,No,No,17,"KEY,CREDITCARD",104,2021/11/07 23:02:59+00,,"Fairfax, VA"
-77.00597263,38.8849249,30371143,38.884916,-77.005965,1st & D St SE,classic,439,active,2021/11/07 22:18:40+00,18,0,1,0,0,Yes,Yes,Yes,Yes,https://dc.lft.to/lastmile_qr_scan,https://dc.lft.to/lastmile_qr_scan,No,No,19,"KEY,CREDITCARD",42,2021/11/07 23:02:59+00,,"Washington, DC"
-77.33939589,38.9466169,30371144,38.946608,-77.339391,Wiehle Ave & Reston Station Blvd,classic,440,active,2021/11/07 17:13:33+00,18,0,1,0,0,Yes,Yes,Yes,Yes,https://dc.lft.to/lastmile_qr_scan,https://dc.lft.to/lastmile_qr_scan,No,No,19,"KEY,CREDITCARD",104,2021/11/07 23:02:59+00,,"Fairfax, VA"
-77.35873778,38.95963925,30371145,38.959633,-77.358741,Library St & Freedom Dr,classic,441,active,2021/11/07 16:52:20+00,11,0,8,0,0,Yes,Yes,Yes,Yes,https://dc.lft.to/lastmile_qr_scan,https://dc.lft.to/lastmile_qr_scan,No,No,19,"KEY,CREDITCARD",104,2021/11/07 23:02:59+00,,"Fairfax, VA"
-77.35760859,38.95534574,30371146,38.95534,-77.357611,Sunset Hills Rd & Discovery Square,classic,442,active,2021/11/07 04:34:26+00,15,0,0,0,0,Yes,Yes,Yes,Yes,https://dc.lft.to/lastmile_qr_scan,https://dc.lft.to/lastmile_qr_scan,No,No,15,"KEY,CREDITCARD",104,2021/11/07 23:02:59+00,,"Fairfax, VA"
-77.04894582,38.89244581,30371147,38.892441,-77.048947,22nd St & Constitution Ave NW,classic,443,active,2021/11/07 18:53:36+00,12,0,10,1,1,Yes,Yes,Yes,Yes,https://dc.lft.to/lastmile_qr_scan,https://dc.lft.to/lastmile_qr_scan,No,No,23,"KEY,CREDITCARD",42,2021/11/07 23:02:59+00,,"Washington, DC"
-76.91356226,38.89181151,30371148,38.891805,-76.913563,61st St & Banks Pl NE,classic,444,active,2021/11/07 04:34:25+00,4,0,15,0,0,Yes,Yes,Yes,Yes,https://dc.lft.to/lastmile_qr_scan,https://dc.lft.to/lastmile_qr_scan,No,No,19,"KEY,CREDITCARD",42,2021/11/07 23:02:59+00,,"Washington, DC"
-77.35342101,38.96008785,30371149,38.960084,-77.353414,Temporary Rd & Old Reston Ave,classic,445,active,2021/11/07 04:34:28+00,13,0,1,0,1,Yes,Yes,Yes,Yes,https://dc.lft.to/lastmile_qr_scan,https://dc.lft.to/lastmile_qr_scan,No,No,15,"KEY,CREDITCARD",104,2021/11/07 23:02:59+00,,"Fairfax, VA"
-77.36841886,38.95532118,30371150,38.955314,-77.368416,Reston YMCA,classic,446,active,2021/11/07 15:00:46+00,11,0,4,0,0,Yes,Yes,Yes,Yes,https://dc.lft.to/lastmile_qr_scan,https://dc.lft.to/lastmile_qr_scan,No,No,15,"KEY,CREDITCARD",104,2021/11/07 23:02:59+00,,"Fairfax, VA"
-77.34037645,38.95145153,30371151,38.951443,-77.340377,Sunset Hills Rd & Isaac Newton Square,classic,447,active,2021/11/07 19:39:29+00,4,0,7,0,0,Yes,Yes,Yes,Yes,https://dc.lft.to/lastmile_qr_scan,https://dc.lft.to/lastmile_qr_scan,No,No,11,"KEY,CREDITCARD",104,2021/11/07 23:02:59+00,,"Fairfax, VA"
-77.07086001,38.8938669,30371152,38.89386,-77.070862,N Lynn St & Fairfax Dr,classic,448,active,2021/11/07 22:56:51+00,3,0,12,0,0,Yes,Yes,Yes,Yes,https://dc.lft.to/lastmile_qr_scan,https://dc.lft.to/lastmile_qr_scan,No,No,15,"KEY,CREDITCARD",41,2021/11/07 23:02:59+00,,"Arlington, VA"
-77.0279731,38.96750995,30371153,38.967505,-77.027976,Georgia Ave & Piney Branch Rd NW,classic,449,active,2021/11/07 17:17:33+00,9,0,6,0,0,Yes,Yes,Yes,Yes,https://dc.lft.to/lastmile_qr_scan,https://dc.lft.to/lastmile_qr_scan,No,No,15,"KEY,CREDITCARD",42,2021/11/07 23:02:59+00,,"Washington, DC"
-77.22742366,38.92308835,30371154,38.923083,-77.227417,Greensboro & International Dr,classic,450,active,2021/11/07 04:34:25+00,7,0,4,0,0,Yes,Yes,Yes,Yes,https://dc.lft.to/lastmile_qr_scan,https://dc.lft.to/lastmile_qr_scan,No,No,11,"KEY,CREDITCARD",104,2021/11/07 23:02:59+00,,"Fairfax, VA"
-77.04069293,38.81235498,30371155,38.812351,-77.040691,Madison St & Fairfax St,classic,451,active,2021/11/07 19:17:21+00,5,0,9,0,1,Yes,Yes,Yes,Yes,https://dc.lft.to/lastmile_qr_scan,https://dc.lft.to/lastmile_qr_scan,No,No,15,"KEY,CREDITCARD",40,2021/11/07 23:02:59+00,,"Alexandria, VA"
-77.01631241,38.9908795,30371156,38.990874,-77.016311,Sligo Ave & Carroll Ln,classic,452,active,2021/11/07 12:24:58+00,15,0,0,0,0,Yes,Yes,Yes,Yes,https://dc.lft.to/lastmile_qr_scan,https://dc.lft.to/lastmile_qr_scan,No,No,15,"KEY,CREDITCARD",44,2021/11/07 23:02:59+00,,"Montgomery County, MD (South)"
-77.03444619,38.91902562,30371157,38.919019,-77.034449,15th & W St NW,classic,453,active,2021/11/07 22:49:59+00,5,0,12,1,2,Yes,Yes,Yes,Yes,https://dc.lft.to/lastmile_qr_scan,https://dc.lft.to/lastmile_qr_scan,No,No,19,"KEY,CREDITCARD",42,2021/11/07 23:02:59+00,,"Washington, DC"
-76.99012504,38.88249238,30371158,38.882489,-76.990121,12th St & Pennsylvania Ave SE,classic,454,active,2021/11/07 21:54:48+00,11,0,8,0,0,Yes,Yes,Yes,Yes,https://dc.lft.to/lastmile_qr_scan,https://dc.lft.to/lastmile_qr_scan,No,No,19,"KEY,CREDITCARD",42,2021/11/07 23:02:59+00,,"Washington, DC"
-77.00224056,38.95746908,30371159,38.957463,-77.002239,3rd St & Riggs Rd NE,classic,455,active,2021/11/07 21:08:37+00,8,0,7,0,0,Yes,Yes,Yes,Yes,https://dc.lft.to/lastmile_qr_scan,https://dc.lft.to/lastmile_qr_scan,No,No,15,"KEY,CREDITCARD",42,2021/11/07 23:02:59+00,,"Washington, DC"
-77.11298783,38.87669979,30371160,38.876695,-77.112982,Carlin Springs Rd & N Thomas St,classic,456,active,2021/11/07 18:34:14+00,9,0,6,1,0,Yes,Yes,Yes,Yes,https://dc.lft.to/lastmile_qr_scan,https://dc.lft.to/lastmile_qr_scan,No,No,15,"KEY,CREDITCARD",41,2021/11/07 23:02:59+00,,"Arlington, VA"
-77.22015741,38.91525599,30371161,38.915246,-77.220157,Towers Crescent Dr & Tysons One Pl,classic,457,active,2021/11/07 04:34:28+00,9,0,2,1,0,Yes,Yes,Yes,Yes,https://dc.lft.to/lastmile_qr_scan,https://dc.lft.to/lastmile_qr_scan,No,No,11,"KEY,CREDITCARD",104,2021/11/07 23:02:59+00,,"Fairfax, VA"
-77.04839768,39.03597448,30371162,39.035965,-77.048395,Amherst Ave & Prichard Rd,classic,464,active,2021/11/07 04:34:33+00,14,0,1,0,0,Yes,Yes,Yes,Yes,https://dc.lft.to/lastmile_qr_scan,https://dc.lft.to/lastmile_qr_scan,No,No,15,"KEY,CREDITCARD",44,2021/11/07 23:02:59+00,,"Montgomery County, MD (South)"
-77.05309252,39.04327802,30371163,39.043272,-77.053085,Grandview & Blueridge Ave,classic,465,active,2021/11/07 04:34:26+00,14,0,1,0,0,Yes,Yes,Yes,Yes,https://dc.lft.to/lastmile_qr_scan,https://dc.lft.to/lastmile_qr_scan,No,No,15,"KEY,CREDITCARD",44,2021/11/07 23:02:59+00,,"Montgomery County, MD (South)"
-77.04735554,39.03203836,30371164,39.032029,-77.04735,Windham Ln & Amherst Ave,classic,466,active,2021/11/07 04:34:31+00,13,0,2,0,0,Yes,Yes,Yes,Yes,https://dc.lft.to/lastmile_qr_scan,https://dc.lft.to/lastmile_qr_scan,No,No,15,"KEY,CREDITCARD",44,2021/11/07 23:02:59+00,,"Montgomery County, MD (South)"
-77.34079017,38.97042184,30371165,38.970412,-77.340787,North Shore Dr & Village Rd,classic,467,active,2021/11/07 04:34:27+00,9,0,2,0,0,Yes,Yes,Yes,Yes,https://dc.lft.to/lastmile_qr_scan,https://dc.lft.to/lastmile_qr_scan,No,No,11,"KEY,CREDITCARD",104,2021/11/07 23:02:59+00,,"Fairfax, VA"
-77.36309945,38.95517567,30371166,38.955171,-77.363094,Town Center Pkwy & Sunset Hills Rd,classic,468,active,2021/11/07 04:39:28+00,7,0,4,0,0,Yes,Yes,Yes,Yes,https://dc.lft.to/lastmile_qr_scan,https://dc.lft.to/lastmile_qr_scan,No,No,11,"KEY,CREDITCARD",104,2021/11/07 23:02:59+00,,"Fairfax, VA"
-77.01626121,38.96884539,30371167,38.968834,-77.016258,3rd & Underwood St NW,classic,469,active,2021/11/07 19:50:00+00,12,0,7,0,0,Yes,Yes,Yes,Yes,https://dc.lft.to/lastmile_qr_scan,https://dc.lft.to/lastmile_qr_scan,No,No,19,"KEY,CREDITCARD",42,2021/11/07 23:02:59+00,,"Washington, DC"
-76.97951875,38.93293774,30371168,38.93293,-76.979517,18th & Monroe St NE,classic,470,active,2021/11/07 19:02:47+00,9,0,10,0,0,Yes,Yes,Yes,Yes,https://dc.lft.to/lastmile_qr_scan,https://dc.lft.to/lastmile_qr_scan,No,No,19,"KEY,CREDITCARD",42,2021/11/07 23:02:59+00,,"Washington, DC"
-77.02173942,38.88345467,30371169,38.88345,-77.021741,7th & E St SW,classic,471,active,2021/11/07 20:25:10+00,6,0,13,0,0,Yes,Yes,Yes,Yes,https://dc.lft.to/lastmile_qr_scan,https://dc.lft.to/lastmile_qr_scan,No,No,19,"KEY,CREDITCARD",42,2021/11/07 23:02:59+00,,"Washington, DC"
-77.16497551,39.12133653,30371170,39.121327,-77.164969,Shady Grove Metro East,classic,472,active,2021/11/07 04:39:27+00,18,0,1,0,0,Yes,Yes,Yes,Yes,https://dc.lft.to/lastmile_qr_scan,https://dc.lft.to/lastmile_qr_scan,No,No,19,"KEY,CREDITCARD",43,2021/11/07 23:02:59+00,,"Montgomery County, MD (North)"
-77.06515303,38.9053739,30371171,38.905368,-77.065149,Potomac & M St NW,classic,473,active,2021/11/07 22:43:56+00,0,0,18,0,1,Yes,Yes,Yes,Yes,https://dc.lft.to/lastmile_qr_scan,https://dc.lft.to/lastmile_qr_scan,No,No,19,"KEY,CREDITCARD",42,2021/11/07 23:02:59+00,,"Washington, DC"
-77.04079129,38.92409526,30371172,38.924088,-77.040787,Columbia & Ontario Rd NW,classic,474,active,2021/11/07 22:36:42+00,20,0,2,1,0,Yes,Yes,Yes,Yes,https://dc.lft.to/lastmile_qr_scan,https://dc.lft.to/lastmile_qr_scan,No,No,23,"KEY,CREDITCARD",42,2021/11/07 23:02:59+00,,"Washington, DC"
-76.99841133,38.90294179,30371173,38.902932,-76.998405,6th & K St NE,classic,458,active,2021/11/07 20:54:36+00,7,0,11,0,1,Yes,Yes,Yes,Yes,https://dc.lft.to/lastmile_qr_scan,https://dc.lft.to/lastmile_qr_scan,No,No,19,"KEY,CREDITCARD",42,2021/11/07 23:02:59+00,,"Washington, DC"
-77.10714475,39.01472127,30371174,39.014716,-77.107143,Pooks Hill Rd & Linden Ave,classic,459,active,2021/11/07 19:21:08+00,14,0,1,1,0,Yes,Yes,Yes,Yes,https://dc.lft.to/lastmile_qr_scan,https://dc.lft.to/lastmile_qr_scan,No,No,15,"KEY,CREDITCARD",44,2021/11/07 23:02:59+00,,"Montgomery County, MD (South)"
-76.98831068,38.98265555,30371175,38.98265,-76.988311,Takoma Park Rec Center,classic,460,active,2021/11/07 20:58:34+00,11,0,4,0,0,Yes,Yes,Yes,Yes,https://dc.lft.to/lastmile_qr_scan,https://dc.lft.to/lastmile_qr_scan,No,No,15,"KEY,CREDITCARD",44,2021/11/07 23:02:59+00,,"Montgomery County, MD (South)"
-76.98842521,38.98810553,30371176,38.988101,-76.988422,New Hampshire & Kirklynn Ave,classic,461,active,2021/11/07 21:12:03+00,6,0,9,0,0,Yes,Yes,Yes,Yes,https://dc.lft.to/lastmile_qr_scan,https://dc.lft.to/lastmile_qr_scan,No,No,15,"KEY,CREDITCARD",44,2021/11/07 23:02:59+00,,"Montgomery County, MD (South)"
-77.05102134,39.03843258,30371177,39.038424,-77.05102,Wheaton Metro / Georgia Ave & Reedie Dr,classic,462,active,2021/11/07 19:51:09+00,16,0,3,2,0,Yes,Yes,Yes,Yes,https://dc.lft.to/lastmile_qr_scan,https://dc.lft.to/lastmile_qr_scan,No,No,19,"KEY,CREDITCARD",44,2021/11/07 23:02:59+00,,"Montgomery County, MD (South)"
-77.04779151,39.04489276,30371178,39.044887,-77.047788,Amherst Ave & Elkins St,classic,463,active,2021/11/07 04:34:26+00,12,0,3,0,0,Yes,Yes,Yes,Yes,https://dc.lft.to/lastmile_qr_scan,https://dc.lft.to/lastmile_qr_scan,No,No,15,"KEY,CREDITCARD",44,2021/11/07 23:02:59+00,,"Montgomery County, MD (South)"
-77.11106976,38.88828642,30371179,38.888282,-77.111066,Washington-Liberty High School / N Stafford St & Generals Way,classic,475,active,2021/11/07 18:27:19+00,9,0,6,0,0,Yes,Yes,Yes,Yes,https://dc.lft.to/lastmile_qr_scan,https://dc.lft.to/lastmile_qr_scan,No,No,15,"KEY,CREDITCARD",41,2021/11/07 23:02:59+00,,"Arlington, VA"
-77.14232467,38.88605447,30371180,38.886048,-77.142317,Westover Library / Washington Blvd & N McKinley Rd,classic,476,active,2021/11/07 18:50:57+00,7,0,8,1,0,Yes,Yes,Yes,Yes,https://dc.lft.to/lastmile_qr_scan,https://dc.lft.to/lastmile_qr_scan,No,No,15,"KEY,CREDITCARD",41,2021/11/07 23:02:59+00,,"Arlington, VA"
-77.10202628,38.85931463,30371181,38.859306,-77.102019,Columbia Pike & George Mason Dr,classic,477,active,2021/11/07 12:15:06+00,1,0,14,1,0,Yes,Yes,Yes,Yes,https://dc.lft.to/lastmile_qr_scan,https://dc.lft.to/lastmile_qr_scan,No,No,15,"KEY,CREDITCARD",41,2021/11/07 23:02:59+00,,"Arlington, VA"
-77.16705606,39.12583755,30371182,39.125828,-77.167059,Columbus Ave & Tribeca St,classic,478,active,2021/11/07 04:39:27+00,7,0,4,4,0,Yes,Yes,Yes,Yes,https://dc.lft.to/lastmile_qr_scan,https://dc.lft.to/lastmile_qr_scan,No,No,11,"KEY,CREDITCARD",43,2021/11/07 23:02:59+00,,"Montgomery County, MD (North)"
-77.1648645,39.12333645,30371183,39.12333,-77.16486,Columbus Ave & Gramercy Blvd,classic,479,active,2021/11/07 04:39:27+00,8,0,2,0,1,Yes,Yes,Yes,Yes,https://dc.lft.to/lastmile_qr_scan,https://dc.lft.to/lastmile_qr_scan,No,No,11,"KEY,CREDITCARD",43,2021/11/07 23:02:59+00,,"Montgomery County, MD (North)"
-77.35428383,38.96422006,30371184,38.964208,-77.35428,Reston Pkwy & Spectrum Dr,classic,480,active,2021/11/07 08:43:15+00,13,0,2,1,0,Yes,Yes,Yes,Yes,https://dc.lft.to/lastmile_qr_scan,https://dc.lft.to/lastmile_qr_scan,No,No,15,"KEY,CREDITCARD",104,2021/11/07 23:02:59+00,,"Fairfax, VA"
-77.20386685,39.10564649,30371185,39.105642,-77.20386,Key West Ave & Great Seneca Hwy,classic,481,active,2021/11/07 04:39:29+00,5,0,6,0,0,Yes,Yes,Yes,Yes,https://dc.lft.to/lastmile_qr_scan,https://dc.lft.to/lastmile_qr_scan,No,No,11,"KEY,CREDITCARD",43,2021/11/07 23:02:59+00,,"Montgomery County, MD (North)"
-77.05416137,38.89950606,30371186,38.8995,-77.054155,Virginia Ave & 25th St NW,classic,482,active,2021/11/07 22:38:41+00,11,0,6,0,2,Yes,Yes,Yes,Yes,https://dc.lft.to/lastmile_qr_scan,https://dc.lft.to/lastmile_qr_scan,No,No,19,"KEY,CREDITCARD",42,2021/11/07 23:02:59+00,,"Washington, DC"
-77.03468174,38.90543196,30371187,38.905424,-77.034674,15th & M St NW,classic,483,active,2021/11/07 20:26:36+00,6,0,12,0,1,Yes,Yes,Yes,Yes,https://dc.lft.to/lastmile_qr_scan,https://dc.lft.to/lastmile_qr_scan,No,No,19,"KEY,CREDITCARD",42,2021/11/07 23:02:59+00,,"Washington, DC"
-77.02711482,38.92563966,30371188,38.925636,-77.027112,11th & Girard St NW,classic,484,active,2021/11/07 22:16:37+00,14,0,4,2,0,Yes,Yes,Yes,Yes,https://dc.lft.to/lastmile_qr_scan,https://dc.lft.to/lastmile_qr_scan,No,No,19,"KEY,CREDITCARD",42,2021/11/07 23:02:59+00,,"Washington, DC"
-77.04563898,38.91265289,30371189,38.912644,-77.04564,Connecticut Ave & R St NW,classic,485,active,2021/11/07 21:06:12+00,12,0,6,0,0,Yes,Yes,Yes,Yes,https://dc.lft.to/lastmile_qr_scan,https://dc.lft.to/lastmile_qr_scan,No,No,19,"KEY,CREDITCARD",42,2021/11/07 23:02:59+00,,"Washington, DC"
-77.08208601,38.89256234,30371190,38.892556,-77.082089,Wilson Blvd & N Troy St,classic,486,active,2021/11/07 12:50:46+00,2,0,12,0,1,Yes,Yes,Yes,Yes,https://dc.lft.to/lastmile_qr_scan,https://dc.lft.to/lastmile_qr_scan,No,No,15,"KEY,CREDITCARD",41,2021/11/07 23:02:59+00,,"Arlington, VA"
-77.08713063,38.93630319,30371191,38.936298,-77.087128,American University East Campus,classic,487,active,2021/11/07 18:36:14+00,18,0,1,0,0,Yes,Yes,Yes,Yes,https://dc.lft.to/lastmile_qr_scan,https://dc.lft.to/lastmile_qr_scan,No,No,19,"KEY,CREDITCARD",42,2021/11/07 23:02:59+00,,"Washington, DC"
-77.03323446,38.89225315,30371192,38.892244,-77.033234,15th St & Constitution Ave NW,classic,488,active,2021/11/07 22:05:46+00,16,0,3,1,0,Yes,Yes,Yes,Yes,https://dc.lft.to/lastmile_qr_scan,https://dc.lft.to/lastmile_qr_scan,No,No,19,"KEY,CREDITCARD",42,2021/11/07 23:02:59+00,,"Washington, DC"
-77.05026896,38.90530919,30371193,38.905303,-77.050264,23rd & M St NW,classic,490,active,2021/11/07 22:51:13+00,5,0,14,1,0,Yes,Yes,Yes,Yes,https://dc.lft.to/lastmile_qr_scan,https://dc.lft.to/lastmile_qr_scan,No,No,19,"KEY,CREDITCARD",42,2021/11/07 23:02:59+00,,"Washington, DC"
-77.1926442,39.10698064,30371194,39.106971,-77.192645,Corporate Blvd & Omega Dr,classic,491,active,2021/11/07 04:39:29+00,9,0,6,1,0,Yes,Yes,Yes,Yes,https://dc.lft.to/lastmile_qr_scan,https://dc.lft.to/lastmile_qr_scan,No,No,15,"KEY,CREDITCARD",43,2021/11/07 23:02:59+00,,"Montgomery County, MD (North)"
-77.20235376,39.10616256,30371195,39.106152,-77.202354,Key West Ave & Diamondback Dr,classic,492,active,2021/11/07 04:39:30+00,6,0,5,1,0,Yes,Yes,Yes,Yes,https://dc.lft.to/lastmile_qr_scan,https://dc.lft.to/lastmile_qr_scan,No,No,11,"KEY,CREDITCARD",43,2021/11/07 23:02:59+00,,"Montgomery County, MD (North)"
-76.98184752,38.84627755,30371196,38.84627,-76.98185,Alabama Ave & Stanton Rd SE / Shops at Park Village,classic,493,active,2021/11/07 04:39:29+00,18,0,1,0,0,Yes,Yes,Yes,Yes,https://dc.lft.to/lastmile_qr_scan,https://dc.lft.to/lastmile_qr_scan,No,No,19,"KEY,CREDITCARD",42,2021/11/07 23:02:59+00,,"Washington, DC"
-76.97557023,38.84378107,30371197,38.84377,-76.97557,Mississippi Ave & 19th St SE / THEARC,classic,494,active,2021/11/07 15:01:55+00,9,0,10,0,0,Yes,Yes,Yes,Yes,https://dc.lft.to/lastmile_qr_scan,https://dc.lft.to/lastmile_qr_scan,No,No,19,"KEY,CREDITCARD",42,2021/11/07 23:02:59+00,,"Washington, DC"
-76.97703237,38.84624067,30371198,38.84623,-76.97703,19th & Savannah St SE,classic,495,active,2021/11/07 04:39:29+00,4,0,7,0,0,Yes,Yes,Yes,Yes,https://dc.lft.to/lastmile_qr_scan,https://dc.lft.to/lastmile_qr_scan,No,No,11,"KEY,CREDITCARD",42,2021/11/07 23:02:59+00,,"Washington, DC"
-77.00090067,38.83600932,30371199,38.836,-77.0009,4th St & Mississippi Ave SE,classic,496,active,2021/11/07 18:59:19+00,11,0,8,2,0,Yes,Yes,Yes,Yes,https://dc.lft.to/lastmile_qr_scan,https://dc.lft.to/lastmile_qr_scan,No,No,19,"KEY,CREDITCARD",42,2021/11/07 23:02:59+00,,"Washington, DC"
-77.00549541,38.82448737,30371200,38.824481,-77.005497,1st & S Capitol St SE / Oxon Run Trail,classic,497,active,2021/11/07 18:03:39+00,7,0,12,0,0,Yes,Yes,Yes,Yes,https://dc.lft.to/lastmile_qr_scan,https://dc.lft.to/lastmile_qr_scan,No,No,19,"KEY,CREDITCARD",42,2021/11/07 23:02:59+00,,"Washington, DC"
-77.00223636,38.82373977,30373121,38.82373,-77.00223,Livingston Rd & 3rd St SE,classic,498,active,2021/11/07 04:39:30+00,15,0,0,0,0,Yes,Yes,Yes,Yes,https://dc.lft.to/lastmile_qr_scan,https://dc.lft.to/lastmile_qr_scan,No,No,15,"KEY,CREDITCARD",42,2021/11/07 23:02:59+00,,"Washington, DC"
-77.01033136,38.81909997,30373122,38.81909,-77.01033,Joliet St & MLK Ave SW/Bald Eagle Rec Ctr,classic,499,active,2021/11/07 04:39:30+00,16,0,3,0,0,Yes,Yes,Yes,Yes,https://dc.lft.to/lastmile_qr_scan,https://dc.lft.to/lastmile_qr_scan,No,No,19,"KEY,CREDITCARD",42,2021/11/07 23:02:59+00,,"Washington, DC"
-76.94971673,38.88302247,30373123,38.883011,-76.949709,37th & Ely Pl SE,classic,500,active,2021/11/07 18:32:08+00,7,0,8,0,0,Yes,Yes,Yes,Yes,https://dc.lft.to/lastmile_qr_scan,https://dc.lft.to/lastmile_qr_scan,No,No,15,"KEY,CREDITCARD",42,2021/11/07 23:02:59+00,,"Washington, DC"
-77.03338628,38.89646902,30373124,38.896465,-77.033381,15th St & Pennsylvania Ave NW,classic,501,active,2021/11/07 22:04:30+00,9,0,9,1,1,Yes,Yes,Yes,Yes,https://dc.lft.to/lastmile_qr_scan,https://dc.lft.to/lastmile_qr_scan,No,No,19,"KEY,CREDITCARD",42,2021/11/07 23:02:59+00,,"Washington, DC"
-77.02524211,38.88044516,30373125,38.88044,-77.025236,Maine Ave & 9th St SW,classic,505,active,2021/11/07 22:59:29+00,6,0,9,2,0,Yes,Yes,Yes,Yes,https://dc.lft.to/lastmile_qr_scan,https://dc.lft.to/lastmile_qr_scan,No,No,15,"KEY,CREDITCARD",42,2021/11/07 23:02:59+00,,"Washington, DC"
-77.00779698,38.91500371,30373126,38.915,-77.0078,Lincoln Rd & Seaton Pl NE/Harry Thomas Rec Center,classic,506,active,2021/11/07 22:41:13+00,16,0,3,1,0,Yes,Yes,Yes,Yes,https://dc.lft.to/lastmile_qr_scan,https://dc.lft.to/lastmile_qr_scan,No,No,19,"KEY,CREDITCARD",42,2021/11/07 23:02:59+00,,"Washington, DC"
-77.05006595,39.04313523,30373127,39.04313,-77.05006,Blueridge Ave & Elkin St,classic,507,active,2021/11/07 12:45:03+00,15,0,0,0,0,Yes,Yes,Yes,Yes,https://dc.lft.to/lastmile_qr_scan,https://dc.lft.to/lastmile_qr_scan,No,No,15,"KEY,CREDITCARD",44,2021/11/07 23:02:59+00,,"Montgomery County, MD (South)"
-77.02791119,38.9567451,30373128,38.95674,-77.02791,Georgia Ave & Kennedy St NW,classic,508,active,2021/11/07 22:21:57+00,16,0,2,2,1,Yes,Yes,Yes,Yes,https://dc.lft.to/lastmile_qr_scan,https://dc.lft.to/lastmile_qr_scan,No,No,19,"KEY,CREDITCARD",42,2021/11/07 23:02:59+00,,"Washington, DC"
-76.99602549,38.89223078,30373129,38.89222,-76.99602,7th St & Massachusetts Ave NE,classic,509,active,2021/11/07 22:35:45+00,2,0,16,1,1,Yes,Yes,Yes,Yes,https://dc.lft.to/lastmile_qr_scan,https://dc.lft.to/lastmile_qr_scan,No,No,19,"KEY,CREDITCARD",42,2021/11/07 23:02:59+00,,"Washington, DC"
-76.98340788,38.8733571,30373130,38.87335,-76.9834,Anacostia Park,classic,510,active,2021/11/07 22:35:33+00,17,0,2,0,0,Yes,Yes,Yes,Yes,https://dc.lft.to/lastmile_qr_scan,https://dc.lft.to/lastmile_qr_scan,No,No,19,"KEY,CREDITCARD",42,2021/11/07 23:02:59+00,,"Washington, DC"
-77.12078092,39.06204565,30373131,39.062041,-77.120776,Twinbrook Metro,classic,511,active,2021/11/07 22:18:59+00,14,0,0,0,0,Yes,Yes,Yes,Yes,https://dc.lft.to/lastmile_qr_scan,https://dc.lft.to/lastmile_qr_scan,No,No,14,"KEY,CREDITCARD",43,2021/11/07 23:02:59+00,,"Montgomery County, MD (North)"
-77.11287778,39.04754151,30373132,39.04753,-77.11287,White Flint Metro,classic,512,active,2021/11/07 04:29:24+00,25,0,0,0,0,Yes,Yes,Yes,Yes,https://dc.lft.to/lastmile_qr_scan,https://dc.lft.to/lastmile_qr_scan,No,No,25,"KEY,CREDITCARD",43,2021/11/07 23:02:59+00,,"Montgomery County, MD (North)"
-77.10933353,39.04900419,30373133,39.049,-77.10933,Citadel Ave & McGrath Blvd,classic,513,active,2021/11/07 04:39:27+00,14,0,1,1,0,Yes,Yes,Yes,Yes,https://dc.lft.to/lastmile_qr_scan,https://dc.lft.to/lastmile_qr_scan,No,No,15,"KEY,CREDITCARD",43,2021/11/07 23:02:59+00,,"Montgomery County, MD (North)"
-77.11367844,39.04977475,30373134,39.049765,-77.11368,Rockville Pike & Old Georgetown Rd,classic,514,active,2021/11/07 14:19:34+00,13,0,2,0,0,Yes,Yes,Yes,Yes,https://dc.lft.to/lastmile_qr_scan,https://dc.lft.to/lastmile_qr_scan,No,No,15,"KEY,CREDITCARD",43,2021/11/07 23:02:59+00,,"Montgomery County, MD (North)"
-77.11350619,39.04318098,30373135,39.04317,-77.1135,Woodglen Dr & Executive Blvd,classic,515,active,2021/11/07 11:42:54+00,16,0,0,0,0,Yes,Yes,Yes,Yes,https://dc.lft.to/lastmile_qr_scan,https://dc.lft.to/lastmile_qr_scan,No,No,16,"KEY,CREDITCARD",43,2021/11/07 23:02:59+00,,"Montgomery County, MD (North)"
-77.12570272,39.04873553,30373136,39.04873,-77.1257,Executive Blvd & E Jefferson St,classic,516,active,2021/11/07 04:39:31+00,13,0,2,0,0,Yes,Yes,Yes,Yes,https://dc.lft.to/lastmile_qr_scan,https://dc.lft.to/lastmile_qr_scan,No,No,15,"KEY,CREDITCARD",43,2021/11/07 23:02:59+00,,"Montgomery County, MD (North)"
-77.11345677,39.06290874,30373137,39.0629,-77.113454,Fishers Ln & Rock Creek Mill Rd,classic,517,active,2021/11/07 04:39:30+00,14,0,1,0,0,Yes,Yes,Yes,Yes,https://dc.lft.to/lastmile_qr_scan,https://dc.lft.to/lastmile_qr_scan,No,No,15,"KEY,CREDITCARD",43,2021/11/07 23:02:59+00,,"Montgomery County, MD (North)"
-77.12923906,39.06219877,30373138,39.06219,-77.129235,Congressional Ln & E Jefferson St,classic,518,active,2021/11/07 04:39:30+00,12,0,3,0,0,Yes,Yes,Yes,Yes,https://dc.lft.to/lastmile_qr_scan,https://dc.lft.to/lastmile_qr_scan,No,No,15,"KEY,CREDITCARD",43,2021/11/07 23:02:59+00,,"Montgomery County, MD (North)"
-77.00077577,39.00048336,30373139,39.00048,-77.00077,Garland Ave & Walden Rd,classic,519,active,2021/11/07 22:12:34+00,9,0,6,1,0,Yes,Yes,Yes,Yes,https://dc.lft.to/lastmile_qr_scan,https://dc.lft.to/lastmile_qr_scan,No,No,15,"KEY,CREDITCARD",44,2021/11/07 23:02:59+00,,"Montgomery County, MD (South)"
-77.23033923,38.92246107,30373140,38.92245,-77.23034,Greensboro & Pinnacle Dr,classic,520,active,2021/11/07 04:39:30+00,12,0,1,0,0,Yes,Yes,Yes,Yes,https://dc.lft.to/lastmile_qr_scan,https://dc.lft.to/lastmile_qr_scan,No,No,13,"KEY,CREDITCARD",104,2021/11/07 23:02:59+00,,"Fairfax, VA"
-76.84326948,38.90839483,30373141,38.908391,-76.843263,1301 McCormick Dr / Wayne K. Curry Admin Bldg,classic,521,active,2021/11/07 04:39:32+00,12,0,3,0,0,Yes,Yes,Yes,Yes,https://dc.lft.to/lastmile_qr_scan,https://dc.lft.to/lastmile_qr_scan,No,No,15,"KEY,CREDITCARD",133,2021/11/07 23:02:59+00,,Prince George's County
-76.84460253,38.89982065,30373142,38.899811,-76.844604,Largo Town Center Metro,classic,522,active,2021/11/07 12:34:07+00,6,0,11,0,0,Yes,Yes,Yes,Yes,https://dc.lft.to/lastmile_qr_scan,https://dc.lft.to/lastmile_qr_scan,No,No,17,"KEY,CREDITCARD",133,2021/11/07 23:02:59+00,,Prince George's County
-76.9373546,38.96958643,30373143,38.969581,-76.937349,Baltimore Ave & Van Buren St / Riverdale Park Station,classic,523,active,2021/11/07 14:48:40+00,13,0,4,1,0,Yes,Yes,Yes,Yes,https://dc.lft.to/lastmile_qr_scan,https://dc.lft.to/lastmile_qr_scan,No,No,17,"KEY,CREDITCARD",133,2021/11/07 23:02:59+00,,Prince George's County
-76.94013591,38.95548997,30373144,38.95548,-76.940133,Baltimore Ave & Jefferson St,classic,524,active,2021/11/07 14:14:52+00,13,0,2,1,0,Yes,Yes,Yes,Yes,https://dc.lft.to/lastmile_qr_scan,https://dc.lft.to/lastmile_qr_scan,No,No,15,"KEY,CREDITCARD",133,2021/11/07 23:02:59+00,,Prince George's County
-76.96005986,38.93622075,30373145,38.936213,-76.960054,Perry & 35th St,classic,525,active,2021/11/07 09:12:55+00,10,0,5,0,0,Yes,Yes,Yes,Yes,https://dc.lft.to/lastmile_qr_scan,https://dc.lft.to/lastmile_qr_scan,No,No,15,"KEY,CREDITCARD",133,2021/11/07 23:02:59+00,,Prince George's County
-77.01082266,38.86969136,30373146,38.869683,-77.010815,Potomac Ave & Half St SW,classic,527,active,2021/11/07 21:36:43+00,20,0,2,0,1,Yes,Yes,Yes,Yes,https://dc.lft.to/lastmile_qr_scan,https://dc.lft.to/lastmile_qr_scan,No,No,23,"KEY,CREDITCARD",42,2021/11/07 23:02:59+00,,"Washington, DC"
-76.825536,38.88994756,30373147,38.88994,-76.825535,Largo Rd & Campus Way / Prince Georges's Comm Col,classic,530,active,2021/11/07 12:22:56+00,12,0,3,0,0,Yes,Yes,Yes,Yes,https://dc.lft.to/lastmile_qr_scan,https://dc.lft.to/lastmile_qr_scan,No,No,15,"KEY,CREDITCARD",133,2021/11/07 23:02:59+00,,Prince George's County
-76.98451815,38.85501612,30373148,38.855004,-76.984512,Stanton Square SE,classic,531,active,2021/11/07 04:39:32+00,16,0,3,3,0,Yes,Yes,Yes,Yes,https://dc.lft.to/lastmile_qr_scan,https://dc.lft.to/lastmile_qr_scan,No,No,19,"KEY,CREDITCARD",42,2021/11/07 23:02:59+00,,"Washington, DC"
-77.03295312,38.93199803,30373149,38.931991,-77.032956,14th & Newton St NW,classic,532,active,2021/11/07 22:44:36+00,14,0,5,3,0,Yes,Yes,Yes,Yes,https://dc.lft.to/lastmile_qr_scan,https://dc.lft.to/lastmile_qr_scan,No,No,19,"KEY,CREDITCARD",42,2021/11/07 23:02:59+00,,"Washington, DC"
-77.09578991,38.91704563,30373150,38.917036,-77.095782,48th Pl & MacArthur Blvd NW,classic,533,active,2021/11/07 16:45:05+00,14,0,5,1,0,Yes,Yes,Yes,Yes,https://dc.lft.to/lastmile_qr_scan,https://dc.lft.to/lastmile_qr_scan,No,No,19,"KEY,CREDITCARD",42,2021/11/07 23:02:59+00,,"Washington, DC"
-77.03351282,38.96949932,30373151,38.969489,-77.033509,14th & Luzon St NW,classic,534,active,2021/11/07 22:14:57+00,9,0,10,2,0,Yes,Yes,Yes,Yes,https://dc.lft.to/lastmile_qr_scan,https://dc.lft.to/lastmile_qr_scan,No,No,19,"KEY,CREDITCARD",42,2021/11/07 23:02:59+00,,"Washington, DC"
-77.00607567,38.87689842,30373152,38.876893,-77.006072,1st & M St SE,classic,535,active,2021/11/07 22:11:02+00,0,0,19,0,0,Yes,Yes,Yes,Yes,https://dc.lft.to/lastmile_qr_scan,https://dc.lft.to/lastmile_qr_scan,No,No,19,"KEY,CREDITCARD",42,2021/11/07 23:02:59+00,,"Washington, DC"
-77.0160577,38.7826419,30373153,38.782633,-77.016059,Fleet St & Waterfront St,classic,536,active,2021/11/07 14:54:26+00,13,0,2,0,0,Yes,Yes,Yes,Yes,https://dc.lft.to/lastmile_qr_scan,https://dc.lft.to/lastmile_qr_scan,No,No,15,"KEY,CREDITCARD",133,2021/11/07 23:02:59+00,,Prince George's County
-77.00102683,38.79875924,30373154,38.798749,-77.00103,Oxon Hill Park & Ride,classic,537,active,2021/11/07 04:44:30+00,13,0,2,0,0,Yes,Yes,Yes,Yes,https://dc.lft.to/lastmile_qr_scan,https://dc.lft.to/lastmile_qr_scan,No,No,15,"KEY,CREDITCARD",133,2021/11/07 23:02:59+00,,Prince George's County
-77.02824724,38.93133265,30373155,38.931322,-77.028247,11th & Park Rd NW,classic,538,active,2021/11/07 22:53:36+00,15,0,1,1,1,Yes,Yes,Yes,Yes,https://dc.lft.to/lastmile_qr_scan,https://dc.lft.to/lastmile_qr_scan,No,No,19,"KEY,CREDITCARD",42,2021/11/07 23:02:59+00,,"Washington, DC"
-77.00073985,38.87675444,30373156,38.876751,-77.000736,4th & M St SE,classic,539,active,2021/11/07 22:49:52+00,14,0,4,0,1,Yes,Yes,Yes,Yes,https://dc.lft.to/lastmile_qr_scan,https://dc.lft.to/lastmile_qr_scan,No,No,19,"KEY,CREDITCARD",42,2021/11/07 23:02:59+00,,"Washington, DC"
-77.02155145,38.94797239,30373157,38.947962,-77.02155,Kansas Ave & Sherman Cr NW,classic,540,active,2021/11/07 22:09:57+00,14,0,5,4,0,Yes,Yes,Yes,Yes,https://dc.lft.to/lastmile_qr_scan,https://dc.lft.to/lastmile_qr_scan,No,No,19,"KEY,CREDITCARD",42,2021/11/07 23:02:59+00,,"Washington, DC"
-77.33543018,38.94471858,30373158,38.944707,-77.335425,Campus Commons,classic,541,active,2021/11/07 04:44:31+00,6,0,5,0,0,Yes,Yes,Yes,Yes,https://dc.lft.to/lastmile_qr_scan,https://dc.lft.to/lastmile_qr_scan,No,No,11,"KEY,CREDITCARD",104,2021/11/07 23:02:59+00,,"Fairfax, VA"
-77.22664217,38.92755801,30373159,38.92755,-77.226644,Park Run & Onyx Dr,classic,542,active,2021/11/07 13:32:35+00,5,0,6,2,0,Yes,Yes,Yes,Yes,https://dc.lft.to/lastmile_qr_scan,https://dc.lft.to/lastmile_qr_scan,No,No,11,"KEY,CREDITCARD",104,2021/11/07 23:02:59+00,,"Fairfax, VA"
-77.02139942,38.90267859,30373160,38.902674,-77.021392,7th & K St NW,classic,543,active,2021/11/07 22:24:16+00,5,0,13,0,1,Yes,Yes,Yes,Yes,https://dc.lft.to/lastmile_qr_scan,https://dc.lft.to/lastmile_qr_scan,No,No,19,"KEY,CREDITCARD",42,2021/11/07 23:02:59+00,,"Washington, DC"
-77.01244858,38.87622229,30373161,38.876211,-77.012443,King Greenleaf Rec Center,classic,544,active,2021/11/07 21:16:40+00,12,0,7,0,0,Yes,Yes,Yes,Yes,https://dc.lft.to/lastmile_qr_scan,https://dc.lft.to/lastmile_qr_scan,No,No,19,"KEY,CREDITCARD",42,2021/11/07 23:02:59+00,,"Washington, DC"
-76.98681265,38.90745424,30373162,38.907444,-76.986813,Montello Ave & Holbrook Terr NE,classic,545,active,2021/11/07 18:47:41+00,15,0,4,1,0,Yes,Yes,Yes,Yes,https://dc.lft.to/lastmile_qr_scan,https://dc.lft.to/lastmile_qr_scan,No,No,19,"KEY,CREDITCARD",42,2021/11/07 23:02:59+00,,"Washington, DC"
-77.01162223,38.89711281,30373163,38.897108,-77.011616,New Jersey Ave & F St NW,classic,546,active,2021/11/07 22:56:50+00,24,0,9,0,0,Yes,Yes,Yes,Yes,https://dc.lft.to/lastmile_qr_scan,https://dc.lft.to/lastmile_qr_scan,No,No,33,"KEY,CREDITCARD",42,2021/11/07 23:02:59+00,,"Washington, DC"
-76.97862843,38.90193992,30373164,38.901935,-76.978627,Maryland Ave & 17th St NE,classic,547,active,2021/11/07 22:32:26+00,15,0,3,1,1,Yes,Yes,Yes,Yes,https://dc.lft.to/lastmile_qr_scan,https://dc.lft.to/lastmile_qr_scan,No,No,19,"KEY,CREDITCARD",42,2021/11/07 23:02:59+00,,"Washington, DC"
-76.99827322,38.8929425,30373165,38.892934,-76.998273,Massachusetts Ave & 6th St NE,classic,548,active,2021/11/07 22:27:25+00,10,0,9,1,0,Yes,Yes,Yes,Yes,https://dc.lft.to/lastmile_qr_scan,https://dc.lft.to/lastmile_qr_scan,No,No,19,"KEY,CREDITCARD",42,2021/11/07 23:02:59+00,,"Washington, DC"
-77.05183853,38.92339724,30373166,38.923389,-77.051833,Woodley Park Metro / Calvert St & Connecticut Ave NW,classic,549,active,2021/11/07 22:27:50+00,20,0,3,1,0,Yes,Yes,Yes,Yes,https://dc.lft.to/lastmile_qr_scan,https://dc.lft.to/lastmile_qr_scan,No,No,23,"KEY,CREDITCARD",42,2021/11/07 23:02:59+00,,"Washington, DC"
-77.20813338,38.92400712,30373167,38.924002,-77.208127,McLean Metro,classic,550,active,2021/11/07 22:13:49+00,16,0,2,0,1,Yes,Yes,Yes,Yes,https://dc.lft.to/lastmile_qr_scan,https://dc.lft.to/lastmile_qr_scan,No,No,19,"KEY,CREDITCARD",104,2021/11/07 23:02:59+00,,"Fairfax, VA"
-76.98322728,38.90630972,30373168,38.906299,-76.983221,Trinidad Rec Center,classic,551,active,2021/11/07 20:51:31+00,16,0,3,2,0,Yes,Yes,Yes,Yes,https://dc.lft.to/lastmile_qr_scan,https://dc.lft.to/lastmile_qr_scan,No,No,19,"KEY,CREDITCARD",42,2021/11/07 23:02:59+00,,"Washington, DC"
-76.97963259,38.89781427,30373169,38.897808,-76.979634,Rosedale Rec Center,classic,552,active,2021/11/07 20:05:10+00,13,0,6,1,0,Yes,Yes,Yes,Yes,https://dc.lft.to/lastmile_qr_scan,https://dc.lft.to/lastmile_qr_scan,No,No,19,"KEY,CREDITCARD",42,2021/11/07 23:02:59+00,,"Washington, DC"
-76.9914731,38.88591567,30373170,38.885908,-76.991476,11th & C St SE,classic,553,active,2021/11/07 22:56:59+00,3,0,16,1,0,Yes,Yes,Yes,Yes,https://dc.lft.to/lastmile_qr_scan,https://dc.lft.to/lastmile_qr_scan,No,No,19,"KEY,CREDITCARD",42,2021/11/07 23:02:59+00,,"Washington, DC"
-77.01280785,38.95160401,30373171,38.951596,-77.012808,New Hampshire & Gallatin St NW,classic,554,active,2021/11/07 22:23:34+00,14,0,4,2,0,Yes,Yes,Yes,Yes,https://dc.lft.to/lastmile_qr_scan,https://dc.lft.to/lastmile_qr_scan,No,No,19,"KEY,CREDITCARD",42,2021/11/07 23:02:59+00,,"Washington, DC"
-76.98315171,38.83574687,30373172,38.835737,-76.983144,United Medical Center,classic,555,active,2021/11/07 04:44:31+00,16,0,3,0,0,Yes,Yes,Yes,Yes,https://dc.lft.to/lastmile_qr_scan,https://dc.lft.to/lastmile_qr_scan,No,No,19,"KEY,CREDITCARD",42,2021/11/07 23:02:59+00,,"Washington, DC"
-77.04183319,38.91127604,30373173,38.911268,-77.041829,18th & New Hampshire Ave NW,classic,556,active,2021/11/07 22:26:50+00,15,0,2,0,1,Yes,Yes,Yes,Yes,https://dc.lft.to/lastmile_qr_scan,https://dc.lft.to/lastmile_qr_scan,No,No,19,"KEY,CREDITCARD",42,2021/11/07 23:02:59+00,,"Washington, DC"
-77.228298,38.88281017,30373174,38.8828,-77.2283,Dunn Loring Metro,classic,560,active,2021/11/07 04:44:33+00,17,0,2,0,0,Yes,Yes,Yes,Yes,https://dc.lft.to/lastmile_qr_scan,https://dc.lft.to/lastmile_qr_scan,No,No,19,"KEY,CREDITCARD",104,2021/11/07 23:02:59+00,,"Fairfax, VA"
-76.94636306,38.95936655,30373175,38.959361,-76.946361,Oglethorpe St & 42nd Ave,classic,561,active,2021/11/07 19:53:11+00,8,0,7,0,0,Yes,Yes,Yes,Yes,https://dc.lft.to/lastmile_qr_scan,https://dc.lft.to/lastmile_qr_scan,No,No,15,"KEY,CREDITCARD",133,2021/11/07 23:02:59+00,,Prince George's County
-76.97530656,38.84011457,30373176,38.840107,-76.9753,Southern Ave Metro,classic,562,active,2021/11/07 04:44:32+00,9,0,6,0,0,Yes,Yes,Yes,Yes,https://dc.lft.to/lastmile_qr_scan,https://dc.lft.to/lastmile_qr_scan,No,No,15,"KEY,CREDITCARD",133,2021/11/07 23:02:59+00,,Prince George's County
-76.95950732,38.95460647,30373177,38.9546,-76.9595,Queens Chapel & Hamilton St,classic,563,active,2021/11/07 15:13:02+00,9,0,6,2,0,Yes,Yes,Yes,Yes,https://dc.lft.to/lastmile_qr_scan,https://dc.lft.to/lastmile_qr_scan,No,No,15,"KEY,CREDITCARD",133,2021/11/07 23:02:59+00,,Prince George's County
-76.9522019,38.97551186,30373178,38.975505,-76.952199,Northwestern High School,classic,564,active,2021/11/07 13:56:53+00,13,0,2,0,0,Yes,Yes,Yes,Yes,https://dc.lft.to/lastmile_qr_scan,https://dc.lft.to/lastmile_qr_scan,No,No,15,"KEY,CREDITCARD",133,2021/11/07 23:02:59+00,,Prince George's County
-76.99522464,38.97421533,30373179,38.974205,-76.995227,New Hampshire Ave & East-West Hwy,classic,565,active,2021/11/07 16:20:00+00,12,0,3,1,0,Yes,Yes,Yes,Yes,https://dc.lft.to/lastmile_qr_scan,https://dc.lft.to/lastmile_qr_scan,No,No,15,"KEY,CREDITCARD",133,2021/11/07 23:02:59+00,,Prince George's County
-76.95505215,38.93928175,30373180,38.939271,-76.955047,Rhode Island Ave & 39th St / Brentwood Arts Exchange,classic,566,active,2021/11/07 19:43:19+00,5,0,10,1,0,Yes,Yes,Yes,Yes,https://dc.lft.to/lastmile_qr_scan,https://dc.lft.to/lastmile_qr_scan,No,No,15,"KEY,CREDITCARD",133,2021/11/07 23:02:59+00,,Prince George's County
-76.98070753,38.97251128,30373181,38.9725,-76.9807,Riggs Rd & East West Hwy,classic,567,active,2021/11/07 04:44:31+00,16,0,1,0,0,Yes,Yes,Yes,Yes,https://dc.lft.to/lastmile_qr_scan,https://dc.lft.to/lastmile_qr_scan,No,No,17,"KEY,CREDITCARD",133,2021/11/07 23:02:59+00,,Prince George's County
-77.00260389,38.79680437,30373182,38.7968,-77.0026,Tanger Outlets,classic,568,active,2021/11/07 14:24:25+00,14,0,1,0,0,Yes,Yes,Yes,Yes,https://dc.lft.to/lastmile_qr_scan,https://dc.lft.to/lastmile_qr_scan,No,No,15,"KEY,CREDITCARD",133,2021/11/07 23:02:59+00,,Prince George's County
-76.99592931,38.96174795,30373183,38.961737,-76.995922,Chillum Rd & Riggs Rd / Riggs Plaza,classic,569,active,2021/11/07 22:50:25+00,9,0,6,0,0,Yes,Yes,Yes,Yes,https://dc.lft.to/lastmile_qr_scan,https://dc.lft.to/lastmile_qr_scan,No,No,15,"KEY,CREDITCARD",133,2021/11/07 23:02:59+00,,Prince George's County
-76.94929778,38.96980842,30373184,38.9698,-76.9493,Hyattsville Library / Adelphi Rd & Toledo Rd,classic,570,active,2021/11/07 17:20:12+00,11,0,4,0,0,Yes,Yes,Yes,Yes,https://dc.lft.to/lastmile_qr_scan,https://dc.lft.to/lastmile_qr_scan,No,No,15,"KEY,CREDITCARD",133,2021/11/07 23:02:59+00,,Prince George's County
-77.19027396,38.89518377,30373185,38.895172,-77.190275,Meridian High School / Haycock Rd & Leesburg Pike,classic,571,active,2021/11/07 12:40:36+00,6,0,6,1,0,Yes,Yes,Yes,Yes,https://dc.lft.to/lastmile_qr_scan,https://dc.lft.to/lastmile_qr_scan,No,No,12,"KEY,CREDITCARD",152,2021/11/07 23:02:59+00,,"Falls Church, VA"
-77.17003674,38.88275638,30373186,38.882746,-77.170032,State Theatre / Park Pl & N Washington St,classic,572,active,2021/11/07 04:44:32+00,11,0,1,0,0,Yes,Yes,Yes,Yes,https://dc.lft.to/lastmile_qr_scan,https://dc.lft.to/lastmile_qr_scan,No,No,12,"KEY,CREDITCARD",152,2021/11/07 23:02:59+00,,"Falls Church, VA"
-77.17983601,38.88838096,30373187,38.88837,-77.179832,N Oak St & W Broad St,classic,573,active,2021/11/07 15:47:57+00,7,0,5,0,0,Yes,Yes,Yes,Yes,https://dc.lft.to/lastmile_qr_scan,https://dc.lft.to/lastmile_qr_scan,No,No,12,"KEY,CREDITCARD",152,2021/11/07 23:02:59+00,,"Falls Church, VA"
-77.17699813,38.88741239,30373188,38.887403,-77.176992,Pennsylvania Ave & Park Ave,classic,574,active,2021/11/07 04:44:34+00,4,0,7,0,1,Yes,Yes,Yes,Yes,https://dc.lft.to/lastmile_qr_scan,https://dc.lft.to/lastmile_qr_scan,No,No,12,"KEY,CREDITCARD",152,2021/11/07 23:02:59+00,,"Falls Church, VA"
-77.17189871,38.88061866,30373189,38.880612,-77.171891,E Fairfax St & S Washington St,classic,575,active,2021/11/07 14:40:40+00,10,0,2,1,0,Yes,Yes,Yes,Yes,https://dc.lft.to/lastmile_qr_scan,https://dc.lft.to/lastmile_qr_scan,No,No,12,"KEY,CREDITCARD",152,2021/11/07 23:02:59+00,,"Falls Church, VA"
-77.15396024,38.8780943,30373190,38.878085,-77.153953,N Roosevelt St & Roosevelt Blvd,classic,576,active,2021/11/07 16:04:51+00,10,0,2,0,0,Yes,Yes,Yes,Yes,https://dc.lft.to/lastmile_qr_scan,https://dc.lft.to/lastmile_qr_scan,No,No,12,"KEY,CREDITCARD",152,2021/11/07 23:02:59+00,,"Falls Church, VA"
-77.17343881,38.88360717,30373191,38.883601,-77.173438,W Broad St & Little Falls St,classic,577,active,2021/11/07 15:29:20+00,10,0,2,0,0,Yes,Yes,Yes,Yes,https://dc.lft.to/lastmile_qr_scan,https://dc.lft.to/lastmile_qr_scan,No,No,12,"KEY,CREDITCARD",152,2021/11/07 23:02:59+00,,"Falls Church, VA"
-77.17840815,38.87972607,30373192,38.87972,-77.178408,S Maple Ave & S Washington St,classic,578,active,2021/11/07 16:43:01+00,2,0,10,1,0,Yes,Yes,Yes,Yes,https://dc.lft.to/lastmile_qr_scan,https://dc.lft.to/lastmile_qr_scan,No,No,12,"KEY,CREDITCARD",152,2021/11/07 23:02:59+00,,"Falls Church, VA"
-77.17360464,38.88544464,30373193,38.885434,-77.173605,Falls Church City Hall / Park Ave & Little Falls St,classic,579,active,2021/11/07 16:16:59+00,7,0,5,0,0,Yes,Yes,Yes,Yes,https://dc.lft.to/lastmile_qr_scan,https://dc.lft.to/lastmile_qr_scan,No,No,12,"KEY,CREDITCARD",152,2021/11/07 23:02:59+00,,"Falls Church, VA"
-77.16692006,38.88562554,30373194,38.885621,-77.166917,W Columbia St & N Washington St,classic,580,active,2021/11/07 04:44:33+00,10,0,2,1,0,Yes,Yes,Yes,Yes,https://dc.lft.to/lastmile_qr_scan,https://dc.lft.to/lastmile_qr_scan,No,No,12,"KEY,CREDITCARD",152,2021/11/07 23:02:59+00,,"Falls Church, VA"
-77.18870772,38.90010489,30373195,38.9001,-77.1887,West Falls Church Metro,classic,581,active,2021/11/07 15:42:23+00,16,0,3,1,0,Yes,Yes,Yes,Yes,https://dc.lft.to/lastmile_qr_scan,https://dc.lft.to/lastmile_qr_scan,No,No,19,"KEY,CREDITCARD",104,2021/11/07 23:02:59+00,,"Fairfax, VA"
-77.21563132,38.92850671,30373196,38.928502,-77.215624,Jones Branch Drive & Scotts Crossing Rd,classic,582,active,2021/11/07 04:44:33+00,6,0,5,0,0,Yes,Yes,Yes,Yes,https://dc.lft.to/lastmile_qr_scan,https://dc.lft.to/lastmile_qr_scan,No,No,11,"KEY,CREDITCARD",104,2021/11/07 23:02:59+00,,"Fairfax, VA"
-77.02350734,38.93213543,30373197,38.932128,-77.0235,Georgia Ave & Morton St NW,classic,583,active,2021/11/07 22:28:42+00,19,0,0,0,0,Yes,Yes,Yes,Yes,https://dc.lft.to/lastmile_qr_scan,https://dc.lft.to/lastmile_qr_scan,No,No,19,"KEY,CREDITCARD",42,2021/11/07 23:02:59+00,,"Washington, DC"
-77.23068415,38.87936426,30373198,38.879355,-77.230681,Merrilee Dr & Lauren Elizabeth Lane,classic,584,active,2021/11/07 04:44:34+00,5,0,6,0,0,Yes,Yes,Yes,Yes,https://dc.lft.to/lastmile_qr_scan,https://dc.lft.to/lastmile_qr_scan,No,No,11,"KEY,CREDITCARD",104,2021/11/07 23:02:59+00,,"Fairfax, VA"
-77.22997434,38.870105,30373199,38.870093,-77.22997,Merrifield Cinema & Merrifield Town Center,classic,585,active,2021/11/07 04:44:33+00,1,0,10,1,0,Yes,Yes,Yes,Yes,https://dc.lft.to/lastmile_qr_scan,https://dc.lft.to/lastmile_qr_scan,No,No,11,"KEY,CREDITCARD",104,2021/11/07 23:02:59+00,,"Fairfax, VA"
-76.9858985,38.92430872,30373200,38.9243,-76.9859,Rhode Island & Montana Ave NE,classic,586,active,2021/11/07 16:24:57+00,10,0,9,0,0,Yes,Yes,Yes,Yes,https://dc.lft.to/lastmile_qr_scan,https://dc.lft.to/lastmile_qr_scan,No,No,19,"KEY,CREDITCARD",42,2021/11/07 23:02:59+00,,"Washington, DC"
-77.02217542,38.91420913,30373201,38.914204,-77.022175,7th & S St NW,classic,587,active,2021/11/07 22:44:45+00,15,0,3,1,1,Yes,Yes,Yes,Yes,https://dc.lft.to/lastmile_qr_scan,https://dc.lft.to/lastmile_qr_scan,No,No,19,"KEY,CREDITCARD",42,2021/11/07 23:02:59+00,,"Washington, DC"
-77.00879984,38.91253536,30373202,38.912524,-77.008798,North Capitol & R St NE,classic,588,active,2021/11/07 23:00:06+00,9,0,6,1,0,Yes,Yes,Yes,Yes,https://dc.lft.to/lastmile_qr_scan,https://dc.lft.to/lastmile_qr_scan,No,No,15,"KEY,CREDITCARD",42,2021/11/07 23:02:59+00,,"Washington, DC"
-77.03869072,38.94215763,30373203,38.942146,-77.038684,17th & Upshur St NW,classic,589,active,2021/11/07 20:18:43+00,13,0,6,1,0,Yes,Yes,Yes,Yes,https://dc.lft.to/lastmile_qr_scan,https://dc.lft.to/lastmile_qr_scan,No,No,19,"KEY,CREDITCARD",42,2021/11/07 23:02:59+00,,"Washington, DC"
-77.01822757,38.9420365,30373204,38.942025,-77.018221,Grant Circle,classic,590,active,2021/11/07 21:35:04+00,15,0,4,1,0,Yes,Yes,Yes,Yes,https://dc.lft.to/lastmile_qr_scan,https://dc.lft.to/lastmile_qr_scan,No,No,19,"KEY,CREDITCARD",42,2021/11/07 23:02:59+00,,"Washington, DC"
-77.03268896,38.93441233,30373205,38.934405,-77.032687,14th & Otis Pl NW,classic,591,active,2021/11/07 22:57:04+00,9,0,17,6,0,Yes,Yes,Yes,Yes,https://dc.lft.to/lastmile_qr_scan,https://dc.lft.to/lastmile_qr_scan,No,No,27,"KEY,CREDITCARD",42,2021/11/07 23:02:59+00,,"Washington, DC"
-76.99723401,38.93889399,30373206,38.938889,-76.997226,John McCormack Rd NE,classic,592,active,2021/11/07 19:08:43+00,19,0,0,0,0,Yes,Yes,Yes,Yes,https://dc.lft.to/lastmile_qr_scan,https://dc.lft.to/lastmile_qr_scan,No,No,19,"KEY,CREDITCARD",42,2021/11/07 23:02:59+00,,"Washington, DC"
-76.96809053,38.95535681,30373207,38.955349,-76.968084,West Hyattsville Metro,classic,593,active,2021/11/07 12:04:19+00,14,0,3,0,0,Yes,Yes,Yes,Yes,https://dc.lft.to/lastmile_qr_scan,https://dc.lft.to/lastmile_qr_scan,No,No,17,"KEY,CREDITCARD",133,2021/11/07 23:02:59+00,,Prince George's County
-76.91318586,38.88853218,30373208,38.888524,-76.913188,Capitol Heights Metro,classic,594,active,2021/11/07 22:18:32+00,16,0,3,3,0,Yes,Yes,Yes,Yes,https://dc.lft.to/lastmile_qr_scan,https://dc.lft.to/lastmile_qr_scan,No,No,19,"KEY,CREDITCARD",133,2021/11/07 23:02:59+00,,Prince George's County
-76.95480469,38.96574796,30373209,38.965742,-76.954803,Prince George's Plaza Metro,classic,595,active,2021/11/07 19:44:09+00,16,0,1,0,0,Yes,Yes,Yes,Yes,https://dc.lft.to/lastmile_qr_scan,https://dc.lft.to/lastmile_qr_scan,No,No,17,"KEY,CREDITCARD",133,2021/11/07 23:02:59+00,,Prince George's County
-76.93558427,38.96212664,30373210,38.962119,-76.935578,Riverdale Park Town Center,classic,596,active,2021/11/07 19:30:25+00,9,0,8,2,0,Yes,Yes,Yes,Yes,https://dc.lft.to/lastmile_qr_scan,https://dc.lft.to/lastmile_qr_scan,No,No,17,"KEY,CREDITCARD",133,2021/11/07 23:02:59+00,,Prince George's County
-76.95416806,38.96884655,30373211,38.968842,-76.954171,The Mall at Prince Georges,classic,597,active,2021/11/07 13:52:24+00,13,0,4,0,0,Yes,Yes,Yes,Yes,https://dc.lft.to/lastmile_qr_scan,https://dc.lft.to/lastmile_qr_scan,No,No,17,"KEY,CREDITCARD",133,2021/11/07 23:02:59+00,,Prince George's County
-77.05109703,39.04733255,30373212,39.047323,-77.051097,Wheaton Library & Community Rec Center,classic,598,active,2021/11/07 17:09:21+00,8,0,3,1,0,Yes,Yes,Yes,Yes,https://dc.lft.to/lastmile_qr_scan,https://dc.lft.to/lastmile_qr_scan,No,No,11,"KEY,CREDITCARD",44,2021/11/07 23:02:59+00,,"Montgomery County, MD (South)"
-77.00210113,38.92414741,30373213,38.924144,-77.002098,Edgewood Rec Center,classic,599,active,2021/11/07 22:58:33+00,9,0,6,0,0,Yes,Yes,Yes,Yes,https://dc.lft.to/lastmile_qr_scan,https://dc.lft.to/lastmile_qr_scan,No,No,15,"KEY,CREDITCARD",42,2021/11/07 23:02:59+00,,"Washington, DC"
-76.99514873,38.90274351,30373214,38.902732,-76.99515,8th & K St NE,classic,601,active,2021/11/07 21:34:22+00,7,0,7,1,1,Yes,Yes,Yes,Yes,https://dc.lft.to/lastmile_qr_scan,https://dc.lft.to/lastmile_qr_scan,No,No,15,"KEY,CREDITCARD",42,2021/11/07 23:02:59+00,,"Washington, DC"
-76.96785196,38.8959649,30373215,38.895955,-76.967845,Kingman Island/The Fields at RFK,classic,602,active,2021/11/07 17:27:58+00,7,0,12,0,0,Yes,Yes,Yes,Yes,https://dc.lft.to/lastmile_qr_scan,https://dc.lft.to/lastmile_qr_scan,No,No,19,"KEY,CREDITCARD",42,2021/11/07 23:02:59+00,,"Washington, DC"
-76.94729502,38.90047964,30373216,38.900468,-76.947287,Kenilworth Terrace & Hayes St. NE,classic,603,active,2021/11/07 12:05:53+00,16,0,3,0,0,Yes,Yes,Yes,Yes,https://dc.lft.to/lastmile_qr_scan,https://dc.lft.to/lastmile_qr_scan,No,No,19,"KEY,CREDITCARD",42,2021/11/07 23:02:59+00,,"Washington, DC"
-77.01670298,38.7859119,30373217,38.7859,-77.0167,National Harbor Carousel,classic,604,active,2021/11/07 18:40:07+00,4,0,11,2,0,Yes,Yes,Yes,Yes,https://dc.lft.to/lastmile_qr_scan,https://dc.lft.to/lastmile_qr_scan,No,No,15,"KEY,CREDITCARD",133,2021/11/07 23:02:59+00,,Prince George's County
-76.99358677,38.83665776,30373218,38.836646,-76.993589,Valley Ave & Wheeler Rd SE,classic,605,active,2021/11/07 04:49:33+00,10,0,9,1,0,Yes,Yes,Yes,Yes,https://dc.lft.to/lastmile_qr_scan,https://dc.lft.to/lastmile_qr_scan,No,No,19,"KEY,CREDITCARD",42,2021/11/07 23:02:59+00,,"Washington, DC"
-76.94098605,38.87623507,30373219,38.876227,-76.940981,Ridge Rd Community Center,classic,606,active,2021/11/07 04:49:35+00,12,0,7,0,0,Yes,Yes,Yes,Yes,https://dc.lft.to/lastmile_qr_scan,https://dc.lft.to/lastmile_qr_scan,No,No,19,"KEY,CREDITCARD",42,2021/11/07 23:02:59+00,,"Washington, DC"
-77.02935563,38.99025538,30373220,38.990249,-77.02935,East West Hwy & Blair Mill Rd,classic,280,active,2021/11/07 22:12:54+00,13,0,2,1,0,Yes,Yes,Yes,Yes,https://dc.lft.to/lastmile_qr_scan,https://dc.lft.to/lastmile_qr_scan,No,No,15,"KEY,CREDITCARD",44,2021/11/07 23:02:59+00,,"Montgomery County, MD (South)"
-77.09198836,38.98246682,30373221,38.982456,-77.091991,47th & Elm St,classic,282,active,2021/11/07 23:01:59+00,6,3,5,0,1,Yes,Yes,Yes,Yes,https://dc.lft.to/lastmile_qr_scan,https://dc.lft.to/lastmile_qr_scan,No,No,15,"KEY,CREDITCARD",44,2021/11/07 23:02:59+00,,"Montgomery County, MD (South)"
-77.04456794,39.02539145,30373222,39.025387,-77.044563,Dennis Ave & Amherst Ave,classic,283,active,2021/11/07 15:39:11+00,13,0,2,0,0,Yes,Yes,Yes,Yes,https://dc.lft.to/lastmile_qr_scan,https://dc.lft.to/lastmile_qr_scan,No,No,15,"KEY,CREDITCARD",44,2021/11/07 23:02:59+00,,"Montgomery County, MD (South)"
-77.15905511,39.09567197,30373223,39.095661,-77.159048,Montgomery College / W Campus Dr & Mannakee St,classic,284,active,2021/11/07 13:18:41+00,14,0,7,2,0,Yes,Yes,Yes,Yes,https://dc.lft.to/lastmile_qr_scan,https://dc.lft.to/lastmile_qr_scan,No,No,21,"KEY,CREDITCARD",43,2021/11/07 23:02:59+00,,"Montgomery County, MD (North)"
-77.02386108,38.98973416,30373224,38.989724,-77.023854,Fenton St & Gist Ave,classic,285,active,2021/11/07 22:52:12+00,9,0,1,1,0,Yes,Yes,Yes,Yes,https://dc.lft.to/lastmile_qr_scan,https://dc.lft.to/lastmile_qr_scan,No,No,11,"KEY,CREDITCARD",44,2021/11/07 23:02:59+00,,"Montgomery County, MD (South)"
-77.01120795,38.97500762,30373225,38.975,-77.01121,Carroll & Westmoreland Ave,classic,286,active,2021/11/07 20:35:10+00,8,0,7,0,0,Yes,Yes,Yes,Yes,https://dc.lft.to/lastmile_qr_scan,https://dc.lft.to/lastmile_qr_scan,No,No,15,"KEY,CREDITCARD",44,2021/11/07 23:02:59+00,,"Montgomery County, MD (South)"
-77.00647668,38.97794466,30373226,38.977933,-77.006472,Carroll & Ethan Allen Ave,classic,287,active,2021/11/07 21:54:20+00,11,0,3,0,1,Yes,Yes,Yes,Yes,https://dc.lft.to/lastmile_qr_scan,https://dc.lft.to/lastmile_qr_scan,No,No,15,"KEY,CREDITCARD",44,2021/11/07 23:02:59+00,,"Montgomery County, MD (South)"
-77.10010446,38.99238721,30373227,38.992375,-77.100104,Battery Ln & Trolley Trail,classic,288,active,2021/11/07 15:29:49+00,7,0,7,0,1,Yes,Yes,Yes,Yes,https://dc.lft.to/lastmile_qr_scan,https://dc.lft.to/lastmile_qr_scan,No,No,15,"KEY,CREDITCARD",44,2021/11/07 23:02:59+00,,"Montgomery County, MD (South)"
-77.10024053,38.99064851,30373228,38.990639,-77.100239,Norfolk & Rugby Ave,classic,289,active,2021/11/07 04:24:20+00,8,0,3,0,0,Yes,Yes,Yes,Yes,https://dc.lft.to/lastmile_qr_scan,https://dc.lft.to/lastmile_qr_scan,No,No,11,"KEY,CREDITCARD",44,2021/11/07 23:02:59+00,,"Montgomery County, MD (South)"
-77.09458963,38.97710485,30373229,38.977093,-77.094589,Offutt Ln & Chevy Chase Dr,classic,290,active,2021/11/07 19:29:40+00,5,0,6,0,0,Yes,Yes,Yes,Yes,https://dc.lft.to/lastmile_qr_scan,https://dc.lft.to/lastmile_qr_scan,No,No,11,"KEY,CREDITCARD",44,2021/11/07 23:02:59+00,,"Montgomery County, MD (South)"
-77.14137624,39.0763364,30373230,39.076331,-77.141378,Fleet St & Ritchie Pkwy,classic,293,active,2021/11/07 12:20:02+00,13,0,2,0,0,Yes,Yes,Yes,Yes,https://dc.lft.to/lastmile_qr_scan,https://dc.lft.to/lastmile_qr_scan,No,No,15,"KEY,CREDITCARD",43,2021/11/07 23:02:59+00,,"Montgomery County, MD (North)"
-77.17709333,39.10222194,30373231,39.102212,-77.177091,Piccard & W Gude Dr,classic,294,active,2021/11/07 04:24:19+00,10,0,9,0,0,Yes,Yes,Yes,Yes,https://dc.lft.to/lastmile_qr_scan,https://dc.lft.to/lastmile_qr_scan,No,No,19,"KEY,CREDITCARD",43,2021/11/07 23:02:59+00,,"Montgomery County, MD (North)"
-77.03037301,38.99403857,30373232,38.994035,-77.030371,Silver Spring Transit Center - Top Level,classic,295,active,2021/11/07 18:15:09+00,13,0,2,0,0,Yes,Yes,Yes,Yes,https://dc.lft.to/lastmile_qr_scan,https://dc.lft.to/lastmile_qr_scan,No,No,15,"KEY,CREDITCARD",44,2021/11/07 23:02:59+00,,"Montgomery County, MD (South)"
-77.03155281,38.99939813,30373233,38.999388,-77.031555,Georgia Ave & Spring St,classic,296,active,2021/11/07 22:00:39+00,7,0,4,1,0,Yes,Yes,Yes,Yes,https://dc.lft.to/lastmile_qr_scan,https://dc.lft.to/lastmile_qr_scan,No,No,11,"KEY,CREDITCARD",44,2021/11/07 23:02:59+00,,"Montgomery County, MD (South)"
-77.02560666,38.99703944,30373234,38.997033,-77.025608,Fenton St & Ellsworth Dr ,classic,297,active,2021/11/07 21:13:13+00,14,0,1,0,0,Yes,Yes,Yes,Yes,https://dc.lft.to/lastmile_qr_scan,https://dc.lft.to/lastmile_qr_scan,No,No,15,"KEY,CREDITCARD",44,2021/11/07 23:02:59+00,,"Montgomery County, MD (South)"
-77.17149321,39.11469731,30373235,39.114688,-77.171487,King Farm Blvd & Pleasant Dr,classic,298,active,2021/11/07 14:43:58+00,17,0,1,1,0,Yes,Yes,Yes,Yes,https://dc.lft.to/lastmile_qr_scan,https://dc.lft.to/lastmile_qr_scan,No,No,18,"KEY,CREDITCARD",43,2021/11/07 23:02:59+00,,"Montgomery County, MD (North)"
-77.18267497,39.11032055,30373236,39.110314,-77.182669,King Farm Blvd & Piccard Dr,classic,299,active,2021/11/07 04:24:22+00,6,0,9,1,0,Yes,Yes,Yes,Yes,https://dc.lft.to/lastmile_qr_scan,https://dc.lft.to/lastmile_qr_scan,No,No,15,"KEY,CREDITCARD",43,2021/11/07 23:02:59+00,,"Montgomery County, MD (North)"
-77.0500512,38.9235872,30373237,38.923583,-77.050046,Calvert St & Woodley Pl NW,classic,301,active,2021/11/07 22:23:45+00,18,0,1,1,0,Yes,Yes,Yes,Yes,https://dc.lft.to/lastmile_qr_scan,https://dc.lft.to/lastmile_qr_scan,No,No,19,"KEY,CREDITCARD",42,2021/11/07 23:02:59+00,,"Washington, DC"
-77.01535942,38.90733686,30373238,38.907333,-77.01536,New Jersey Ave & N St NW/Dunbar HS,classic,302,active,2021/11/07 22:07:14+00,10,0,8,2,1,Yes,Yes,Yes,Yes,https://dc.lft.to/lastmile_qr_scan,https://dc.lft.to/lastmile_qr_scan,No,No,19,"KEY,CREDITCARD",42,2021/11/07 23:02:59+00,,"Washington, DC"
-76.93186051,38.89854386,30373239,38.898536,-76.931862,Nannie Helen Burroughs Ave & 49th St NE,classic,303,active,2021/11/07 04:24:20+00,7,0,4,1,0,Yes,Yes,Yes,Yes,https://dc.lft.to/lastmile_qr_scan,https://dc.lft.to/lastmile_qr_scan,No,No,11,"KEY,CREDITCARD",42,2021/11/07 23:02:59+00,,"Washington, DC"
-76.93309621,38.9084808,30373240,38.908473,-76.933099,Deanwood Rec Center,classic,304,active,2021/11/07 17:25:21+00,12,0,3,3,0,Yes,Yes,Yes,Yes,https://dc.lft.to/lastmile_qr_scan,https://dc.lft.to/lastmile_qr_scan,No,No,15,"KEY,CREDITCARD",42,2021/11/07 23:02:59+00,,"Washington, DC"
-77.0302316,38.87844411,30373241,38.878433,-77.03023,Hains Point/Buckeye & Ohio Dr SW,classic,305,active,2021/11/07 18:39:36+00,13,0,4,0,0,Yes,Yes,Yes,Yes,https://dc.lft.to/lastmile_qr_scan,https://dc.lft.to/lastmile_qr_scan,No,No,17,"KEY,CREDITCARD",42,2021/11/07 23:02:59+00,,"Washington, DC"
-77.0892323,38.8737656,30373242,38.873755,-77.089233,Arlington Blvd & Fillmore St,classic,306,active,2021/11/07 20:45:29+00,5,0,6,0,0,Yes,Yes,Yes,Yes,https://dc.lft.to/lastmile_qr_scan,https://dc.lft.to/lastmile_qr_scan,No,No,11,"KEY,CREDITCARD",41,2021/11/07 23:02:59+00,,"Arlington, VA"
-77.05428328,38.86276078,30373243,38.862753,-77.05428,Eads St & 12th St S,classic,307,active,2021/11/07 21:55:16+00,2,0,15,2,0,Yes,Yes,Yes,Yes,https://dc.lft.to/lastmile_qr_scan,https://dc.lft.to/lastmile_qr_scan,No,No,17,"KEY,CREDITCARD",41,2021/11/07 23:02:59+00,,"Arlington, VA"
-77.10965027,38.99963926,30373244,38.999634,-77.109647,Old Georgetown Rd & Southwick St,classic,308,active,2021/11/07 19:41:34+00,15,0,4,1,0,Yes,Yes,Yes,Yes,https://dc.lft.to/lastmile_qr_scan,https://dc.lft.to/lastmile_qr_scan,No,No,19,"KEY,CREDITCARD",44,2021/11/07 23:02:59+00,,"Montgomery County, MD (South)"
-77.08866096,38.96115589,30373245,38.96115,-77.088659,Friendship Blvd & Willard Ave,classic,309,active,2021/11/07 20:01:48+00,19,0,0,0,0,Yes,Yes,Yes,Yes,https://dc.lft.to/lastmile_qr_scan,https://dc.lft.to/lastmile_qr_scan,No,No,19,"KEY,CREDITCARD",44,2021/11/07 23:02:59+00,,"Montgomery County, MD (South)"
-77.00891354,38.89970746,30373246,38.899703,-77.008911,North Capitol St & G Pl NE,classic,310,active,2021/11/07 21:46:47+00,15,0,2,0,2,Yes,Yes,Yes,Yes,https://dc.lft.to/lastmile_qr_scan,https://dc.lft.to/lastmile_qr_scan,No,No,19,"KEY,CREDITCARD",42,2021/11/07 23:02:59+00,,"Washington, DC"
-77.09348369,38.83785466,30373247,38.837846,-77.093478,31st St & S Woodrow St,classic,311,active,2021/11/07 12:21:16+00,9,0,2,0,0,Yes,Yes,Yes,Yes,https://dc.lft.to/lastmile_qr_scan,https://dc.lft.to/lastmile_qr_scan,No,No,11,"KEY,CREDITCARD",41,2021/11/07 23:02:59+00,,"Arlington, VA"
-77.08210987,38.87323032,30373248,38.873219,-77.082104,Washington Blvd & Walter Reed Dr ,classic,312,active,2021/11/07 21:38:18+00,8,0,7,0,0,Yes,Yes,Yes,Yes,https://dc.lft.to/lastmile_qr_scan,https://dc.lft.to/lastmile_qr_scan,No,No,15,"KEY,CREDITCARD",41,2021/11/07 23:02:59+00,,"Arlington, VA"
-77.09559924,38.86942751,30373249,38.869418,-77.095596,TJ Cmty Ctr / 2nd St & S Old Glebe Rd,classic,313,active,2021/11/07 22:32:33+00,6,0,9,3,0,Yes,Yes,Yes,Yes,https://dc.lft.to/lastmile_qr_scan,https://dc.lft.to/lastmile_qr_scan,No,No,15,"KEY,CREDITCARD",41,2021/11/07 23:02:59+00,,"Arlington, VA"
-77.06197903,38.94114768,30373250,38.941139,-77.061977,Connecticut Ave & Tilden St NW,classic,314,active,2021/11/07 22:11:00+00,11,0,3,1,0,Yes,Yes,Yes,Yes,https://dc.lft.to/lastmile_qr_scan,https://dc.lft.to/lastmile_qr_scan,No,No,15,"KEY,CREDITCARD",42,2021/11/07 23:02:59+00,,"Washington, DC"
-77.19644886,39.10310089,30373251,39.103091,-77.196442,Medical Center Dr & Key West Ave,classic,315,active,2021/11/07 04:24:25+00,11,0,4,0,0,Yes,Yes,Yes,Yes,https://dc.lft.to/lastmile_qr_scan,https://dc.lft.to/lastmile_qr_scan,No,No,15,"KEY,CREDITCARD",43,2021/11/07 23:02:59+00,,"Montgomery County, MD (North)"
-77.19664187,39.09764172,30373252,39.097636,-77.196636,Shady Grove Hospital,classic,316,active,2021/11/07 04:24:25+00,15,0,4,0,0,Yes,Yes,Yes,Yes,https://dc.lft.to/lastmile_qr_scan,https://dc.lft.to/lastmile_qr_scan,No,No,19,"KEY,CREDITCARD",43,2021/11/07 23:02:59+00,,"Montgomery County, MD (North)"
-77.0238983,38.99745417,30373253,38.997445,-77.023894,Veterans Pl & Pershing Dr ,classic,317,active,2021/11/07 17:13:18+00,7,0,4,0,0,Yes,Yes,Yes,Yes,https://dc.lft.to/lastmile_qr_scan,https://dc.lft.to/lastmile_qr_scan,No,No,11,"KEY,CREDITCARD",44,2021/11/07 23:02:59+00,,"Montgomery County, MD (South)"
-77.14580951,39.08540206,30373254,39.085394,-77.145803,Rockville Metro East,classic,318,active,2021/11/07 04:24:25+00,11,0,2,0,0,Yes,Yes,Yes,Yes,https://dc.lft.to/lastmile_qr_scan,https://dc.lft.to/lastmile_qr_scan,No,No,13,"KEY,CREDITCARD",43,2021/11/07 23:02:59+00,,"Montgomery County, MD (North)"
-77.01210695,38.90036478,30373255,38.900358,-77.012108,1st & H St NW,classic,319,active,2021/11/07 22:58:00+00,11,0,3,0,1,Yes,Yes,Yes,Yes,https://dc.lft.to/lastmile_qr_scan,https://dc.lft.to/lastmile_qr_scan,No,No,15,"KEY,CREDITCARD",42,2021/11/07 23:02:59+00,,"Washington, DC"
-77.00272494,38.95237939,30373256,38.952369,-77.002721,Fort Totten Metro,classic,320,active,2021/11/07 22:43:07+00,19,0,0,0,0,Yes,Yes,Yes,Yes,https://dc.lft.to/lastmile_qr_scan,https://dc.lft.to/lastmile_qr_scan,No,No,19,"KEY,CREDITCARD",42,2021/11/07 23:02:59+00,,"Washington, DC"
-77.01686276,38.97522314,30373257,38.975219,-77.016855,Takoma Metro,classic,321,active,2021/11/07 21:48:57+00,19,0,0,0,0,Yes,Yes,Yes,Yes,https://dc.lft.to/lastmile_qr_scan,https://dc.lft.to/lastmile_qr_scan,No,No,19,"KEY,CREDITCARD",42,2021/11/07 23:02:59+00,,"Washington, DC"
-76.99587399,38.92068816,30373258,38.920682,-76.995876,Rhode Island Ave Metro,classic,322,active,2021/11/07 20:26:16+00,19,0,0,0,0,Yes,Yes,Yes,Yes,https://dc.lft.to/lastmile_qr_scan,https://dc.lft.to/lastmile_qr_scan,No,No,19,"KEY,CREDITCARD",42,2021/11/07 23:02:59+00,,"Washington, DC"
-77.0761333,38.86647806,30373259,38.866471,-77.076131,Rolfe St & 9th St S,classic,323,active,2021/11/07 16:34:22+00,4,0,7,0,0,Yes,Yes,Yes,Yes,https://dc.lft.to/lastmile_qr_scan,https://dc.lft.to/lastmile_qr_scan,No,No,11,"KEY,CREDITCARD",41,2021/11/07 23:02:59+00,,"Arlington, VA"
-77.08866106,38.84066005,30373260,38.840654,-77.088659,S Randolph St & Campbell Ave,classic,324,active,2021/11/07 19:59:43+00,11,0,4,2,0,Yes,Yes,Yes,Yes,https://dc.lft.to/lastmile_qr_scan,https://dc.lft.to/lastmile_qr_scan,No,No,15,"KEY,CREDITCARD",41,2021/11/07 23:02:59+00,,"Arlington, VA"
-77.16609358,39.11977657,30373261,39.119765,-77.166093,Shady Grove Metro West,classic,325,active,2021/11/07 20:55:54+00,18,0,1,0,0,Yes,Yes,Yes,Yes,https://dc.lft.to/lastmile_qr_scan,https://dc.lft.to/lastmile_qr_scan,No,No,19,"KEY,CREDITCARD",43,2021/11/07 23:02:59+00,,"Montgomery County, MD (North)"
-77.10337761,38.96499934,30373262,38.964992,-77.103381,River Rd & Landy Ln,classic,326,active,2021/11/07 18:23:06+00,13,0,6,1,0,Yes,Yes,Yes,Yes,https://dc.lft.to/lastmile_qr_scan,https://dc.lft.to/lastmile_qr_scan,No,No,19,"KEY,CREDITCARD",44,2021/11/07 23:02:59+00,,"Montgomery County, MD (South)"
-77.094542,38.98469882,30373263,38.984691,-77.094537,Bethesda Metro / Wisconsin Ave & Old Georgetown Rd,classic,328,active,2021/11/07 21:12:16+00,6,0,6,0,0,Yes,Yes,Yes,Yes,https://dc.lft.to/lastmile_qr_scan,https://dc.lft.to/lastmile_qr_scan,No,No,12,"KEY,CREDITCARD",44,2021/11/07 23:02:59+00,,"Montgomery County, MD (South)"
-77.07130564,38.88992997,30373264,38.88992,-77.071301,Iwo Jima Memorial / Meade & 14th St N,classic,329,active,2021/11/07 17:20:34+00,6,0,13,0,0,Yes,Yes,Yes,Yes,https://dc.lft.to/lastmile_qr_scan,https://dc.lft.to/lastmile_qr_scan,No,No,19,"KEY,CREDITCARD",41,2021/11/07 23:02:59+00,,"Arlington, VA"
-77.06752647,38.90374204,30373265,38.903732,-77.067529,34th & Water St NW,classic,330,active,2021/11/07 19:50:08+00,12,0,7,2,0,Yes,Yes,Yes,Yes,https://dc.lft.to/lastmile_qr_scan,https://dc.lft.to/lastmile_qr_scan,No,No,19,"KEY,CREDITCARD",42,2021/11/07 23:02:59+00,,"Washington, DC"
-77.06087026,38.80438269,30373266,38.804378,-77.060866,Duke St & John Carlyle St,classic,331,active,2021/11/07 18:36:01+00,10,0,5,0,0,Yes,Yes,Yes,Yes,https://dc.lft.to/lastmile_qr_scan,https://dc.lft.to/lastmile_qr_scan,No,No,15,"KEY,CREDITCARD",40,2021/11/07 23:02:59+00,,"Alexandria, VA"
-77.09169107,38.89495143,30373267,38.894941,-77.09169,Langston Blvd & N Cleveland St,classic,332,active,2021/11/07 22:07:10+00,10,0,5,1,0,Yes,Yes,Yes,Yes,https://dc.lft.to/lastmile_qr_scan,https://dc.lft.to/lastmile_qr_scan,No,No,15,"KEY,CREDITCARD",41,2021/11/07 23:02:59+00,,"Arlington, VA"
-77.10450675,38.86944691,30373268,38.869442,-77.104503,Arlington Blvd & S George Mason Dr,classic,333,active,2021/11/07 04:24:21+00,12,0,2,0,1,Yes,Yes,Yes,Yes,https://dc.lft.to/lastmile_qr_scan,https://dc.lft.to/lastmile_qr_scan,No,No,15,"KEY,CREDITCARD",41,2021/11/07 23:02:59+00,,"Arlington, VA"
-77.02623981,38.8982545,30373269,38.898243,-77.026235,10th & G St NW,classic,334,active,2021/11/07 22:29:47+00,19,0,4,0,0,Yes,Yes,Yes,Yes,https://dc.lft.to/lastmile_qr_scan,https://dc.lft.to/lastmile_qr_scan,No,No,23,"KEY,CREDITCARD",42,2021/11/07 23:02:59+00,,"Washington, DC"
-77.08085835,38.8976169,30373270,38.897612,-77.080851,Langston Blvd & N Scott St,classic,335,active,2021/11/07 18:36:16+00,1,0,14,0,0,Yes,Yes,Yes,Yes,https://dc.lft.to/lastmile_qr_scan,https://dc.lft.to/lastmile_qr_scan,No,No,15,"KEY,CREDITCARD",41,2021/11/07 23:02:59+00,,"Arlington, VA"
-77.05108498,38.90175954,30373271,38.901755,-77.051084,New Hampshire Ave & 24th St NW,classic,336,active,2021/11/07 22:39:47+00,11,0,8,0,0,Yes,Yes,Yes,Yes,https://dc.lft.to/lastmile_qr_scan,https://dc.lft.to/lastmile_qr_scan,No,No,19,"KEY,CREDITCARD",42,2021/11/07 23:02:59+00,,"Washington, DC"
-77.06894907,38.80111712,30373272,38.801111,-77.068952,Eisenhower Ave & Mill Race Ln,classic,337,active,2021/11/07 19:58:00+00,2,0,12,1,1,Yes,Yes,Yes,Yes,https://dc.lft.to/lastmile_qr_scan,https://dc.lft.to/lastmile_qr_scan,No,No,15,"KEY,CREDITCARD",40,2021/11/07 23:02:59+00,,"Alexandria, VA"
-77.04749247,38.82175727,30373273,38.82175,-77.047494,Potomac Greens Dr & Slaters Ln,classic,338,active,2021/11/07 22:09:49+00,7,0,4,0,0,Yes,Yes,Yes,Yes,https://dc.lft.to/lastmile_qr_scan,https://dc.lft.to/lastmile_qr_scan,No,No,11,"KEY,CREDITCARD",40,2021/11/07 23:02:59+00,,"Alexandria, VA"
-77.06356274,38.80268765,30373274,38.802677,-77.063562,Ballenger Ave & Dulaney St,classic,339,active,2021/11/07 04:24:24+00,15,0,4,0,0,Yes,Yes,Yes,Yes,https://dc.lft.to/lastmile_qr_scan,https://dc.lft.to/lastmile_qr_scan,No,No,19,"KEY,CREDITCARD",40,2021/11/07 23:02:59+00,,"Alexandria, VA"
-77.0576248,38.82006812,30373275,38.820064,-77.057619,Mount Vernon Ave & E Nelson Ave,classic,340,active,2021/11/07 13:22:58+00,8,0,3,0,0,Yes,Yes,Yes,Yes,https://dc.lft.to/lastmile_qr_scan,https://dc.lft.to/lastmile_qr_scan,No,No,11,"KEY,CREDITCARD",40,2021/11/07 23:02:59+00,,"Alexandria, VA"
-77.05853934,38.82595921,30373276,38.82595,-77.058541,Mount Vernon Ave & E Del Ray Ave,classic,341,active,2021/11/07 19:14:49+00,7,0,8,1,0,Yes,Yes,Yes,Yes,https://dc.lft.to/lastmile_qr_scan,https://dc.lft.to/lastmile_qr_scan,No,No,15,"KEY,CREDITCARD",40,2021/11/07 23:02:59+00,,"Alexandria, VA"
-77.05309995,38.82094409,30373277,38.820932,-77.053096,Monroe Ave & Leslie Ave,classic,342,active,2021/11/07 12:30:36+00,3,0,12,0,0,Yes,Yes,Yes,Yes,https://dc.lft.to/lastmile_qr_scan,https://dc.lft.to/lastmile_qr_scan,No,No,15,"KEY,CREDITCARD",40,2021/11/07 23:02:59+00,,"Alexandria, VA"
-77.05982361,38.83308426,30373278,38.833077,-77.059821,Mount Vernon Ave & Kennedy St,classic,343,active,2021/11/07 22:17:36+00,10,0,5,2,0,Yes,Yes,Yes,Yes,https://dc.lft.to/lastmile_qr_scan,https://dc.lft.to/lastmile_qr_scan,No,No,15,"KEY,CREDITCARD",40,2021/11/07 23:02:59+00,,"Alexandria, VA"
-77.08480408,38.8906236,30373279,38.890612,-77.084801,Court House Metro / 15th St & N Uhle St,classic,344,active,2021/11/07 19:52:40+00,6,0,15,0,0,Yes,Yes,Yes,Yes,https://dc.lft.to/lastmile_qr_scan,https://dc.lft.to/lastmile_qr_scan,No,No,21,"KEY,CREDITCARD",41,2021/11/07 23:02:59+00,,"Arlington, VA"
-77.00003692,38.98675487,30373280,38.986743,-77.000035,WAU / Flower Ave & Division St,classic,345,active,2021/11/07 13:02:42+00,11,0,4,0,0,Yes,Yes,Yes,Yes,https://dc.lft.to/lastmile_qr_scan,https://dc.lft.to/lastmile_qr_scan,No,No,15,"KEY,CREDITCARD",44,2021/11/07 23:02:59+00,,"Montgomery County, MD (South)"
-77.05003356,38.86556429,30373281,38.865553,-77.05003,Long Bridge Park / Long Bridge Dr & 6th St S,classic,346,active,2021/11/07 15:30:12+00,7,0,8,0,0,Yes,Yes,Yes,Yes,https://dc.lft.to/lastmile_qr_scan,https://dc.lft.to/lastmile_qr_scan,No,No,15,"KEY,CREDITCARD",41,2021/11/07 23:02:59+00,,"Arlington, VA"
-77.0751419,38.96455247,30373282,38.964544,-77.075135,Connecticut Ave & McKinley St NW,classic,347,active,2021/11/07 19:03:25+00,17,0,2,0,0,Yes,Yes,Yes,Yes,https://dc.lft.to/lastmile_qr_scan,https://dc.lft.to/lastmile_qr_scan,No,No,19,"KEY,CREDITCARD",42,2021/11/07 23:02:59+00,,"Washington, DC"
-77.03492298,38.90365725,30373283,38.903649,-77.034918,15th & L St NW,classic,348,active,2021/11/07 19:25:28+00,21,0,1,0,1,Yes,Yes,Yes,Yes,https://dc.lft.to/lastmile_qr_scan,https://dc.lft.to/lastmile_qr_scan,No,No,23,"KEY,CREDITCARD",42,2021/11/07 23:02:59+00,,"Washington, DC"
-77.03973902,38.89828672,30373284,38.898283,-77.039732,17th & G St NW,classic,349,active,2021/11/07 20:49:58+00,12,0,19,1,0,Yes,Yes,Yes,Yes,https://dc.lft.to/lastmile_qr_scan,https://dc.lft.to/lastmile_qr_scan,No,No,31,"KEY,CREDITCARD",42,2021/11/07 23:02:59+00,,"Washington, DC"
-77.03449576,38.99765872,30373285,38.997653,-77.034499,Spring St & 2nd Ave,classic,350,active,2021/11/07 04:29:25+00,13,0,2,0,0,Yes,Yes,Yes,Yes,https://dc.lft.to/lastmile_qr_scan,https://dc.lft.to/lastmile_qr_scan,No,No,15,"KEY,CREDITCARD",44,2021/11/07 23:02:59+00,,"Montgomery County, MD (South)"
-77.041834,38.91265431,30373286,38.912648,-77.041834,18th & R St NW,classic,351,active,2021/11/07 22:52:59+00,5,0,9,2,5,Yes,Yes,Yes,Yes,https://dc.lft.to/lastmile_qr_scan,https://dc.lft.to/lastmile_qr_scan,No,No,19,"KEY,CREDITCARD",42,2021/11/07 23:02:59+00,,"Washington, DC"
-77.063279,38.85926098,30373287,38.859254,-77.063275,Joyce St & 16th St S,classic,352,active,2021/11/07 20:31:20+00,5,0,10,0,0,Yes,Yes,Yes,Yes,https://dc.lft.to/lastmile_qr_scan,https://dc.lft.to/lastmile_qr_scan,No,No,15,"KEY,CREDITCARD",41,2021/11/07 23:02:59+00,,"Arlington, VA"
-76.9970738,38.90791437,30373288,38.907908,-76.99707,Union Market,classic,353,active,2021/11/07 22:16:50+00,7,0,14,0,1,Yes,Yes,Yes,Yes,https://dc.lft.to/lastmile_qr_scan,https://dc.lft.to/lastmile_qr_scan,No,No,23,"KEY,CREDITCARD",42,2021/11/07 23:02:59+00,,"Washington, DC"
-77.10456938,38.89646302,30373289,38.896456,-77.104562,Langston Blvd & N Monroe St,classic,354,active,2021/11/07 18:51:59+00,11,0,4,0,0,Yes,Yes,Yes,Yes,https://dc.lft.to/lastmile_qr_scan,https://dc.lft.to/lastmile_qr_scan,No,No,15,"KEY,CREDITCARD",41,2021/11/07 23:02:59+00,,"Arlington, VA"
-77.36650183,38.94149939,30373290,38.941496,-77.366499,South Gate Community Center,classic,689,active,2021/11/07 04:54:37+00,1,0,11,0,0,Yes,Yes,Yes,Yes,https://dc.lft.to/lastmile_qr_scan,https://dc.lft.to/lastmile_qr_scan,No,No,12,"KEY,CREDITCARD",104,2021/11/07 23:02:59+00,,"Fairfax, VA"
-77.35345468,38.97850974,30373291,38.978503,-77.353454,Lake Newport Rd and Autumn Ridge Cir,classic,690,active,2021/11/07 04:54:35+00,11,0,1,0,0,Yes,Yes,Yes,Yes,https://dc.lft.to/lastmile_qr_scan,https://dc.lft.to/lastmile_qr_scan,No,No,12,"KEY,CREDITCARD",104,2021/11/07 23:02:59+00,,"Fairfax, VA"
-77.33165401,38.93392834,30373292,38.933923,-77.331653,Ridge Heights and Owl Cove Ln,classic,691,active,2021/11/07 18:16:42+00,2,0,10,0,0,Yes,Yes,Yes,Yes,https://dc.lft.to/lastmile_qr_scan,https://dc.lft.to/lastmile_qr_scan,No,No,12,"KEY,CREDITCARD",104,2021/11/07 23:02:59+00,,"Fairfax, VA"
-77.34588166,38.93051797,30373293,38.93051,-77.345874,Soapstone Dr Convenience Center,classic,692,active,2021/11/07 04:54:38+00,1,0,11,0,0,Yes,Yes,Yes,Yes,https://dc.lft.to/lastmile_qr_scan,https://dc.lft.to/lastmile_qr_scan,No,No,12,"KEY,CREDITCARD",104,2021/11/07 23:02:59+00,,"Fairfax, VA"
-77.07720177,38.86356764,30373294,38.863556,-77.077201,Columbia Pike & S Scott St/12th St S,classic,693,active,2021/11/07 20:11:51+00,8,0,3,0,0,Yes,Yes,Yes,Yes,https://dc.lft.to/lastmile_qr_scan,https://dc.lft.to/lastmile_qr_scan,No,No,11,"KEY,CREDITCARD",41,2021/11/07 23:02:59+00,,"Arlington, VA"
-77.00517504,38.85313427,30373295,38.853124,-77.005174,St. Elizabeths West Campus/DHS ,classic,694,active,2021/11/07 04:54:38+00,6,0,13,0,0,Yes,Yes,Yes,Yes,https://dc.lft.to/lastmile_qr_scan,https://dc.lft.to/lastmile_qr_scan,No,No,19,"KEY,CREDITCARD",42,2021/11/07 23:02:59+00,,"Washington, DC"
-77.04153819,38.8996914,30373296,38.89968,-77.041539,18th St & Pennsylvania Ave NW,classic,141,active,2021/11/07 18:50:22+00,21,0,6,0,0,Yes,Yes,Yes,Yes,https://dc.lft.to/lastmile_qr_scan,https://dc.lft.to/lastmile_qr_scan,No,No,27,"KEY,CREDITCARD",42,2021/11/07 23:02:59+00,,"Washington, DC"
-77.01770621,38.88638307,30373297,38.886372,-77.017701,4th & C St SW,classic,142,active,2021/11/07 21:36:35+00,7,0,31,0,0,Yes,Yes,Yes,Yes,https://dc.lft.to/lastmile_qr_scan,https://dc.lft.to/lastmile_qr_scan,No,No,39,"KEY,CREDITCARD",42,2021/11/07 23:02:59+00,,"Washington, DC"
-77.01745209,38.88413101,30373298,38.88412,-77.017445,4th & E St SW,classic,143,active,2021/11/07 23:00:13+00,1,0,17,0,1,Yes,Yes,Yes,Yes,https://dc.lft.to/lastmile_qr_scan,https://dc.lft.to/lastmile_qr_scan,No,No,19,"KEY,CREDITCARD",42,2021/11/07 23:02:59+00,,"Washington, DC"
-77.00183478,38.88119557,30373299,38.881185,-77.001828,3rd & G St SE,classic,144,active,2021/11/07 21:52:55+00,1,0,18,0,0,Yes,Yes,Yes,Yes,https://dc.lft.to/lastmile_qr_scan,https://dc.lft.to/lastmile_qr_scan,No,No,19,"KEY,CREDITCARD",42,2021/11/07 23:02:59+00,,"Washington, DC"
-77.0221519,38.91272276,30373300,38.912719,-77.022155,7th & R St NW / Shaw Library,classic,145,active,2021/11/07 21:59:29+00,12,0,0,0,3,Yes,Yes,Yes,Yes,https://dc.lft.to/lastmile_qr_scan,https://dc.lft.to/lastmile_qr_scan,No,No,15,"KEY,CREDITCARD",42,2021/11/07 23:02:59+00,,"Washington, DC"
-77.02510235,38.94181002,30373301,38.9418,-77.0251,9th & Upshur St NW,classic,146,active,2021/11/07 20:05:38+00,13,0,2,1,0,Yes,Yes,Yes,Yes,https://dc.lft.to/lastmile_qr_scan,https://dc.lft.to/lastmile_qr_scan,No,No,15,"KEY,CREDITCARD",42,2021/11/07 23:02:59+00,,"Washington, DC"
-77.012294,38.91542672,30373302,38.915417,-77.012289,1st & Rhode Island Ave NW,classic,147,active,2021/11/07 22:10:08+00,12,0,3,0,0,Yes,Yes,Yes,Yes,https://dc.lft.to/lastmile_qr_scan,https://dc.lft.to/lastmile_qr_scan,No,No,15,"KEY,CREDITCARD",42,2021/11/07 23:02:59+00,,"Washington, DC"
-77.02379433,38.92812668,30373303,38.928121,-77.023795,Columbia Rd & Georgia Ave NW,classic,148,active,2021/11/07 22:32:11+00,18,0,4,3,1,Yes,Yes,Yes,Yes,https://dc.lft.to/lastmile_qr_scan,https://dc.lft.to/lastmile_qr_scan,No,No,23,"KEY,CREDITCARD",42,2021/11/07 23:02:59+00,,"Washington, DC"
-77.04062624,38.91777148,30373304,38.917761,-77.04062,California St & Florida Ave NW,classic,149,active,2021/11/07 22:45:51+00,16,0,3,0,0,Yes,Yes,Yes,Yes,https://dc.lft.to/lastmile_qr_scan,https://dc.lft.to/lastmile_qr_scan,No,No,19,"KEY,CREDITCARD",42,2021/11/07 23:02:59+00,,"Washington, DC"
-76.93722858,38.88994388,30373305,38.889935,-76.93723,Benning Rd & East Capitol St NE / Benning Rd Metro,classic,150,active,2021/11/07 14:11:07+00,17,0,1,0,1,Yes,Yes,Yes,Yes,https://dc.lft.to/lastmile_qr_scan,https://dc.lft.to/lastmile_qr_scan,No,No,19,"KEY,CREDITCARD",42,2021/11/07 23:02:59+00,,"Washington, DC"
-77.05560332,38.93028688,30373306,38.930282,-77.055599,3000 Connecticut Ave NW / National Zoo,classic,151,active,2021/11/07 22:21:38+00,1,0,14,1,0,Yes,Yes,Yes,Yes,https://dc.lft.to/lastmile_qr_scan,https://dc.lft.to/lastmile_qr_scan,No,No,15,"KEY,CREDITCARD",42,2021/11/07 23:02:59+00,,"Washington, DC"
-76.96011666,38.89654806,30373307,38.896544,-76.96012,Anacostia Ave & Benning Rd NE / River Terrace ,classic,152,active,2021/11/07 16:44:33+00,2,0,13,1,0,Yes,Yes,Yes,Yes,https://dc.lft.to/lastmile_qr_scan,https://dc.lft.to/lastmile_qr_scan,No,No,15,"KEY,CREDITCARD",42,2021/11/07 23:02:59+00,,"Washington, DC"
-77.0568865,38.90513499,30373308,38.905126,-77.056887,M St & Pennsylvania Ave NW,classic,153,active,2021/11/07 21:52:20+00,2,0,16,0,1,Yes,Yes,Yes,Yes,https://dc.lft.to/lastmile_qr_scan,https://dc.lft.to/lastmile_qr_scan,No,No,19,"KEY,CREDITCARD",42,2021/11/07 23:02:59+00,,"Washington, DC"
-76.983566,38.88732914,30373309,38.88732,-76.983569,15th St & Massachusetts Ave SE,classic,154,active,2021/11/07 20:44:06+00,9,0,6,1,0,Yes,Yes,Yes,Yes,https://dc.lft.to/lastmile_qr_scan,https://dc.lft.to/lastmile_qr_scan,No,No,15,"KEY,CREDITCARD",42,2021/11/07 23:02:59+00,,"Washington, DC"
-76.98782641,38.84471987,30373310,38.844711,-76.987823,Congress Heights Metro,classic,155,active,2021/11/07 04:09:18+00,10,0,5,0,0,Yes,Yes,Yes,Yes,https://dc.lft.to/lastmile_qr_scan,https://dc.lft.to/lastmile_qr_scan,No,No,15,"KEY,CREDITCARD",42,2021/11/07 23:02:59+00,,"Washington, DC"
-77.10773223,38.87639847,30373311,38.876393,-77.107735,N Quincy St & Glebe Rd,classic,156,active,2021/11/07 16:31:06+00,6,0,5,0,0,Yes,Yes,Yes,Yes,https://dc.lft.to/lastmile_qr_scan,https://dc.lft.to/lastmile_qr_scan,No,No,11,"KEY,CREDITCARD",41,2021/11/07 23:02:59+00,,"Arlington, VA"
-77.10098816,38.85034313,30373312,38.850337,-77.100989,Barcroft Community Center,classic,157,active,2021/11/07 11:15:57+00,1,0,10,0,0,Yes,Yes,Yes,Yes,https://dc.lft.to/lastmile_qr_scan,https://dc.lft.to/lastmile_qr_scan,No,No,11,"KEY,CREDITCARD",41,2021/11/07 23:02:59+00,,"Arlington, VA"
-77.08650615,38.89692821,30373313,38.896923,-77.086502,N Veitch St & 20th St N,classic,158,active,2021/11/07 22:29:29+00,11,0,4,1,0,Yes,Yes,Yes,Yes,https://dc.lft.to/lastmile_qr_scan,https://dc.lft.to/lastmile_qr_scan,No,No,15,"KEY,CREDITCARD",41,2021/11/07 23:02:59+00,,"Arlington, VA"
-77.02621828,38.90240736,30373314,38.9024,-77.02622,10th & K St NW,classic,159,active,2021/11/07 22:06:45+00,14,0,8,0,1,Yes,Yes,Yes,Yes,https://dc.lft.to/lastmile_qr_scan,https://dc.lft.to/lastmile_qr_scan,No,No,23,"KEY,CREDITCARD",42,2021/11/07 23:02:59+00,,"Washington, DC"
-77.09774196,38.88581202,30373315,38.885801,-77.097745,Fairfax Dr & Wilson Blvd,classic,160,active,2021/11/07 22:07:56+00,6,0,5,0,0,Yes,Yes,Yes,Yes,https://dc.lft.to/lastmile_qr_scan,https://dc.lft.to/lastmile_qr_scan,No,No,11,"KEY,CREDITCARD",41,2021/11/07 23:02:59+00,,"Arlington, VA"
-77.07857186,38.89399709,30373316,38.893993,-77.07857,Wilson Blvd & N Quinn St,classic,161,active,2021/11/07 21:48:46+00,4,0,7,1,0,Yes,Yes,Yes,Yes,https://dc.lft.to/lastmile_qr_scan,https://dc.lft.to/lastmile_qr_scan,No,No,11,"KEY,CREDITCARD",41,2021/11/07 23:02:59+00,,"Arlington, VA"
-77.0057301,38.87886227,30373317,38.878854,-77.005727,1st & K St SE,classic,162,active,2021/11/07 22:48:13+00,0,0,13,0,1,Yes,Yes,Yes,Yes,https://dc.lft.to/lastmile_qr_scan,https://dc.lft.to/lastmile_qr_scan,No,No,15,"KEY,CREDITCARD",42,2021/11/07 23:02:59+00,,"Washington, DC"
-77.07727727,38.92265352,30373318,38.922649,-77.077271,39th & Calvert St NW / Stoddert,classic,163,active,2021/11/07 20:54:01+00,15,0,3,1,0,Yes,Yes,Yes,Yes,https://dc.lft.to/lastmile_qr_scan,https://dc.lft.to/lastmile_qr_scan,No,No,19,"KEY,CREDITCARD",42,2021/11/07 23:02:59+00,,"Washington, DC"
-77.01245776,38.92875001,30373319,38.928743,-77.012457,1st & Washington Hospital Center NW,classic,164,active,2021/11/07 22:48:01+00,7,0,8,0,0,Yes,Yes,Yes,Yes,https://dc.lft.to/lastmile_qr_scan,https://dc.lft.to/lastmile_qr_scan,No,No,15,"KEY,CREDITCARD",42,2021/11/07 23:02:59+00,,"Washington, DC"
-77.10315478,38.88279856,30373320,38.882788,-77.103148,Virginia Square Metro / Monroe St & 9th St N,classic,165,active,2021/11/07 22:05:27+00,9,0,10,0,0,Yes,Yes,Yes,Yes,https://dc.lft.to/lastmile_qr_scan,https://dc.lft.to/lastmile_qr_scan,No,No,19,"KEY,CREDITCARD",41,2021/11/07 23:02:59+00,,"Arlington, VA"
-77.10783588,38.88397444,30373321,38.88397,-77.10783,Central Library / Quincy St & 10th St N,classic,166,active,2021/11/07 20:03:32+00,1,0,10,1,0,Yes,Yes,Yes,Yes,https://dc.lft.to/lastmile_qr_scan,https://dc.lft.to/lastmile_qr_scan,No,No,11,"KEY,CREDITCARD",41,2021/11/07 23:02:59+00,,"Arlington, VA"
-77.0934875,38.88474351,30373322,38.884734,-77.093485,Washington Blvd & 10th St N,classic,167,active,2021/11/07 22:25:33+00,3,0,12,0,0,Yes,Yes,Yes,Yes,https://dc.lft.to/lastmile_qr_scan,https://dc.lft.to/lastmile_qr_scan,No,No,15,"KEY,CREDITCARD",41,2021/11/07 23:02:59+00,,"Arlington, VA"
-77.0324259,38.88855994,30373323,38.888553,-77.032427,Jefferson Dr & 14th St SW,classic,168,active,2021/11/07 22:18:10+00,10,0,12,0,1,Yes,Yes,Yes,Yes,https://dc.lft.to/lastmile_qr_scan,https://dc.lft.to/lastmile_qr_scan,No,No,23,"KEY,CREDITCARD",42,2021/11/07 23:02:59+00,,"Washington, DC"
-77.02869145,38.88878613,30373324,38.888774,-77.028694,Smithsonian-National Mall / Jefferson Dr & 12th St SW,classic,169,active,2021/11/07 22:46:50+00,24,0,10,1,1,Yes,Yes,Yes,Yes,https://dc.lft.to/lastmile_qr_scan,https://dc.lft.to/lastmile_qr_scan,No,No,35,"KEY,CREDITCARD",42,2021/11/07 23:02:59+00,,"Washington, DC"
-77.12070137,38.87888111,30373325,38.87887,-77.1207,George Mason Dr & Wilson Blvd,classic,170,active,2021/11/07 12:32:56+00,9,0,6,0,0,Yes,Yes,Yes,Yes,https://dc.lft.to/lastmile_qr_scan,https://dc.lft.to/lastmile_qr_scan,No,No,15,"KEY,CREDITCARD",41,2021/11/07 23:02:59+00,,"Arlington, VA"
-77.01994455,38.89458033,30373326,38.894573,-77.01994,6th St & Indiana Ave NW,classic,171,active,2021/11/07 19:57:38+00,0,0,16,0,1,Yes,Yes,Yes,Yes,https://dc.lft.to/lastmile_qr_scan,https://dc.lft.to/lastmile_qr_scan,No,No,19,"KEY,CREDITCARD",42,2021/11/07 23:02:59+00,,"Washington, DC"
-77.08606365,38.89324412,30373327,38.893237,-77.086063,N Veitch St & Key Blvd,classic,172,active,2021/11/07 18:01:17+00,4,0,7,1,0,Yes,Yes,Yes,Yes,https://dc.lft.to/lastmile_qr_scan,https://dc.lft.to/lastmile_qr_scan,No,No,11,"KEY,CREDITCARD",41,2021/11/07 23:02:59+00,,"Arlington, VA"
-77.08900642,38.89593542,30373328,38.89593,-77.089006,Langston Blvd & N Adams St,classic,173,active,2021/11/07 22:03:31+00,10,0,9,1,0,Yes,Yes,Yes,Yes,https://dc.lft.to/lastmile_qr_scan,https://dc.lft.to/lastmile_qr_scan,No,No,19,"KEY,CREDITCARD",41,2021/11/07 23:02:59+00,,"Arlington, VA"
-77.08095408,38.89054526,30373329,38.89054,-77.08095,15th St & N Scott St,classic,174,active,2021/11/07 21:47:02+00,5,0,6,2,0,Yes,Yes,Yes,Yes,https://dc.lft.to/lastmile_qr_scan,https://dc.lft.to/lastmile_qr_scan,No,No,11,"KEY,CREDITCARD",41,2021/11/07 23:02:59+00,,"Arlington, VA"
-77.090797,38.88081797,30373330,38.88081,-77.090792,Washington Blvd & 7th St N,classic,175,active,2021/11/07 22:23:00+00,4,0,7,2,0,Yes,Yes,Yes,Yes,https://dc.lft.to/lastmile_qr_scan,https://dc.lft.to/lastmile_qr_scan,No,No,11,"KEY,CREDITCARD",41,2021/11/07 23:02:59+00,,"Arlington, VA"
-77.11177306,38.88105201,30373331,38.881044,-77.111768,Ballston Metro / Stuart St & 9th St N,classic,176,active,2021/11/07 18:30:53+00,11,0,12,0,0,Yes,Yes,Yes,Yes,https://dc.lft.to/lastmile_qr_scan,https://dc.lft.to/lastmile_qr_scan,No,No,23,"KEY,CREDITCARD",41,2021/11/07 23:02:59+00,,"Arlington, VA"
-77.10936674,38.88263977,30373332,38.882629,-77.109366,Fairfax Dr & N Randolph St,classic,177,active,2021/11/07 22:19:50+00,10,0,1,0,0,Yes,Yes,Yes,Yes,https://dc.lft.to/lastmile_qr_scan,https://dc.lft.to/lastmile_qr_scan,No,No,11,"KEY,CREDITCARD",41,2021/11/07 23:02:59+00,,"Arlington, VA"
-77.03741223,38.87982932,30373333,38.879819,-77.037413,Jefferson Memorial,classic,178,active,2021/11/07 22:44:48+00,14,0,9,0,0,Yes,Yes,Yes,Yes,https://dc.lft.to/lastmile_qr_scan,https://dc.lft.to/lastmile_qr_scan,No,No,23,"KEY,CREDITCARD",42,2021/11/07 23:02:59+00,,"Washington, DC"
-76.98524157,38.86661906,30373334,38.866611,-76.985238,Good Hope Rd & 14th St SE,classic,179,active,2021/11/07 04:14:19+00,5,0,10,0,0,Yes,Yes,Yes,Yes,https://dc.lft.to/lastmile_qr_scan,https://dc.lft.to/lastmile_qr_scan,No,No,15,"KEY,CREDITCARD",42,2021/11/07 23:02:59+00,,"Washington, DC"
-77.11681426,38.88392977,30373335,38.883921,-77.116817,Glebe Rd & 11th St N,classic,180,active,2021/11/07 14:07:17+00,4,0,7,0,0,Yes,Yes,Yes,Yes,https://dc.lft.to/lastmile_qr_scan,https://dc.lft.to/lastmile_qr_scan,No,No,11,"KEY,CREDITCARD",41,2021/11/07 23:02:59+00,,"Arlington, VA"
-77.10785295,38.88001973,30373336,38.880012,-77.107854,Wilson Blvd & N Quincy St,classic,181,active,2021/11/07 22:58:23+00,13,0,2,2,0,Yes,Yes,Yes,Yes,https://dc.lft.to/lastmile_qr_scan,https://dc.lft.to/lastmile_qr_scan,No,No,15,"KEY,CREDITCARD",41,2021/11/07 23:02:59+00,,"Arlington, VA"
-77.10108278,38.88462007,30373337,38.884616,-77.10108,GMU / Fairfax Dr & Kenmore St,classic,182,active,2021/11/07 19:13:22+00,9,0,2,0,0,Yes,Yes,Yes,Yes,https://dc.lft.to/lastmile_qr_scan,https://dc.lft.to/lastmile_qr_scan,No,No,11,"KEY,CREDITCARD",41,2021/11/07 23:02:59+00,,"Arlington, VA"
-76.99409943,38.90509464,30373338,38.90509,-76.9941,Gallaudet / 8th St & Florida Ave NE,classic,183,active,2021/11/07 21:46:55+00,17,0,1,0,1,Yes,Yes,Yes,Yes,https://dc.lft.to/lastmile_qr_scan,https://dc.lft.to/lastmile_qr_scan,No,No,19,"KEY,CREDITCARD",42,2021/11/07 23:02:59+00,,"Washington, DC"
-77.04479158,38.90359082,30373339,38.903584,-77.044789,20th & L St NW,classic,185,active,2021/11/07 17:55:21+00,0,0,19,0,0,Yes,Yes,Yes,Yes,https://dc.lft.to/lastmile_qr_scan,https://dc.lft.to/lastmile_qr_scan,No,No,19,"KEY,CREDITCARD",42,2021/11/07 23:02:59+00,,"Washington, DC"
-77.02839775,38.90383017,30373340,38.903819,-77.0284,12th & L St NW,classic,186,active,2021/11/07 22:39:58+00,13,0,3,0,1,Yes,Yes,Yes,Yes,https://dc.lft.to/lastmile_qr_scan,https://dc.lft.to/lastmile_qr_scan,No,No,19,"KEY,CREDITCARD",42,2021/11/07 23:02:59+00,,"Washington, DC"
-77.04656567,38.90154523,30373341,38.901539,-77.046564,21st St & Pennsylvania Ave NW,classic,187,active,2021/11/07 21:08:12+00,0,0,18,0,1,Yes,Yes,Yes,Yes,https://dc.lft.to/lastmile_qr_scan,https://dc.lft.to/lastmile_qr_scan,No,No,19,"KEY,CREDITCARD",42,2021/11/07 23:02:59+00,,"Washington, DC"
-77.0433727,38.90221308,30373342,38.902204,-77.04337,19th & K St NW,classic,188,active,2021/11/07 16:47:36+00,22,0,1,1,0,Yes,Yes,Yes,Yes,https://dc.lft.to/lastmile_qr_scan,https://dc.lft.to/lastmile_qr_scan,No,No,23,"KEY,CREDITCARD",42,2021/11/07 23:02:59+00,,"Washington, DC"
-77.04036532,38.8031304,30373343,38.803124,-77.040363,Prince St & Union St,classic,189,active,2021/11/07 16:13:31+00,4,0,15,0,0,Yes,Yes,Yes,Yes,https://dc.lft.to/lastmile_qr_scan,https://dc.lft.to/lastmile_qr_scan,No,No,19,"KEY,CREDITCARD",40,2021/11/07 23:02:59+00,,"Alexandria, VA"
-77.04335955,38.80472383,30373344,38.804718,-77.043363,Market Square / King St & Royal St,classic,190,active,2021/11/07 20:52:50+00,4,0,10,1,1,Yes,Yes,Yes,Yes,https://dc.lft.to/lastmile_qr_scan,https://dc.lft.to/lastmile_qr_scan,No,No,15,"KEY,CREDITCARD",40,2021/11/07 23:02:59+00,,"Alexandria, VA"
-77.04462973,38.81075003,30373345,38.810741,-77.044633,St Asaph & Pendleton St,classic,191,active,2021/11/07 15:42:05+00,3,0,12,2,0,Yes,Yes,Yes,Yes,https://dc.lft.to/lastmile_qr_scan,https://dc.lft.to/lastmile_qr_scan,No,No,15,"KEY,CREDITCARD",40,2021/11/07 23:02:59+00,,"Alexandria, VA"
-77.04988774,38.80532479,30373346,38.805317,-77.049883,King St & Patrick St,classic,192,active,2021/11/07 18:48:09+00,6,0,9,0,0,Yes,Yes,Yes,Yes,https://dc.lft.to/lastmile_qr_scan,https://dc.lft.to/lastmile_qr_scan,No,No,15,"KEY,CREDITCARD",40,2021/11/07 23:02:59+00,,"Alexandria, VA"
-77.03352722,38.90200912,30373347,38.902,-77.03353,15th & K St NW,classic,193,active,2021/11/07 22:19:13+00,12,0,14,0,1,Yes,Yes,Yes,Yes,https://dc.lft.to/lastmile_qr_scan,https://dc.lft.to/lastmile_qr_scan,No,No,27,"KEY,CREDITCARD",42,2021/11/07 23:02:59+00,,"Washington, DC"
-77.0529274,38.80565676,30373348,38.805648,-77.05293,Commerce St & Fayette St,classic,194,active,2021/11/07 18:10:10+00,9,0,5,0,1,Yes,Yes,Yes,Yes,https://dc.lft.to/lastmile_qr_scan,https://dc.lft.to/lastmile_qr_scan,No,No,15,"KEY,CREDITCARD",40,2021/11/07 23:02:59+00,,"Alexandria, VA"
-77.0502835,38.8114594,30373349,38.811456,-77.050276,Henry St & Pendleton St,classic,195,active,2021/11/07 21:03:03+00,13,0,4,1,0,Yes,Yes,Yes,Yes,https://dc.lft.to/lastmile_qr_scan,https://dc.lft.to/lastmile_qr_scan,No,No,17,"KEY,CREDITCARD",40,2021/11/07 23:02:59+00,,"Alexandria, VA"
-77.05280736,38.81458424,30373350,38.814577,-77.052808,Braddock Rd Metro,classic,196,active,2021/11/07 22:05:55+00,20,0,8,0,1,Yes,Yes,Yes,Yes,https://dc.lft.to/lastmile_qr_scan,https://dc.lft.to/lastmile_qr_scan,No,No,29,"KEY,CREDITCARD",40,2021/11/07 23:02:59+00,,"Alexandria, VA"
-77.06062967,38.80577012,30373351,38.805763,-77.060627,King St Metro South,classic,197,active,2021/11/07 18:27:08+00,17,0,6,1,0,Yes,Yes,Yes,Yes,https://dc.lft.to/lastmile_qr_scan,https://dc.lft.to/lastmile_qr_scan,No,No,23,"KEY,CREDITCARD",40,2021/11/07 23:02:59+00,,"Alexandria, VA"
-77.05152656,38.90660584,30373352,38.9066,-77.05152,24th & N St NW,classic,198,active,2021/11/07 21:20:54+00,1,0,14,0,0,Yes,Yes,Yes,Yes,https://dc.lft.to/lastmile_qr_scan,https://dc.lft.to/lastmile_qr_scan,No,No,15,"KEY,CREDITCARD",42,2021/11/07 23:02:59+00,,"Washington, DC"
-77.02606604,38.89592138,30373353,38.895914,-77.026064,10th & E St NW,classic,199,active,2021/11/07 22:44:09+00,7,0,8,0,0,Yes,Yes,Yes,Yes,https://dc.lft.to/lastmile_qr_scan,https://dc.lft.to/lastmile_qr_scan,No,No,15,"KEY,CREDITCARD",42,2021/11/07 23:02:59+00,,"Washington, DC"
-77.04891703,38.90088666,30373354,38.90088,-77.048911,22nd & I St NW / Foggy Bottom,classic,200,active,2021/11/07 21:04:01+00,1,0,14,0,0,Yes,Yes,Yes,Yes,https://dc.lft.to/lastmile_qr_scan,https://dc.lft.to/lastmile_qr_scan,No,No,15,"KEY,CREDITCARD",42,2021/11/07 23:02:59+00,,"Washington, DC"
-77.11390941,38.8836804,30373355,38.883669,-77.113905,Utah St & 11th St N,classic,201,active,2021/11/07 20:38:29+00,4,0,7,0,0,Yes,Yes,Yes,Yes,https://dc.lft.to/lastmile_qr_scan,https://dc.lft.to/lastmile_qr_scan,No,No,11,"KEY,CREDITCARD",41,2021/11/07 23:02:59+00,,"Arlington, VA"
-77.08777101,38.88497315,30373356,38.884961,-77.08777,Barton St & 10th St N,classic,202,active,2021/11/07 21:06:12+00,8,0,3,0,0,Yes,Yes,Yes,Yes,https://dc.lft.to/lastmile_qr_scan,https://dc.lft.to/lastmile_qr_scan,No,No,11,"KEY,CREDITCARD",41,2021/11/07 23:02:59+00,,"Arlington, VA"
-77.07729886,38.88937664,30373357,38.889365,-77.077294,Arlington Blvd & N Queen St,classic,203,active,2021/11/07 19:00:51+00,5,0,6,0,0,Yes,Yes,Yes,Yes,https://dc.lft.to/lastmile_qr_scan,https://dc.lft.to/lastmile_qr_scan,No,No,11,"KEY,CREDITCARD",41,2021/11/07 23:02:59+00,,"Arlington, VA"
-77.04943858,38.88826571,30373358,38.888255,-77.049437,Lincoln Memorial,classic,204,active,2021/11/07 23:00:27+00,6,0,16,0,3,Yes,Yes,Yes,Yes,https://dc.lft.to/lastmile_qr_scan,https://dc.lft.to/lastmile_qr_scan,No,No,25,"KEY,CREDITCARD",42,2021/11/07 23:02:59+00,,"Washington, DC"
-77.04513183,38.89472646,30373359,38.894722,-77.045128,20th St & Virginia Ave NW,classic,206,active,2021/11/07 19:03:47+00,15,0,0,0,0,Yes,Yes,Yes,Yes,https://dc.lft.to/lastmile_qr_scan,https://dc.lft.to/lastmile_qr_scan,No,No,15,"KEY,CREDITCARD",42,2021/11/07 23:02:59+00,,"Washington, DC"
-77.01867821,38.90094045,30373360,38.90093,-77.018677,5th St & Massachusetts Ave NW,classic,207,active,2021/11/07 22:51:37+00,4,0,15,0,0,Yes,Yes,Yes,Yes,https://dc.lft.to/lastmile_qr_scan,https://dc.lft.to/lastmile_qr_scan,No,No,19,"KEY,CREDITCARD",42,2021/11/07 23:02:59+00,,"Washington, DC"
-77.07708107,38.94384119,30373361,38.943837,-77.077078,39th & Veazey St NW,classic,208,active,2021/11/07 18:19:30+00,11,0,4,0,0,Yes,Yes,Yes,Yes,https://dc.lft.to/lastmile_qr_scan,https://dc.lft.to/lastmile_qr_scan,No,No,15,"KEY,CREDITCARD",42,2021/11/07 23:02:59+00,,"Washington, DC"
-77.08242306,38.95481864,30373362,38.954812,-77.082426,Fessenden St & Wisconsin Ave NW,classic,209,active,2021/11/07 21:54:21+00,15,0,0,0,0,Yes,Yes,Yes,Yes,https://dc.lft.to/lastmile_qr_scan,https://dc.lft.to/lastmile_qr_scan,No,No,15,"KEY,CREDITCARD",42,2021/11/07 23:02:59+00,,"Washington, DC"
-77.00213516,38.90548213,30373363,38.90547,-77.00213,3rd & M St NE,classic,210,active,2021/11/07 22:57:43+00,5,0,18,1,0,Yes,Yes,Yes,Yes,https://dc.lft.to/lastmile_qr_scan,https://dc.lft.to/lastmile_qr_scan,No,No,23,"KEY,CREDITCARD",42,2021/11/07 23:02:59+00,,"Washington, DC"
-77.08032463,38.86384479,30373364,38.863833,-77.080319,Columbia Pike & S Courthouse Rd,classic,211,active,2021/11/07 17:06:15+00,10,0,5,1,0,Yes,Yes,Yes,Yes,https://dc.lft.to/lastmile_qr_scan,https://dc.lft.to/lastmile_qr_scan,No,No,15,"KEY,CREDITCARD",41,2021/11/07 23:02:59+00,,"Arlington, VA"
-77.11254937,38.84713456,30373365,38.847129,-77.11255,Wakefield High School,classic,212,active,2021/11/07 04:14:20+00,7,0,4,1,0,Yes,Yes,Yes,Yes,https://dc.lft.to/lastmile_qr_scan,https://dc.lft.to/lastmile_qr_scan,No,No,11,"KEY,CREDITCARD",41,2021/11/07 23:02:59+00,,"Arlington, VA"
-77.06928063,38.84623138,30373366,38.846222,-77.069275,28th St & S Meade St,classic,213,active,2021/11/07 19:13:34+00,10,0,5,2,0,Yes,Yes,Yes,Yes,https://dc.lft.to/lastmile_qr_scan,https://dc.lft.to/lastmile_qr_scan,No,No,15,"KEY,CREDITCARD",41,2021/11/07 23:02:59+00,,"Arlington, VA"
-77.04157239,38.91881611,30373367,38.918809,-77.041571,18th St & Wyoming Ave NW,classic,214,active,2021/11/07 22:50:14+00,21,0,1,0,0,Yes,Yes,Yes,Yes,https://dc.lft.to/lastmile_qr_scan,https://dc.lft.to/lastmile_qr_scan,No,No,23,"KEY,CREDITCARD",42,2021/11/07 23:02:59+00,,"Washington, DC"
-77.01981191,38.95656659,30373368,38.956556,-77.019814,5th & Kennedy St NW,classic,215,active,2021/11/07 18:46:05+00,12,0,3,0,0,Yes,Yes,Yes,Yes,https://dc.lft.to/lastmile_qr_scan,https://dc.lft.to/lastmile_qr_scan,No,No,15,"KEY,CREDITCARD",42,2021/11/07 23:02:59+00,,"Washington, DC"
-77.02733161,38.94967375,30373369,38.949662,-77.027333,Georgia Ave & Emerson St NW,classic,216,active,2021/11/07 16:59:47+00,19,0,0,0,0,Yes,Yes,Yes,Yes,https://dc.lft.to/lastmile_qr_scan,https://dc.lft.to/lastmile_qr_scan,No,No,19,"KEY,CREDITCARD",42,2021/11/07 23:02:59+00,,"Washington, DC"
-77.03268113,38.94248376,30373370,38.942475,-77.032678,14th & Upshur St NW,classic,217,active,2021/11/07 19:34:57+00,15,0,4,3,0,Yes,Yes,Yes,Yes,https://dc.lft.to/lastmile_qr_scan,https://dc.lft.to/lastmile_qr_scan,No,No,19,"KEY,CREDITCARD",42,2021/11/07 23:02:59+00,,"Washington, DC"
-77.03295288,38.95643751,30373371,38.956432,-77.032947,14th St & Colorado Ave NW,classic,218,active,2021/11/07 17:40:37+00,16,0,3,1,0,Yes,Yes,Yes,Yes,https://dc.lft.to/lastmile_qr_scan,https://dc.lft.to/lastmile_qr_scan,No,No,19,"KEY,CREDITCARD",42,2021/11/07 23:02:59+00,,"Washington, DC"
-77.07511135,38.84798442,30373372,38.847977,-77.075104,Troy St & 26th St S,classic,219,active,2021/11/07 19:59:59+00,9,0,2,0,0,Yes,Yes,Yes,Yes,https://dc.lft.to/lastmile_qr_scan,https://dc.lft.to/lastmile_qr_scan,No,No,11,"KEY,CREDITCARD",41,2021/11/07 23:02:59+00,,"Arlington, VA"
-77.08593566,38.8444096,30373373,38.8444,-77.085931,Four Mile Run Dr & S Shirlington Rd,classic,220,active,2021/11/07 16:29:06+00,0,0,11,0,0,Yes,Yes,Yes,Yes,https://dc.lft.to/lastmile_qr_scan,https://dc.lft.to/lastmile_qr_scan,No,No,11,"KEY,CREDITCARD",41,2021/11/07 23:02:59+00,,"Arlington, VA"
-77.05116676,38.99968847,30373374,38.999679,-77.051168,Lyttonsville Rd & Lyttonsville Pl,classic,388,active,2021/11/07 20:07:37+00,12,0,3,1,0,Yes,Yes,Yes,Yes,https://dc.lft.to/lastmile_qr_scan,https://dc.lft.to/lastmile_qr_scan,No,No,15,"KEY,CREDITCARD",44,2021/11/07 23:02:59+00,,"Montgomery County, MD (South)"
-77.09351999,38.97988025,30373375,38.979875,-77.093522,Woodmont Ave & Strathmore St,classic,389,active,2021/11/07 19:36:11+00,6,0,5,0,0,Yes,Yes,Yes,Yes,https://dc.lft.to/lastmile_qr_scan,https://dc.lft.to/lastmile_qr_scan,No,No,11,"KEY,CREDITCARD",44,2021/11/07 23:02:59+00,,"Montgomery County, MD (South)"
-77.03174104,38.90366716,30373376,38.903658,-77.031737,14th & L St NW,classic,390,active,2021/11/07 22:14:25+00,18,0,1,0,0,Yes,Yes,Yes,Yes,https://dc.lft.to/lastmile_qr_scan,https://dc.lft.to/lastmile_qr_scan,No,No,19,"KEY,CREDITCARD",42,2021/11/07 23:02:59+00,,"Washington, DC"
-77.01236201,38.90865244,30373377,38.908643,-77.012365,1st & O St NW,classic,391,active,2021/11/07 22:45:06+00,2,0,12,2,1,Yes,Yes,Yes,Yes,https://dc.lft.to/lastmile_qr_scan,https://dc.lft.to/lastmile_qr_scan,No,No,15,"KEY,CREDITCARD",42,2021/11/07 23:02:59+00,,"Washington, DC"
-77.00813338,38.83152283,30373378,38.831516,-77.008133,South Capitol & Atlantic St SW,classic,392,active,2021/11/07 04:29:26+00,17,0,2,0,0,Yes,Yes,Yes,Yes,https://dc.lft.to/lastmile_qr_scan,https://dc.lft.to/lastmile_qr_scan,No,No,19,"KEY,CREDITCARD",42,2021/11/07 23:02:59+00,,"Washington, DC"
-77.04154613,38.89352067,30373379,38.893511,-77.041544,18th & C St NW,classic,393,active,2021/11/07 19:13:04+00,16,0,3,0,0,Yes,Yes,Yes,Yes,https://dc.lft.to/lastmile_qr_scan,https://dc.lft.to/lastmile_qr_scan,No,No,19,"KEY,CREDITCARD",42,2021/11/07 23:02:59+00,,"Washington, DC"
-77.04872686,38.90939963,30373380,38.909394,-77.048728,22nd & P ST NW,classic,394,active,2021/11/07 22:59:51+00,5,0,13,1,1,Yes,Yes,Yes,Yes,https://dc.lft.to/lastmile_qr_scan,https://dc.lft.to/lastmile_qr_scan,No,No,19,"KEY,CREDITCARD",42,2021/11/07 23:02:59+00,,"Washington, DC"
-77.03871979,38.9956846,30373381,38.995681,-77.038721,East West Hwy & 16th St,classic,395,active,2021/11/07 10:16:43+00,18,0,1,1,0,Yes,Yes,Yes,Yes,https://dc.lft.to/lastmile_qr_scan,https://dc.lft.to/lastmile_qr_scan,No,No,19,"KEY,CREDITCARD",44,2021/11/07 23:02:59+00,,"Montgomery County, MD (South)"
-77.04470314,38.79927317,30373382,38.799267,-77.0447,Royal St & Wilkes St,classic,396,active,2021/11/07 14:36:22+00,1,0,14,1,0,Yes,Yes,Yes,Yes,https://dc.lft.to/lastmile_qr_scan,https://dc.lft.to/lastmile_qr_scan,No,No,15,"KEY,CREDITCARD",40,2021/11/07 23:02:59+00,,"Alexandria, VA"
-77.03237341,38.92529601,30373383,38.925284,-77.032375,14th & Girard St NW,classic,397,active,2021/11/07 22:43:51+00,21,0,1,0,0,Yes,Yes,Yes,Yes,https://dc.lft.to/lastmile_qr_scan,https://dc.lft.to/lastmile_qr_scan,No,No,23,"KEY,CREDITCARD",42,2021/11/07 23:02:59+00,,"Washington, DC"
-77.04926655,38.82274747,30373384,38.822738,-77.049265,Potomac Ave & Main Line Blvd,classic,398,active,2021/11/07 21:34:10+00,3,0,16,2,0,Yes,Yes,Yes,Yes,https://dc.lft.to/lastmile_qr_scan,https://dc.lft.to/lastmile_qr_scan,No,No,19,"KEY,CREDITCARD",40,2021/11/07 23:02:59+00,,"Alexandria, VA"
-77.02714286,38.90843374,30373385,38.90843,-77.02714,11th & O St NW,classic,399,active,2021/11/07 22:28:19+00,7,0,8,0,4,Yes,Yes,Yes,Yes,https://dc.lft.to/lastmile_qr_scan,https://dc.lft.to/lastmile_qr_scan,No,No,19,"KEY,CREDITCARD",42,2021/11/07 23:02:59+00,,"Washington, DC"
-77.0260157,38.88432761,30373386,38.884323,-77.02601,10th St & L'Enfant Plaza SW,classic,400,active,2021/11/07 22:41:47+00,22,0,1,0,0,Yes,Yes,Yes,Yes,https://dc.lft.to/lastmile_qr_scan,https://dc.lft.to/lastmile_qr_scan,No,No,23,"KEY,CREDITCARD",42,2021/11/07 23:02:59+00,,"Washington, DC"
-77.06512201,38.94716351,30373387,38.947156,-77.065115,Connecticut Ave & Yuma St NW,classic,401,active,2021/11/07 22:52:30+00,17,0,1,0,1,Yes,Yes,Yes,Yes,https://dc.lft.to/lastmile_qr_scan,https://dc.lft.to/lastmile_qr_scan,No,No,19,"KEY,CREDITCARD",42,2021/11/07 23:02:59+00,,"Washington, DC"
-77.00313773,38.89497836,30373388,38.894972,-77.003135,2nd St & Massachusetts Ave NE,classic,402,active,2021/11/07 22:21:23+00,13,0,10,0,0,Yes,Yes,Yes,Yes,https://dc.lft.to/lastmile_qr_scan,https://dc.lft.to/lastmile_qr_scan,No,No,23,"KEY,CREDITCARD",42,2021/11/07 23:02:59+00,,"Washington, DC"
-77.08603162,38.82844654,30373389,38.828437,-77.086031,Radford St & Osage St,classic,403,active,2021/11/07 04:29:31+00,20,0,3,2,0,Yes,Yes,Yes,Yes,https://dc.lft.to/lastmile_qr_scan,https://dc.lft.to/lastmile_qr_scan,No,No,23,"KEY,CREDITCARD",40,2021/11/07 23:02:59+00,,"Alexandria, VA"
-77.15643084,38.88532477,30373390,38.885321,-77.156427,East Falls Church Metro / Sycamore St & 19th St N,classic,404,active,2021/11/07 13:34:48+00,14,0,5,1,0,Yes,Yes,Yes,Yes,https://dc.lft.to/lastmile_qr_scan,https://dc.lft.to/lastmile_qr_scan,No,No,19,"KEY,CREDITCARD",41,2021/11/07 23:02:59+00,,"Arlington, VA"
-77.13527273,38.88100013,30373391,38.880992,-77.135271,Kennebec St & 11th St N,classic,405,active,2021/11/07 15:29:07+00,7,0,8,0,0,Yes,Yes,Yes,Yes,https://dc.lft.to/lastmile_qr_scan,https://dc.lft.to/lastmile_qr_scan,No,No,15,"KEY,CREDITCARD",41,2021/11/07 23:02:59+00,,"Arlington, VA"
-77.06171789,38.81271511,30373392,38.812711,-77.061715,Commonwealth Ave & Oak St,classic,406,active,2021/11/07 10:00:15+00,13,0,2,1,0,Yes,Yes,Yes,Yes,https://dc.lft.to/lastmile_qr_scan,https://dc.lft.to/lastmile_qr_scan,No,No,15,"KEY,CREDITCARD",40,2021/11/07 23:02:59+00,,"Alexandria, VA"
-77.0628182,38.82006544,30373393,38.820058,-77.062821,Commonwealth Ave & E Monroe Ave,classic,407,active,2021/11/07 11:25:32+00,8,0,7,0,0,Yes,Yes,Yes,Yes,https://dc.lft.to/lastmile_qr_scan,https://dc.lft.to/lastmile_qr_scan,No,No,15,"KEY,CREDITCARD",40,2021/11/07 23:02:59+00,,"Alexandria, VA"
-77.01724617,38.89049997,30373394,38.890496,-77.017247,4th St & Madison Dr NW,classic,408,active,2021/11/07 22:52:25+00,25,0,4,0,1,Yes,Yes,Yes,Yes,https://dc.lft.to/lastmile_qr_scan,https://dc.lft.to/lastmile_qr_scan,No,No,31,"KEY,CREDITCARD",42,2021/11/07 23:02:59+00,,"Washington, DC"
-77.04938253,38.89054485,30373395,38.890539,-77.049383,Henry Bacon Dr & Lincoln Memorial Circle NW,classic,409,active,2021/11/07 19:55:24+00,11,0,8,0,0,Yes,Yes,Yes,Yes,https://dc.lft.to/lastmile_qr_scan,https://dc.lft.to/lastmile_qr_scan,No,No,19,"KEY,CREDITCARD",42,2021/11/07 23:02:59+00,,"Washington, DC"
-77.03832714,38.88810774,30373396,38.888097,-77.038325,17th St & Independence Ave SW,classic,410,active,2021/11/07 18:05:27+00,15,0,2,1,2,Yes,Yes,Yes,Yes,https://dc.lft.to/lastmile_qr_scan,https://dc.lft.to/lastmile_qr_scan,No,No,19,"KEY,CREDITCARD",42,2021/11/07 23:02:59+00,,"Washington, DC"
-77.04869701,38.7981365,30373397,38.798133,-77.0487,Franklin St & S Washington St,classic,411,active,2021/11/07 16:11:16+00,6,0,13,1,0,Yes,Yes,Yes,Yes,https://dc.lft.to/lastmile_qr_scan,https://dc.lft.to/lastmile_qr_scan,No,No,19,"KEY,CREDITCARD",40,2021/11/07 23:02:59+00,,"Alexandria, VA"
-77.06401371,38.84343276,30373398,38.843422,-77.064016,Mount Vernon Ave & Four Mile Run Park,classic,412,active,2021/11/07 21:39:32+00,4,0,11,3,0,Yes,Yes,Yes,Yes,https://dc.lft.to/lastmile_qr_scan,https://dc.lft.to/lastmile_qr_scan,No,No,15,"KEY,CREDITCARD",40,2021/11/07 23:02:59+00,,"Alexandria, VA"
-77.01600396,38.90241822,30373399,38.902406,-77.016006,4th St & K St NW,classic,413,active,2021/11/07 21:35:20+00,10,0,12,0,1,Yes,Yes,Yes,Yes,https://dc.lft.to/lastmile_qr_scan,https://dc.lft.to/lastmile_qr_scan,No,No,23,"KEY,CREDITCARD",42,2021/11/07 23:02:59+00,,"Washington, DC"
-77.09713259,38.89538844,30373400,38.895377,-77.09713,Langston Blvd & N Kirkwood St,classic,356,active,2021/11/07 13:13:06+00,7,0,8,2,0,Yes,Yes,Yes,Yes,https://dc.lft.to/lastmile_qr_scan,https://dc.lft.to/lastmile_qr_scan,No,No,15,"KEY,CREDITCARD",41,2021/11/07 23:02:59+00,,"Arlington, VA"
-77.04318595,38.89842063,30373401,38.898412,-77.043182,19th & G St NW,classic,357,active,2021/11/07 21:08:09+00,19,0,4,0,0,Yes,Yes,Yes,Yes,https://dc.lft.to/lastmile_qr_scan,https://dc.lft.to/lastmile_qr_scan,No,No,23,"KEY,CREDITCARD",42,2021/11/07 23:02:59+00,,"Washington, DC"
-77.00356523,38.91476069,30373402,38.914751,-77.00356,2nd St & Seaton Pl NE,classic,358,active,2021/11/07 22:47:33+00,15,0,4,1,0,Yes,Yes,Yes,Yes,https://dc.lft.to/lastmile_qr_scan,https://dc.lft.to/lastmile_qr_scan,No,No,19,"KEY,CREDITCARD",42,2021/11/07 23:02:59+00,,"Washington, DC"
-77.12712802,38.87653211,30373403,38.876528,-77.12712,Wilson Blvd & N Illinois St ,classic,359,active,2021/11/07 18:31:02+00,5,0,10,1,0,Yes,Yes,Yes,Yes,https://dc.lft.to/lastmile_qr_scan,https://dc.lft.to/lastmile_qr_scan,No,No,15,"KEY,CREDITCARD",41,2021/11/07 23:02:59+00,,"Arlington, VA"
-77.06812084,38.86215897,30373404,38.86215,-77.068121,Army Navy Dr & S Nash St,classic,364,active,2021/11/07 19:44:55+00,9,0,2,1,0,Yes,Yes,Yes,Yes,https://dc.lft.to/lastmile_qr_scan,https://dc.lft.to/lastmile_qr_scan,No,No,11,"KEY,CREDITCARD",41,2021/11/07 23:02:59+00,,"Arlington, VA"
-77.06017033,38.90283622,30373405,38.902826,-77.060173,Thomas Jefferson St NW & Water/K St NW,classic,365,active,2021/11/07 18:31:00+00,0,0,19,0,0,Yes,Yes,Yes,Yes,https://dc.lft.to/lastmile_qr_scan,https://dc.lft.to/lastmile_qr_scan,No,No,19,"KEY,CREDITCARD",42,2021/11/07 23:02:59+00,,"Washington, DC"
-77.02702959,38.9137667,30373406,38.913761,-77.027025,11th & S St NW,classic,367,active,2021/11/07 22:06:58+00,7,0,16,0,0,Yes,Yes,Yes,Yes,https://dc.lft.to/lastmile_qr_scan,https://dc.lft.to/lastmile_qr_scan,No,No,23,"KEY,CREDITCARD",42,2021/11/07 23:02:59+00,,"Washington, DC"
-77.08787459,38.8661275,30373407,38.86612,-77.08787,Walter Reed Dr & 8th St S,classic,368,active,2021/11/07 22:45:03+00,6,0,9,1,0,Yes,Yes,Yes,Yes,https://dc.lft.to/lastmile_qr_scan,https://dc.lft.to/lastmile_qr_scan,No,No,15,"KEY,CREDITCARD",41,2021/11/07 23:02:59+00,,"Arlington, VA"
-77.00366823,38.89968071,30373408,38.89967,-77.003666,2nd & G St NE,classic,369,active,2021/11/07 23:01:17+00,5,0,17,0,1,Yes,Yes,Yes,Yes,https://dc.lft.to/lastmile_qr_scan,https://dc.lft.to/lastmile_qr_scan,No,No,23,"KEY,CREDITCARD",42,2021/11/07 23:02:59+00,,"Washington, DC"
-77.02277323,38.90865087,30373409,38.90864,-77.02277,8th & O St NW,classic,370,active,2021/11/07 22:55:31+00,6,0,12,0,1,Yes,Yes,Yes,Yes,https://dc.lft.to/lastmile_qr_scan,https://dc.lft.to/lastmile_qr_scan,No,No,19,"KEY,CREDITCARD",42,2021/11/07 23:02:59+00,,"Washington, DC"
-77.0278553,38.96134834,30373410,38.961339,-77.027855,Georgia & Missouri Ave NW,classic,371,active,2021/11/07 18:03:46+00,14,0,4,0,1,Yes,Yes,Yes,Yes,https://dc.lft.to/lastmile_qr_scan,https://dc.lft.to/lastmile_qr_scan,No,No,19,"KEY,CREDITCARD",42,2021/11/07 23:02:59+00,,"Washington, DC"
-76.97482665,38.89448023,30373411,38.894474,-76.974828,Oklahoma Ave & D St NE,classic,373,active,2021/11/07 20:00:20+00,9,0,10,0,0,Yes,Yes,Yes,Yes,https://dc.lft.to/lastmile_qr_scan,https://dc.lft.to/lastmile_qr_scan,No,No,19,"KEY,CREDITCARD",42,2021/11/07 23:02:59+00,,"Washington, DC"
-76.99278601,38.89623035,30373412,38.896226,-76.992786,Maryland Ave & E St NE,classic,374,active,2021/11/07 22:46:36+00,0,0,18,0,0,Yes,Yes,Yes,Yes,https://dc.lft.to/lastmile_qr_scan,https://dc.lft.to/lastmile_qr_scan,No,No,19,"KEY,CREDITCARD",42,2021/11/07 23:02:59+00,,"Washington, DC"
-76.98368632,38.9156154,30373413,38.915604,-76.983683,New York Ave & Hecht Ave NE,classic,375,active,2021/11/07 22:47:12+00,20,0,3,1,0,Yes,Yes,Yes,Yes,https://dc.lft.to/lastmile_qr_scan,https://dc.lft.to/lastmile_qr_scan,No,No,23,"KEY,CREDITCARD",42,2021/11/07 23:02:59+00,,"Washington, DC"
-77.08059045,38.94618998,30373414,38.946182,-77.08059,Yuma St & Tenley Circle NW,classic,376,active,2021/11/07 17:09:33+00,17,0,2,0,0,Yes,Yes,Yes,Yes,https://dc.lft.to/lastmile_qr_scan,https://dc.lft.to/lastmile_qr_scan,No,No,19,"KEY,CREDITCARD",42,2021/11/07 23:02:59+00,,"Washington, DC"
-77.07698541,38.99412528,30373415,38.994113,-77.076986,Connecticut Ave & Chevy Chase Lake Dr,classic,377,active,2021/11/07 22:04:01+00,8,0,7,1,0,Yes,Yes,Yes,Yes,https://dc.lft.to/lastmile_qr_scan,https://dc.lft.to/lastmile_qr_scan,No,No,15,"KEY,CREDITCARD",44,2021/11/07 23:02:59+00,,"Montgomery County, MD (South)"
-77.19477853,39.10530163,30373416,39.105295,-77.194774,Key West Ave & Siesta Key Way,classic,378,active,2021/11/07 04:29:24+00,11,0,4,0,0,Yes,Yes,Yes,Yes,https://dc.lft.to/lastmile_qr_scan,https://dc.lft.to/lastmile_qr_scan,No,No,15,"KEY,CREDITCARD",43,2021/11/07 23:02:59+00,,"Montgomery County, MD (North)"
-77.11801365,38.89830594,30373417,38.898301,-77.118009,Langston Blvd & N Woodstock St,classic,379,active,2021/11/07 21:20:54+00,16,0,2,1,1,Yes,Yes,Yes,Yes,https://dc.lft.to/lastmile_qr_scan,https://dc.lft.to/lastmile_qr_scan,No,No,19,"KEY,CREDITCARD",41,2021/11/07 23:02:59+00,,"Arlington, VA"
-77.04410131,38.81272309,30373418,38.812718,-77.044097,Saint Asaph St & Madison St,classic,380,active,2021/11/07 18:09:15+00,3,0,12,0,0,Yes,Yes,Yes,Yes,https://dc.lft.to/lastmile_qr_scan,https://dc.lft.to/lastmile_qr_scan,No,No,15,"KEY,CREDITCARD",40,2021/11/07 23:02:59+00,,"Alexandria, VA"
-77.05982484,38.80704975,30373419,38.80704,-77.059817,King St Metro North / Cameron St,classic,381,active,2021/11/07 22:02:36+00,2,0,13,1,0,Yes,Yes,Yes,Yes,https://dc.lft.to/lastmile_qr_scan,https://dc.lft.to/lastmile_qr_scan,No,No,15,"KEY,CREDITCARD",40,2021/11/07 23:02:59+00,,"Alexandria, VA"
-77.04946742,38.81349567,30373420,38.813485,-77.049468,Madison St & N Henry St,classic,382,active,2021/11/07 04:29:24+00,13,0,2,0,0,Yes,Yes,Yes,Yes,https://dc.lft.to/lastmile_qr_scan,https://dc.lft.to/lastmile_qr_scan,No,No,15,"KEY,CREDITCARD",40,2021/11/07 23:02:59+00,,"Alexandria, VA"
-77.09788626,38.99938846,30373421,38.999378,-77.097882,Medical Center Metro ,classic,383,active,2021/11/07 16:18:09+00,15,0,3,0,1,Yes,Yes,Yes,Yes,https://dc.lft.to/lastmile_qr_scan,https://dc.lft.to/lastmile_qr_scan,No,No,19,"KEY,CREDITCARD",44,2021/11/07 23:02:59+00,,"Montgomery County, MD (South)"
-77.127673,38.88483726,30373422,38.884829,-77.127671,Washington Blvd & N Frederick St,classic,384,active,2021/11/07 04:29:29+00,11,0,0,0,0,Yes,Yes,Yes,Yes,https://dc.lft.to/lastmile_qr_scan,https://dc.lft.to/lastmile_qr_scan,No,No,11,"KEY,CREDITCARD",41,2021/11/07 23:02:59+00,,"Arlington, VA"
-77.08464229,38.95827623,30373423,38.958267,-77.084636,Wisconsin Ave & Ingomar St NW,classic,385,active,2021/11/07 16:28:42+00,19,0,0,0,0,Yes,Yes,Yes,Yes,https://dc.lft.to/lastmile_qr_scan,https://dc.lft.to/lastmile_qr_scan,No,No,19,"KEY,CREDITCARD",42,2021/11/07 23:02:59+00,,"Washington, DC"
-77.03625009,38.92889819,30373424,38.928893,-77.03625,16th & Irving St NW,classic,386,active,2021/11/07 22:43:16+00,17,0,2,0,0,Yes,Yes,Yes,Yes,https://dc.lft.to/lastmile_qr_scan,https://dc.lft.to/lastmile_qr_scan,No,No,19,"KEY,CREDITCARD",42,2021/11/07 23:02:59+00,,"Washington, DC"
-77.03627642,38.91265617,30373425,38.912652,-77.036278,16th & R St NW,classic,387,active,2021/11/07 23:01:07+00,7,0,11,0,1,Yes,Yes,Yes,Yes,https://dc.lft.to/lastmile_qr_scan,https://dc.lft.to/lastmile_qr_scan,No,No,19,"KEY,CREDITCARD",42,2021/11/07 23:02:59+00,,"Washington, DC"
-77.0958642,38.86079723,30373426,38.860789,-77.09586,Columbia Pike & S Oakland St,classic,221,active,2021/11/07 19:14:10+00,4,0,7,0,0,Yes,Yes,Yes,Yes,https://dc.lft.to/lastmile_qr_scan,https://dc.lft.to/lastmile_qr_scan,No,No,11,"KEY,CREDITCARD",41,2021/11/07 23:02:59+00,,"Arlington, VA"
-77.09543145,38.84736601,30373427,38.84736,-77.095431,Four Mile Run Dr & S Walter Reed Dr,classic,222,active,2021/11/07 14:48:25+00,3,0,8,1,0,Yes,Yes,Yes,Yes,https://dc.lft.to/lastmile_qr_scan,https://dc.lft.to/lastmile_qr_scan,No,No,11,"KEY,CREDITCARD",41,2021/11/07 23:02:59+00,,"Arlington, VA"
-77.0895616,38.84232593,30373428,38.84232,-77.089555,S Arlington Mill Dr & Campbell Ave,classic,223,active,2021/11/07 16:48:03+00,4,0,11,1,0,Yes,Yes,Yes,Yes,https://dc.lft.to/lastmile_qr_scan,https://dc.lft.to/lastmile_qr_scan,No,No,15,"KEY,CREDITCARD",41,2021/11/07 23:02:59+00,,"Arlington, VA"
-77.08491527,38.84846415,30373429,38.848454,-77.084918,Kenmore St & 24th St S,classic,224,active,2021/11/07 04:19:18+00,8,0,3,0,0,Yes,Yes,Yes,Yes,https://dc.lft.to/lastmile_qr_scan,https://dc.lft.to/lastmile_qr_scan,No,No,11,"KEY,CREDITCARD",41,2021/11/07 23:02:59+00,,"Arlington, VA"
-77.02942354,38.9870034,30373430,38.987,-77.029417,13th St & Eastern Ave,classic,225,active,2021/11/07 19:17:00+00,11,0,4,1,0,Yes,Yes,Yes,Yes,https://dc.lft.to/lastmile_qr_scan,https://dc.lft.to/lastmile_qr_scan,No,No,15,"KEY,CREDITCARD",44,2021/11/07 23:02:59+00,,"Montgomery County, MD (South)"
-77.06358786,38.90850066,30373431,38.90849,-77.063586,Wisconsin Ave & O St NW,classic,226,active,2021/11/07 21:52:29+00,1,0,17,1,1,Yes,Yes,Yes,Yes,https://dc.lft.to/lastmile_qr_scan,https://dc.lft.to/lastmile_qr_scan,No,No,19,"KEY,CREDITCARD",42,2021/11/07 23:02:59+00,,"Washington, DC"
-77.06713926,38.8965626,30373432,38.896553,-77.06714,Roosevelt Island,classic,227,active,2021/11/07 18:13:49+00,6,0,9,0,1,Yes,Yes,Yes,Yes,https://dc.lft.to/lastmile_qr_scan,https://dc.lft.to/lastmile_qr_scan,No,No,17,"KEY,CREDITCARD",41,2021/11/07 23:02:59+00,,"Arlington, VA"
-77.06996323,38.95502494,30373433,38.955016,-77.069956,Connecticut & Nebraska Ave NW,classic,228,active,2021/11/07 22:19:08+00,22,0,1,1,0,Yes,Yes,Yes,Yes,https://dc.lft.to/lastmile_qr_scan,https://dc.lft.to/lastmile_qr_scan,No,No,23,"KEY,CREDITCARD",42,2021/11/07 23:02:59+00,,"Washington, DC"
-77.03836097,38.90815133,30373434,38.908142,-77.038359,17th St & Massachusetts Ave NW,classic,229,active,2021/11/07 22:18:43+00,8,0,11,1,0,Yes,Yes,Yes,Yes,https://dc.lft.to/lastmile_qr_scan,https://dc.lft.to/lastmile_qr_scan,No,No,19,"KEY,CREDITCARD",42,2021/11/07 23:02:59+00,,"Washington, DC"
-77.03519785,38.92334038,30373435,38.92333,-77.0352,15th & Euclid St NW,classic,230,active,2021/11/07 22:57:07+00,10,0,3,3,0,Yes,Yes,Yes,Yes,https://dc.lft.to/lastmile_qr_scan,https://dc.lft.to/lastmile_qr_scan,No,No,15,"KEY,CREDITCARD",42,2021/11/07 23:02:59+00,,"Washington, DC"
-76.9951957,38.88999668,30373436,38.889988,-76.995193,8th & East Capitol St NE,classic,231,active,2021/11/07 20:54:23+00,3,0,8,0,0,Yes,Yes,Yes,Yes,https://dc.lft.to/lastmile_qr_scan,https://dc.lft.to/lastmile_qr_scan,No,No,11,"KEY,CREDITCARD",42,2021/11/07 23:02:59+00,,"Washington, DC"
-77.01766662,38.91266948,30373437,38.912659,-77.017669,New Jersey Ave & R St NW,classic,232,active,2021/11/07 20:59:09+00,7,0,8,1,0,Yes,Yes,Yes,Yes,https://dc.lft.to/lastmile_qr_scan,https://dc.lft.to/lastmile_qr_scan,No,No,15,"KEY,CREDITCARD",42,2021/11/07 23:02:59+00,,"Washington, DC"
-76.98332334,38.88991451,30373438,38.889908,-76.983326,15th & East Capitol St NE,classic,233,active,2021/11/07 22:03:49+00,4,0,6,0,1,Yes,Yes,Yes,Yes,https://dc.lft.to/lastmile_qr_scan,https://dc.lft.to/lastmile_qr_scan,No,No,11,"KEY,CREDITCARD",42,2021/11/07 23:02:59+00,,"Washington, DC"
-76.99474563,38.89728443,30373439,38.897274,-76.994749,8th & F St NE,classic,234,active,2021/11/07 22:18:31+00,14,0,8,0,1,Yes,Yes,Yes,Yes,https://dc.lft.to/lastmile_qr_scan,https://dc.lft.to/lastmile_qr_scan,No,No,23,"KEY,CREDITCARD",42,2021/11/07 23:02:59+00,,"Washington, DC"
-76.97892074,38.92710025,30373440,38.927095,-76.978924,18th St & Rhode Island Ave NE,classic,235,active,2021/11/07 20:37:12+00,14,0,1,0,0,Yes,Yes,Yes,Yes,https://dc.lft.to/lastmile_qr_scan,https://dc.lft.to/lastmile_qr_scan,No,No,15,"KEY,CREDITCARD",42,2021/11/07 23:02:59+00,,"Washington, DC"
-76.98357525,38.89720232,30373441,38.897195,-76.983575,15th & F St NE,classic,236,active,2021/11/07 21:34:32+00,9,0,10,0,0,Yes,Yes,Yes,Yes,https://dc.lft.to/lastmile_qr_scan,https://dc.lft.to/lastmile_qr_scan,No,No,19,"KEY,CREDITCARD",42,2021/11/07 23:02:59+00,,"Washington, DC"
-76.99096055,38.92865123,30373442,38.928644,-76.990955,12th & Irving St NE,classic,237,active,2021/11/07 21:28:50+00,10,0,5,0,0,Yes,Yes,Yes,Yes,https://dc.lft.to/lastmile_qr_scan,https://dc.lft.to/lastmile_qr_scan,No,No,15,"KEY,CREDITCARD",42,2021/11/07 23:02:59+00,,"Washington, DC"
-76.99938025,38.8432341,30373443,38.84323,-76.999376,Alabama & MLK Ave SE,classic,239,active,2021/11/07 04:19:20+00,10,0,1,0,0,Yes,Yes,Yes,Yes,https://dc.lft.to/lastmile_qr_scan,https://dc.lft.to/lastmile_qr_scan,No,No,11,"KEY,CREDITCARD",42,2021/11/07 23:02:59+00,,"Washington, DC"
-76.99003544,38.86390803,30373444,38.863897,-76.990037,Pleasant St & MLK Ave SE,classic,240,active,2021/11/07 13:41:24+00,8,0,3,0,0,Yes,Yes,Yes,Yes,https://dc.lft.to/lastmile_qr_scan,https://dc.lft.to/lastmile_qr_scan,No,No,11,"KEY,CREDITCARD",42,2021/11/07 23:02:59+00,,"Washington, DC"
-76.98721684,38.90374284,30373445,38.903732,-76.987211,Neal St & Trinidad Ave NE,classic,241,active,2021/11/07 22:22:32+00,12,0,3,0,0,Yes,Yes,Yes,Yes,https://dc.lft.to/lastmile_qr_scan,https://dc.lft.to/lastmile_qr_scan,No,No,15,"KEY,CREDITCARD",42,2021/11/07 23:02:59+00,,"Washington, DC"
-77.0281377,38.91679324,30373446,38.916787,-77.028139,12th & U St NW,classic,242,active,2021/11/07 22:54:06+00,18,0,13,2,0,Yes,Yes,Yes,Yes,https://dc.lft.to/lastmile_qr_scan,https://dc.lft.to/lastmile_qr_scan,No,No,31,"KEY,CREDITCARD",42,2021/11/07 23:02:59+00,,"Washington, DC"
-77.10502304,38.85225837,30373447,38.852248,-77.105022,S George Mason & Four Mile Run Dr,classic,243,active,2021/11/07 16:39:00+00,10,0,1,1,0,Yes,Yes,Yes,Yes,https://dc.lft.to/lastmile_qr_scan,https://dc.lft.to/lastmile_qr_scan,No,No,11,"KEY,CREDITCARD",41,2021/11/07 23:02:59+00,,"Arlington, VA"
-77.0395131,38.86503683,30373448,38.865029,-77.039511,Gravelly Point,classic,244,active,2021/11/07 18:45:05+00,10,0,7,0,0,Yes,Yes,Yes,Yes,https://dc.lft.to/lastmile_qr_scan,https://dc.lft.to/lastmile_qr_scan,No,No,17,"KEY,CREDITCARD",41,2021/11/07 23:02:59+00,,"Arlington, VA"
-77.08596786,38.88071352,30373449,38.880705,-77.08596,Pershing Dr & Wayne St,classic,245,active,2021/11/07 19:33:14+00,6,0,5,2,0,Yes,Yes,Yes,Yes,https://dc.lft.to/lastmile_qr_scan,https://dc.lft.to/lastmile_qr_scan,No,No,11,"KEY,CREDITCARD",41,2021/11/07 23:02:59+00,,"Arlington, VA"
-77.07232006,38.86727323,30373450,38.867262,-77.072315,Columbia Pike & S Orme St,classic,246,active,2021/11/07 19:44:13+00,7,0,4,0,0,Yes,Yes,Yes,Yes,https://dc.lft.to/lastmile_qr_scan,https://dc.lft.to/lastmile_qr_scan,No,No,11,"KEY,CREDITCARD",41,2021/11/07 23:02:59+00,,"Arlington, VA"
-77.00196173,38.88738433,30373451,38.887378,-77.001955,3rd St & Pennsylvania Ave SE,classic,247,active,2021/11/07 21:37:57+00,11,0,4,0,0,Yes,Yes,Yes,Yes,https://dc.lft.to/lastmile_qr_scan,https://dc.lft.to/lastmile_qr_scan,No,No,15,"KEY,CREDITCARD",42,2021/11/07 23:02:59+00,,"Washington, DC"
-77.02324145,38.89485898,30373452,38.894851,-77.02324,8th & D St NW,classic,248,active,2021/11/07 22:48:56+00,8,0,5,0,2,Yes,Yes,Yes,Yes,https://dc.lft.to/lastmile_qr_scan,https://dc.lft.to/lastmile_qr_scan,No,No,15,"KEY,CREDITCARD",42,2021/11/07 23:02:59+00,,"Washington, DC"
-77.01597278,38.91763331,30373453,38.917622,-77.01597,3rd & Elm St NW,classic,249,active,2021/11/07 22:57:38+00,4,0,10,1,1,Yes,Yes,Yes,Yes,https://dc.lft.to/lastmile_qr_scan,https://dc.lft.to/lastmile_qr_scan,No,No,15,"KEY,CREDITCARD",42,2021/11/07 23:02:59+00,,"Washington, DC"
-77.00475311,38.9181658,30373454,38.918155,-77.004746,Rhode Island Ave & V St NE,classic,250,active,2021/11/07 18:34:40+00,6,0,13,0,0,Yes,Yes,Yes,Yes,https://dc.lft.to/lastmile_qr_scan,https://dc.lft.to/lastmile_qr_scan,No,No,19,"KEY,CREDITCARD",42,2021/11/07 23:02:59+00,,"Washington, DC"
-77.01391531,38.89228407,30373455,38.892275,-77.013917,Constitution Ave & 2nd St NW/DOL,classic,251,active,2021/11/07 21:08:33+00,17,0,8,0,2,Yes,Yes,Yes,Yes,https://dc.lft.to/lastmile_qr_scan,https://dc.lft.to/lastmile_qr_scan,No,No,27,"KEY,CREDITCARD",42,2021/11/07 23:02:59+00,,"Washington, DC"
-77.01377596,38.88698716,30373456,38.886978,-77.013769,Washington & Independence Ave SW/HHS,classic,252,active,2021/11/07 21:06:11+00,16,0,15,0,0,Yes,Yes,Yes,Yes,https://dc.lft.to/lastmile_qr_scan,https://dc.lft.to/lastmile_qr_scan,No,No,31,"KEY,CREDITCARD",42,2021/11/07 23:02:59+00,,"Washington, DC"
-77.02576322,38.88731844,30373457,38.887312,-77.025762,Independence Ave & L'Enfant Plaza SW/DOE,classic,253,active,2021/11/07 22:43:47+00,8,0,6,0,1,Yes,Yes,Yes,Yes,https://dc.lft.to/lastmile_qr_scan,https://dc.lft.to/lastmile_qr_scan,No,No,15,"KEY,CREDITCARD",42,2021/11/07 23:02:59+00,,"Washington, DC"
-76.99719985,38.92750749,30373458,38.927497,-76.997194,Hamlin & 7th St NE,classic,254,active,2021/11/07 19:15:08+00,14,0,1,1,0,Yes,Yes,Yes,Yes,https://dc.lft.to/lastmile_qr_scan,https://dc.lft.to/lastmile_qr_scan,No,No,15,"KEY,CREDITCARD",42,2021/11/07 23:02:59+00,,"Washington, DC"
-77.08660267,38.86248904,30373459,38.862478,-77.086599,Columbia Pike & S Walter Reed Dr,classic,255,active,2021/11/07 17:04:02+00,11,0,1,0,0,Yes,Yes,Yes,Yes,https://dc.lft.to/lastmile_qr_scan,https://dc.lft.to/lastmile_qr_scan,No,No,12,"KEY,CREDITCARD",41,2021/11/07 23:02:59+00,,"Arlington, VA"
-77.11152696,38.85632415,30373460,38.856319,-77.11153,Arlington Mill Cmty Center / Columbia Pike & S Dinwiddie St,classic,256,active,2021/11/07 20:09:11+00,2,0,13,3,0,Yes,Yes,Yes,Yes,https://dc.lft.to/lastmile_qr_scan,https://dc.lft.to/lastmile_qr_scan,No,No,15,"KEY,CREDITCARD",41,2021/11/07 23:02:59+00,,"Arlington, VA"
-77.10790972,38.87183104,30373461,38.871822,-77.107906,Pershing Dr & N George Mason Dr,classic,257,active,2021/11/07 20:00:34+00,9,0,2,0,0,Yes,Yes,Yes,Yes,https://dc.lft.to/lastmile_qr_scan,https://dc.lft.to/lastmile_qr_scan,No,No,11,"KEY,CREDITCARD",41,2021/11/07 23:02:59+00,,"Arlington, VA"
-77.02308632,38.98541037,30373462,38.985404,-77.023082,Fenton St & New York Ave ,classic,258,active,2021/11/07 17:50:03+00,13,0,2,1,0,Yes,Yes,Yes,Yes,https://dc.lft.to/lastmile_qr_scan,https://dc.lft.to/lastmile_qr_scan,No,No,15,"KEY,CREDITCARD",44,2021/11/07 23:02:59+00,,"Montgomery County, MD (South)"
-77.09742258,38.98111119,30373463,38.981103,-77.097426,Bethesda Ave & Arlington Rd,classic,259,active,2021/11/07 21:13:14+00,19,0,0,0,0,Yes,Yes,Yes,Yes,https://dc.lft.to/lastmile_qr_scan,https://dc.lft.to/lastmile_qr_scan,No,No,19,"KEY,CREDITCARD",44,2021/11/07 23:02:59+00,,"Montgomery County, MD (South)"
-77.09220943,38.98384491,30373464,38.983838,-77.09221,Montgomery Ave & Waverly St ,classic,260,active,2021/11/07 04:19:24+00,3,0,8,0,0,Yes,Yes,Yes,Yes,https://dc.lft.to/lastmile_qr_scan,https://dc.lft.to/lastmile_qr_scan,No,No,11,"KEY,CREDITCARD",44,2021/11/07 23:02:59+00,,"Montgomery County, MD (South)"
-77.19267314,39.09632413,30373465,39.096312,-77.192672,Fallsgrove Blvd & Fallsgrove Dr,classic,261,active,2021/11/07 14:05:15+00,13,0,6,0,0,Yes,Yes,Yes,Yes,https://dc.lft.to/lastmile_qr_scan,https://dc.lft.to/lastmile_qr_scan,No,No,19,"KEY,CREDITCARD",43,2021/11/07 23:02:59+00,,"Montgomery County, MD (North)"
-77.20250353,39.09379432,30373466,39.093783,-77.202501,Traville Gateway Dr & Gudelsky Dr,classic,262,active,2021/11/07 04:19:24+00,16,0,3,0,0,Yes,Yes,Yes,Yes,https://dc.lft.to/lastmile_qr_scan,https://dc.lft.to/lastmile_qr_scan,No,No,19,"KEY,CREDITCARD",43,2021/11/07 23:02:59+00,,"Montgomery County, MD (North)"
-77.096544,38.98857072,30373467,38.988562,-77.096539,Norfolk Ave & Fairmont St,classic,263,active,2021/11/07 19:44:44+00,2,0,8,2,1,Yes,Yes,Yes,Yes,https://dc.lft.to/lastmile_qr_scan,https://dc.lft.to/lastmile_qr_scan,No,No,11,"KEY,CREDITCARD",44,2021/11/07 23:02:59+00,,"Montgomery County, MD (South)"
-77.15129698,39.08413397,30373468,39.084125,-77.151291,E Montgomery Ave & Maryland Ave,classic,264,active,2021/11/07 04:19:19+00,12,0,3,0,0,Yes,Yes,Yes,Yes,https://dc.lft.to/lastmile_qr_scan,https://dc.lft.to/lastmile_qr_scan,No,No,15,"KEY,CREDITCARD",43,2021/11/07 23:02:59+00,,"Montgomery County, MD (North)"
-77.09803434,38.98955138,30373469,38.98954,-77.098029,Cordell & Norfolk Ave,classic,265,active,2021/11/07 15:09:28+00,9,0,2,0,0,Yes,Yes,Yes,Yes,https://dc.lft.to/lastmile_qr_scan,https://dc.lft.to/lastmile_qr_scan,No,No,11,"KEY,CREDITCARD",44,2021/11/07 23:02:59+00,,"Montgomery County, MD (South)"
-77.14521606,39.09478014,30373470,39.094772,-77.145213,Frederick Ave & Horners Ln,classic,266,active,2021/11/07 04:19:20+00,7,0,2,0,0,Yes,Yes,Yes,Yes,https://dc.lft.to/lastmile_qr_scan,https://dc.lft.to/lastmile_qr_scan,No,No,9,"KEY,CREDITCARD",43,2021/11/07 23:02:59+00,,"Montgomery County, MD (North)"
-77.01133589,38.98128634,30373471,38.98128,-77.011336,Philadelphia & Maple Ave,classic,267,active,2021/11/07 18:06:48+00,10,0,5,0,0,Yes,Yes,Yes,Yes,https://dc.lft.to/lastmile_qr_scan,https://dc.lft.to/lastmile_qr_scan,No,No,15,"KEY,CREDITCARD",44,2021/11/07 23:02:59+00,,"Montgomery County, MD (South)"
-77.00631561,38.98363786,30373472,38.983627,-77.006311,Maple & Ritchie Ave,classic,268,active,2021/11/07 20:26:49+00,13,0,6,0,0,Yes,Yes,Yes,Yes,https://dc.lft.to/lastmile_qr_scan,https://dc.lft.to/lastmile_qr_scan,No,No,19,"KEY,CREDITCARD",44,2021/11/07 23:02:59+00,,"Montgomery County, MD (South)"
-77.02912682,38.995264,30373473,38.995256,-77.029124,Silver Spring Metro / Colesville Rd & Wayne Ave,classic,269,active,2021/11/07 14:43:52+00,15,0,3,0,0,Yes,Yes,Yes,Yes,https://dc.lft.to/lastmile_qr_scan,https://dc.lft.to/lastmile_qr_scan,No,No,19,"KEY,CREDITCARD",44,2021/11/07 23:02:59+00,,"Montgomery County, MD (South)"
-77.09537147,38.98353609,30373474,38.983525,-77.095367,Montgomery & East Ln,classic,270,active,2021/11/07 15:55:35+00,11,0,0,0,0,Yes,Yes,Yes,Yes,https://dc.lft.to/lastmile_qr_scan,https://dc.lft.to/lastmile_qr_scan,No,No,11,"KEY,CREDITCARD",44,2021/11/07 23:02:59+00,,"Montgomery County, MD (South)"
-77.0859964,38.96177044,30373475,38.961763,-77.085998,Friendship Hts Metro / Wisconsin Ave & Wisconsin Cir,classic,271,active,2021/11/07 21:42:56+00,18,0,1,0,0,Yes,Yes,Yes,Yes,https://dc.lft.to/lastmile_qr_scan,https://dc.lft.to/lastmile_qr_scan,No,No,19,"KEY,CREDITCARD",44,2021/11/07 23:02:59+00,,"Montgomery County, MD (South)"
-77.03188717,38.92108024,30373476,38.921074,-77.031887,14th & Belmont St NW,classic,272,active,2021/11/07 22:48:53+00,13,0,2,0,0,Yes,Yes,Yes,Yes,https://dc.lft.to/lastmile_qr_scan,https://dc.lft.to/lastmile_qr_scan,No,No,15,"KEY,CREDITCARD",42,2021/11/07 23:02:59+00,,"Washington, DC"
-77.00239931,38.8750158,30373477,38.87501,-77.0024,3rd & Tingey St SE,classic,273,active,2021/11/07 22:47:30+00,4,0,15,1,0,Yes,Yes,Yes,Yes,https://dc.lft.to/lastmile_qr_scan,https://dc.lft.to/lastmile_qr_scan,No,No,19,"KEY,CREDITCARD",42,2021/11/07 23:02:59+00,,"Washington, DC"
-77.02567139,38.92039714,30373478,38.920387,-77.025672,10th & Florida Ave NW,classic,274,active,2021/11/07 22:52:24+00,9,0,10,1,0,Yes,Yes,Yes,Yes,https://dc.lft.to/lastmile_qr_scan,https://dc.lft.to/lastmile_qr_scan,No,No,19,"KEY,CREDITCARD",42,2021/11/07 23:02:59+00,,"Washington, DC"
-76.99447055,38.87674531,30373479,38.876737,-76.994468,Potomac Ave & 8th St SE,classic,275,active,2021/11/07 19:52:33+00,6,0,8,0,1,Yes,Yes,Yes,Yes,https://dc.lft.to/lastmile_qr_scan,https://dc.lft.to/lastmile_qr_scan,No,No,15,"KEY,CREDITCARD",42,2021/11/07 23:02:59+00,,"Washington, DC"
-77.18801097,39.09938542,30373480,39.099376,-77.188014,Fallsgrove Dr & W Montgomery Ave,classic,277,active,2021/11/07 04:19:26+00,9,0,6,0,0,Yes,Yes,Yes,Yes,https://dc.lft.to/lastmile_qr_scan,https://dc.lft.to/lastmile_qr_scan,No,No,15,"KEY,CREDITCARD",43,2021/11/07 23:02:59+00,,"Montgomery County, MD (North)"
-77.14916934,39.08367729,30373481,39.083673,-77.149162,Monroe St & Monroe Pl,classic,278,active,2021/11/07 12:27:57+00,11,0,4,0,0,Yes,Yes,Yes,Yes,https://dc.lft.to/lastmile_qr_scan,https://dc.lft.to/lastmile_qr_scan,No,No,15,"KEY,CREDITCARD",43,2021/11/07 23:02:59+00,,"Montgomery County, MD (North)"
-77.15741742,39.12351784,30373482,39.123513,-77.15741,Needwood Rd & Eagles Head Ct,classic,279,active,2021/11/07 04:24:20+00,10,0,4,0,1,Yes,Yes,Yes,Yes,https://dc.lft.to/lastmile_qr_scan,https://dc.lft.to/lastmile_qr_scan,No,No,15,"KEY,CREDITCARD",43,2021/11/07 23:02:59+00,,"Montgomery County, MD (North)"
